[
    {
        "title": "Top 10 Things To Do In Mysore",
        "url": "https://www.tripoto.com/trip/top-10-things-to-do-in-mysore-56752f634bc97",
        "placeName": "Mysuru",
        "category": "Things To Do"
    },
    {
        "title": "Exploring Tourist Places in Trivandrum â€“ The Capital City of Kerala",
        "url": "https://www.tripoto.com/kerala/trips/exploring-trivandrum-the-capital-city-of-kerala",
        "placeName": "Trivandrum",
        "category": "Travel"
    },
    {
        "title": "Best Places To Visit In India: Destinations For Every Month",
        "url": "https://www.tripoto.com/india/trips/best-places-to-visit-in-india-destinations-for-every-month",
        "placeName": "India",
        "category": "Travel"
    },
    {
        "title": "The Gems of Himachal: Dalhousie, Chamba & Khajjiar",
        "url": "https://www.tripoto.com/himachal-pradesh/trips/the-gems-of-himanchal-dalhousie-chamba-khajjiar-5931933581e7c",
        "placeName": "Himachal Pradesh",
        "category": "Travel"
    },
    {
        "title": "Less Explored Hills of Chamba, Kanatal, and Dhanaulti in Uttaranchal",
        "url": "https://www.tripoto.com/new-tehri/trips/less-explored-hills-of-chamba-kanatal-and-dhanaulti-in-uttaranchal-state-56fb8d692be4c",
        "placeName": "Uttaranchal",
        "category": "Travel"
    },
    {
        "title": "Nashik Vineyards - There is More Than Sula!",
        "url": "https://www.tripoto.com/york/trips/nashik-vineyards-there-is-more-than-sula-57051430c4014",
        "placeName": "Nashik",
        "category": "Food & Drink"
    },
    {
        "title": "Top 11 'Rain Special' Food Joints in Thane",
        "url": "https://www.tripoto.com/thane/trips/top-11-rain-special-food-joints-in-thane-5489",
        "placeName": "Thane",
        "category": "Food & Drink"
    },
    {
        "title": "Traveller Cafes in Thane",
        "url": "https://www.tripoto.com/maharashtra/trips/traveller-cafes-in-thane-58d4de37d45fe",
        "placeName": "Thane",
        "category": "Food & Drink"
    },
    {
        "title": "Best Places To Visit In Alleppey",
        "url": "https://www.tripoto.com/trip/unveiling-the-charm-of-alleppey-backwaters-591f630f106c4",
        "placeName": "Alleppey",
        "category": "Travel"
    },
    {
        "title": "Things To Do In Alleppey",
        "url": "https://www.tripoto.com/trip/kerala-diaries-alleppey-kumarakom-5803234308e4c",
        "placeName": "Alleppey",
        "category": "Things To Do"
    },
    {
        "title": "What Not To Miss In Paris",
        "url": "https://www.tripoto.com/trip/paris-most-visited-tourist-attractions-1847",
        "placeName": "Paris",
        "category": "Things To Do"
    },
    {
        "title": "Paris' Most Visited Tourist Attractions",
        "url": "https://www.tripoto.com/paris/trips/paris-most-visited-tourist-attractions-1847",
        "placeName": "Paris",
        "category": "Travel"
    },
    {
        "title": "Hotels In New York City",
        "url": "https://www.tripoto.com/travel-guide/new-york/hotels",
        "placeName": "New York City",
        "category": "Travel"
    },
    {
        "title": "Top Things To Do In NYC",
        "url": "https://www.tripoto.com/trip/top-10-things-to-do-in-new-york-city-comprehensive-trip-report-576a7f8f1f9f3",
        "placeName": "New York City",
        "category": "Things To Do"
    },
    {
        "title": "10 Things to Do With Kids in New York",
        "url": "https://www.tripoto.com/new-york/trips/nyc-with-my-5-yr-old-hurricane-10-things-to-do-with-kids-in-nyc-5877fde28ba92",
        "placeName": "New York City",
        "category": "Things To Do"
    },
    {
        "title": "Stirring Places To Visit In Nepal",
        "url": "https://www.tripoto.com/nepal/trips/places-to-visit-in-nepal-tourism-itinerary",
        "placeName": "Nepal",
        "category": "Travel"
    },
    {
        "title": "20 Hotels In Nepal Under Rs. 10,000",
        "url": "https://www.tripoto.com/hotels/Hotels-In-Nepal",
        "placeName": "Nepal",
        "category": "Travel"
    },
    {
        "title": "Things To Do In Pokhara",
        "url": "https://www.tripoto.com/trip/wonders-of-pokhara-ft-annapurna-ii-dhaulagiri-machhapuchhare-lamjung-5ec6c955447ee",
        "placeName": "Pokhara",
        "category": "Things To Do"
    },
    {
        "title": "Top Adventure Activities In Nepal",
        "url": "https://www.tripoto.com/trip/adventurous-things-to-do-in-nepal",
        "placeName": "Nepal",
        "category": "Things To Do"
    },
    {
        "title": "Things to Do In Nepal For Adrenaline Junkies",
        "url": "https://www.tripoto.com/kathmandu/trips/things-to-do-in-nepal",
        "placeName": "Nepal",
        "category": "Things To Do"
    },
    {
        "title": "Trekking On New Paths In Nepal",
        "url": "https://www.tripoto.com/nepal/trips/trekking-on-new-paths-in-nepal-5141",
        "placeName": "Nepal",
        "category": "Things To Do"
    },
    {
        "title": "Day Trips from Colorado Springs",
        "url": "https://www.tripoto.com/denver/trips/day-trips-from-colorado-springs-602170",
        "placeName": "Colorado Springs",
        "category": "Travel"
    },
    {
        "title": "7 Things To Do In Colorado Springs",
        "url": "https://www.tripoto.com/north-america/trips/7-things-to-do-in-colorado-springs-colorado-57ea688dce0a1",
        "placeName": "Colorado Springs",
        "category": "Things To Do"
    },
    {
        "title": "10 Best Countries to Visit in June",
        "url": "https://www.tripoto.com/paris/trips/best-countries-to-visit-in-june",
        "placeName": "World",
        "category": "Travel"
    },
    {
        "title": "5 Amazing Lesser-Known Hill Stations in North & North-Eastern India",
        "url": "https://www.tripoto.com/india/trips/best-hill-stations-in-north-east-india",
        "placeName": "India",
        "category": "Travel"
    },
    {
        "title": "Waterfalls of North Idaho",
        "url": "https://www.tripoto.com/uttar-pradesh/trips/waterfalls-of-north-idaho-58dc30b820b15",
        "placeName": "North Idaho",
        "category": "Travel"
    },
    {
        "title": "Things to Do in Charleston",
        "url": "https://www.tripoto.com/united-states-of-america/trips/soned-in-charleston-4781",
        "placeName": "Charleston",
        "category": "Things To Do"
    },
    {
        "title": "Best Hotels In Kutch",
        "url": "https://www.tripoto.com/travel-guide/kutch/hotels",
        "placeName": "Kutch",
        "category": "Travel"
    },
    {
        "title": "The Hidden Artisan Villages Of Kutch",
        "url": "https://www.tripoto.com/trip/meet-the-craftsmen-of-kutch-5a5de7fe7b898",
        "placeName": "Kutch",
        "category": "Travel"
    },
    {
        "title": "Things To Do In Kutch",
        "url": "https://www.tripoto.com/trip/kutch-top-10-reasons-to-make-you-travel-to-kutch-58ca29f1bd8d2",
        "placeName": "Kutch",
        "category": "Things To Do"
    },
    {
        "title": "Beaches of Kutch",
        "url": "https://www.tripoto.com/gujarat/trips/beaches-of-kutch-254053",
        "placeName": "Kutch",
        "category": "Travel"
    },
    {
        "title": "Best Places To Visit in Coorg",
        "url": "https://www.tripoto.com/trip/places-to-visit-in-coorg-3ac8bc2193bf5a2f0",
        "placeName": "Coorg",
        "category": "Travel"
    },
    {
        "title": "Six Best Things to do in Coorg",
        "url": "https://www.tripoto.com/trip/six-best-things-to-do-in-coorg-5e20216e7d542",
        "placeName": "Coorg",
        "category": "Things To Do"
    },
    {
        "title": "Best Coorg Resorts For All Kinds of Travellers",
        "url": "https://www.tripoto.com/trip/these-are-some-of-the-best-coorg-resorts-you-must-visit-3ac6a5f963a47ed7",
        "placeName": "Coorg",
        "category": "Travel"
    },
    {
        "title": "Best Homestays in Coorg Under \u20b95000/Night",
        "url": "https://www.tripoto.com/trip/stay-at-these-20-handpicked-homestays-in-coorg-on-your-next-holiday-96864ee0757baa",
        "placeName": "Coorg",
        "category": "Travel"
    },
    {
        "title": "Luxury Resorts In Coorg With Gorgeous Views",
        "url": "https://www.tripoto.com/trip/these-top-rated-resorts-in-coorg-offer-jaw-dropping-views-60d896a5892b2",
        "placeName": "Coorg",
        "category": "Travel"
    },
    {
        "title": "Top 5 Business Hotels in India For Corporate Go-Getters",
        "url": "https://www.tripoto.com/india/trips/business-hotels-in-india",
        "placeName": "India",
        "category": "Travel"
    },
    {
        "title": "Stunning Hotels in Goa for Every Budget",
        "url": "https://www.tripoto.com/anjuna/trips/hotels-in-goa",
        "placeName": "Goa",
        "category": "Travel"
    },
    {
        "title": "A Guide to the Mysuru Food Trail",
        "url": "https://www.tripoto.com/mysore/trips/my-mysuru-food-trail-575fe0159abd7",
        "placeName": "Mysuru",
        "category": "Food & Drink"
    },
    {
        "title": "The City of Seven Palaces - Mysuru",
        "url": "https://www.tripoto.com/mysore/trips/the-city-of-seven-palaces-mysuru-59c36b6106d18",
        "placeName": "Mysuru",
        "category": "Travel"
    },
    {
        "title": "25 Breathtaking Islands In Malaysia",
        "url": "https://www.tripoto.com/trip/25-islands-in-malaysia-for-a-heavenly-vacation-in-2024-3c7ef04fd6a6bf24f",
        "placeName": "Malaysia",
        "category": "Travel"
    },
    {
        "title": "10 Best Resorts In Malaysia For Your Next Holiday",
        "url": "https://www.tripoto.com/trip/10-best-resorts-in-malaysia-for-your-next-holiday-60e5c300a4033c1",
        "placeName": "Malaysia",
        "category": "Travel"
    },
    {
        "title": "Beyond Kuala Lumpur: Places You Won't See Elsewhere in Asia!",
        "url": "https://www.tripoto.com/selangor/trips/malaysia-beyond-kuala-lumpur-an-explorers-guide-5ef179a149925",
        "placeName": "Malaysia",
        "category": "Travel"
    },
    {
        "title": "Things To Do In Malaysia: An Offbeat Guide",
        "url": "https://www.tripoto.com/kota-kinabalu/trips/need-a-break-from-work-explore-these-offbeat-destinations-in-malaysia-5a9c7fa6a0c09",
        "placeName": "Malaysia",
        "category": "Things To Do"
    },
    {
        "title": "Places to Visit in Malaysia: Big Cities & Pristine Beaches",
        "url": "https://www.tripoto.com/malaysia/trips/places-to-visit-in-malaysia-tourism-itinerary",
        "placeName": "Malaysia",
        "category": "Travel"
    },
    {
        "title": "A Guide to Vineyards in Australia",
        "url": "https://www.tripoto.com/adelaide/trips/vineyards-in-australia-ripe-in-the-vine-598d95664d594",
        "placeName": "Australia",
        "category": "Food & Drink"
    },
    {
        "title": "The Best Places To Visit For Luxury Travellers",
        "url": "https://www.tripoto.com/italy/trips/where-to-go-in-2017-58dce13d8f548",
        "placeName": "World",
        "category": "Travel"
    },
    {
        "title": "13 Glamorous Beach Destinations",
        "url": "https://www.tripoto.com/cuba/trips/13-glamorous-beach-destinations-where-you-can-enjoy-a-luxurious-holiday-591acde50d693",
        "placeName": "World",
        "category": "Travel"
    },
    {
        "title": "Weekend Destinations near Siliguri",
        "url": "https://www.tripoto.com/trip/weekend-destinations-of-siliguri-572f77ec179ad",
        "placeName": "Siliguri",
        "category": "Travel"
    },
    {
        "title": "The Diamond Triangle of Odisha",
        "url": "https://www.tripoto.com/india/trips/diamond-triangle-of-odisha-the-unearthed-jewels-220441",
        "placeName": "Odisha",
        "category": "Travel"
    },
    {
        "title": "Beautiful Islands of Pembrokeshire",
        "url": "https://www.tripoto.com/united-kingdom/trips/islands-of-pembrokeshire-water-water-birds-and-sea-animals-everywhere-4790",
        "placeName": "Pembrokeshire",
        "category": "Travel"
    },
    {
        "title": "The Emerald Islands: A Dreamer's Home",
        "url": "https://www.tripoto.com/india/trips/the-emerald-islands-a-dreamers-home-857415",
        "placeName": "India",
        "category": "Travel"
    },
    {
        "title": "10 Things To Do And Places To Visit In Odisha",
        "url": "https://www.tripoto.com/orissa/trips/places-to-visit-in-odisha",
        "placeName": "Odisha",
        "category": "Things To Do"
    },
    {
        "title": "Happening Hostels in Pushkar",
        "url": "https://www.tripoto.com/trip/most-happening-hostels-in-pushkar-5a7490d6b05bb",
        "placeName": "Pushkar",
        "category": "Travel"
    },
    {
        "title": "10 Things To Do In Pushkar",
        "url": "https://www.tripoto.com/trip/10-things-to-do-in-pushkar-5729",
        "placeName": "Pushkar",
        "category": "Things To Do"
    },
    {
        "title": "A Guide to Cafe-Hopping in Pushkar",
        "url": "https://www.tripoto.com/trip/the-ultimate-guide-to-cafe-hopping-in-pushkar-5a72e0ff04ec8",
        "placeName": "Pushkar",
        "category": "Food & Drink"
    },
    {
        "title": "8 Things To Do in Ajmer and Pushkar",
        "url": "https://www.tripoto.com/ajmer/trips/8-things-to-do-in-ajmer-and-pushkar-5911",
        "placeName": "Ajmer & Pushkar",
        "category": "Things To Do"
    },
    {
        "title": "Best Places To Visit In Lonavala",
        "url": "https://www.tripoto.com/trip/road-trip-to-lonavala-962657",
        "placeName": "Lonavala",
        "category": "Travel"
    },
    {
        "title": "Best Hotels In Lonavala",
        "url": "https://www.tripoto.com/travel-guide/lonavala/hotels",
        "placeName": "Lonavala",
        "category": "Travel"
    },
    {
        "title": "Things To Do In Lonavala",
        "url": "https://www.tripoto.com/trip/fireflies-to-be-your-companions-for-the-rajmachi-fort-trek-this-monsoon-5923d52c1eb7c",
        "placeName": "Lonavala",
        "category": "Things To Do"
    },
    {
        "title": "Best Restaurants In Lonavala",
        "url": "https://www.tripoto.com/trip/mumbai-to-lonavala-binge-at-these-5-restaurants-on-the-way-59ddad91c5f0e",
        "placeName": "Lonavala",
        "category": "Food & Drink"
    },
    {
        "title": "Best Hotels In Amritsar",
        "url": "https://www.tripoto.com/travel-guide/amritsar/hotels",
        "placeName": "Amritsar",
        "category": "Travel"
    },
    {
        "title": "Offbeat Places To Visit In Amritsar",
        "url": "https://www.tripoto.com/trip/amritsar-beyond-golden-temple-wagah-border-5a20f1857f07d",
        "placeName": "Amritsar",
        "category": "Travel"
    },
    {
        "title": "A Foodie's Guide To Amritsar",
        "url": "https://www.tripoto.com/trip/amritsar-your-next-food-destination-6220",
        "placeName": "Amritsar",
        "category": "Food & Drink"
    },
    {
        "title": "7 Things You Shouldn't Miss In Amritsar",
        "url": "https://www.tripoto.com/trip/places-to-visit-in-amritsar-a-memorable-trip-to-cherish-5796d312a40dd",
        "placeName": "Amritsar",
        "category": "Things To Do"
    },
    {
        "title": "Best Coorg Resorts For All Travellers",
        "url": "https://www.tripoto.com/trip/best-coorg-resorts-you-must-visit-3ac6a5f963a47ed7",
        "placeName": "Coorg",
        "category": "Travel"
    },
    {
        "title": "Best Homestays in Coorg Under \u20b95000",
        "url": "https://www.tripoto.com/karnataka/trips/stay-at-these-20-handpicked-homestays-in-coorg-on-your-next-holiday-96864ee0757baa",
        "placeName": "Coorg",
        "category": "Travel"
    },
    {
        "title": "A Guide to the Best National Parks Around The World",
        "url": "https://www.tripoto.com/india/trips/best-national-parks-in-the-world",
        "placeName": "World",
        "category": "Travel"
    },
    {
        "title": "Our Five Favourite National Parks in the Western USA",
        "url": "https://www.tripoto.com/united-states-of-america/trips/our-favourite-five-national-parks-in-the-western-usa-796247",
        "placeName": "USA",
        "category": "Travel"
    },
    {
        "title": "Best Hotels In Kinnaur",
        "url": "https://www.tripoto.com/travel-guide/kinnaur/hotels",
        "placeName": "Kinnaur",
        "category": "Travel"
    },
    {
        "title": "5 Things You Can't Miss In Gurgaon",
        "url": "https://www.tripoto.com/gurgaon/trips/5-things-that-can-t-be-miss-out-while-you-are-in-gurgaon-5293",
        "placeName": "Gurgaon",
        "category": "Things To Do"
    },
    {
        "title": "Best Restaurants in Gurgaon",
        "url": "https://www.tripoto.com/gurgaon/trips/5-best-restaurants-in-gurgaon",
        "placeName": "Gurgaon",
        "category": "Food & Drink"
    },
    {
        "title": "8 Must-Visit Hampi Temples",
        "url": "https://www.tripoto.com/trip/8-must-visit-hampi-temples-that-should-be-on-your-list-5e26d144ecba1285",
        "placeName": "Hampi",
        "category": "Travel"
    },
    {
        "title": "25 Places To Visit In Hampi",
        "url": "https://www.tripoto.com/trip/top-25-places-to-visit-in-hampi-the-ultimate-travel-guide-3ad085aa2d7b5f398",
        "placeName": "Hampi",
        "category": "Travel"
    },
    {
        "title": "10 Best Cafes in Hampi",
        "url": "https://www.tripoto.com/trip/10-best-cafes-in-hampi-5c3f001adaf1d",
        "placeName": "Hampi",
        "category": "Food & Drink"
    },
    {
        "title": "Best Budget Hostels in Hampi",
        "url": "https://www.tripoto.com/trip/5-hostels-in-hampi-which-are-every-backpacker-s-dream-come-true-59cb9ac1bdd05",
        "placeName": "Hampi",
        "category": "Travel"
    },
    {
        "title": "10 Things to do in Hampi",
        "url": "https://www.tripoto.com/trip/10-things-to-do-while-in-hampi",
        "placeName": "Hampi",
        "category": "Things To Do"
    },
    {
        "title": "10 Reasons Why Hampi is Magical",
        "url": "https://www.tripoto.com/trip/10-reasons-why-hampi-is-truly-magical-573ae0419a99f",
        "placeName": "Hampi",
        "category": "Travel"
    },
    {
        "title": "10 Best Meghalaya Tourist Places",
        "url": "https://www.tripoto.com/meghalaya/trips/10-best-meghalaya-tourist-places",
        "placeName": "Meghalaya",
        "category": "Travel"
    },
    {
        "title": "Best Places to Explore in Shillong",
        "url": "https://www.tripoto.com/meghalaya/trips/best-shillong-tourist-places-to-add-to-your-bucketlist",
        "placeName": "Shillong",
        "category": "Travel"
    },
    {
        "title": "Meghalaya Festivals You Can't Miss",
        "url": "https://www.tripoto.com/trip/meghalaya-festivals-that-you-must-observe-for-a-once-in-a-lifetime-experience-5f042ed3eb4c111f",
        "placeName": "Meghalaya",
        "category": "Things To Do"
    },
    {
        "title": "6 Gorgeous Waterfalls in Meghalaya",
        "url": "https://www.tripoto.com/trip/6-gorgeous-waterfalls-in-meghalaya-you-cant-miss",
        "placeName": "Meghalaya",
        "category": "Travel"
    },
    {
        "title": "Explore Incredible Caves In Meghalaya",
        "url": "https://www.tripoto.com/trip/caves-in-meghalaya",
        "placeName": "Meghalaya",
        "category": "Travel"
    },
    {
        "title": "Adventure Sports in Meghalaya",
        "url": "https://www.tripoto.com/trip/things-to-do-in-meghalaya",
        "placeName": "Meghalaya",
        "category": "Things To Do"
    },
    {
        "title": "Best Sunset & Sunrise Spots In Meghalaya",
        "url": "https://www.tripoto.com/trip/best-sunset-sunrise-spots-in-meghalaya-that-will-make-you-go-ooh-la-la-3c4e16865c9eb234c",
        "placeName": "Meghalaya",
        "category": "Travel"
    },
    {
        "title": "5 Viral Places in Meghalaya",
        "url": "https://www.tripoto.com/trip/5-places-in-meghalaya-that-have-gone-viral-for-good-reasons-64a2b81dae76d",
        "placeName": "Meghalaya",
        "category": "Travel"
    },
    {
        "title": "Top 13 Waterfalls in Meghalaya",
        "url": "https://www.tripoto.com/trip/meghalaya-top-13-waterfalls-not-to-be-missed-634e8b139d1d5",
        "placeName": "Meghalaya",
        "category": "Travel"
    },
    {
        "title": "Best Hotels In Darjeeling",
        "url": "https://www.tripoto.com/travel-guide/darjeeling/hotels",
        "placeName": "Darjeeling",
        "category": "Travel"
    },
    {
        "title": "Things To Do In Darjeeling",
        "url": "https://www.tripoto.com/trip/seven-reasons-to-visit-darjeeling-5236",
        "placeName": "Darjeeling",
        "category": "Things To Do"
    },
    {
        "title": "Best Places To Eat In Darjeeling",
        "url": "https://www.tripoto.com/trip/7-not-to-miss-delicious-eateries-when-you-are-in-darjeeling-58e1112d77050",
        "placeName": "Darjeeling",
        "category": "Food & Drink"
    },
    {
        "title": "6 Offbeat Places To Explore In France",
        "url": "https://www.tripoto.com/trip/6-off-the-beaten-path-places-to-explore-in-france-58ed200c236b4",
        "placeName": "France",
        "category": "Travel"
    },
    {
        "title": "Places to Visit in Hyderabad on Weekends",
        "url": "https://www.tripoto.com/andhra-pradesh/trips/places-to-visit-in-hyderabad-on-weekends-6466",
        "placeName": "Hyderabad",
        "category": "Travel"
    },
    {
        "title": "10 Best Cafes in Gangtok You Can't Miss",
        "url": "https://www.tripoto.com/trip/10-best-cafes-restaurants-in-gangtok",
        "placeName": "Gangtok",
        "category": "Food & Drink"
    },
    {
        "title": "A Guide To The Unique Ghats In Varanasi",
        "url": "https://www.tripoto.com/varanasi/trips/ghats-in-varanasi",
        "placeName": "Varanasi",
        "category": "Travel"
    },
    {
        "title": "5 Incredible Things To Do In Varanasi",
        "url": "https://www.tripoto.com/uttar-pradesh/trips/the-holy-city-varanasi-5f23d6a359359",
        "placeName": "Varanasi",
        "category": "Things To Do"
    },
    {
        "title": "Top 10 Things to do in Varanasi",
        "url": "https://www.tripoto.com/varanasi/trips/wanderings-in-varanasi-top-10-things-to-do-in-varanasi-5d0bb60c8eb0b",
        "placeName": "Varanasi",
        "category": "Things To Do"
    },
    {
        "title": "Best Backpacker Hostels in Varanasi",
        "url": "https://www.tripoto.com/varanasi/trips/starting-at-149-these-hostels-in-varanasi-are-a-must-visit-for-every-backpacker-5a55e94df06f4",
        "placeName": "Varanasi",
        "category": "Travel"
    },
    {
        "title": "6 Street Foods You Shouldn't Miss in Varanasi",
        "url": "https://www.tripoto.com/varanasi/trips/6-street-foods-you-should-not-miss-in-varanasi-5ac5ecc347e7e",
        "placeName": "Varanasi",
        "category": "Food & Drink"
    },
    {
        "title": "The Best Street Food Joints In Varanasi",
        "url": "https://www.tripoto.com/varanasi/trips/here-s-how-i-found-the-best-street-food-in-varanasi-without-using-google-5bc5bc344393f",
        "placeName": "Varanasi",
        "category": "Food & Drink"
    },
    {
        "title": "Varanasi's Best Street Food Joints You'll Regret Missing",
        "url": "https://www.tripoto.com/trip/varanasis-best-street-food-joints-that-youll-regret-if-you-miss-616fab23159fd",
        "placeName": "Varanasi",
        "category": "Food & Drink"
    },
    {
        "title": "11 Reasons To Visit Bali",
        "url": "https://www.tripoto.com/trip/i-visited-bali-four-times-and-here-are-my-11-reasons-why-you-must-plan-a-trip-in-2022-61adde03ea691",
        "placeName": "Bali",
        "category": "Travel"
    },
    {
        "title": "7 Best Wellness Treatments In Bali",
        "url": "https://www.tripoto.com/trip/7-best-wellness-treatments-you-can-only-get-in-bali-5b0fe93636940",
        "placeName": "Bali",
        "category": "Things To Do"
    },
    {
        "title": "A Vegetarian's Food Guide For Bali",
        "url": "https://www.tripoto.com/trip/must-try-restaurants-in-bali-vegetarian-special-5b2cedf9a0d0a",
        "placeName": "Bali",
        "category": "Food & Drink"
    },
    {
        "title": "Best Sunset Spots in Bali",
        "url": "https://www.tripoto.com/trip/simple-guide-for-sunset-catching-bali-5ea59ba17cd87",
        "placeName": "Bali",
        "category": "Travel"
    },
    {
        "title": "11 Hostels & Homestays in Bali Under \u20b91000",
        "url": "https://www.tripoto.com/trip/start-packing-for-the-best-holiday-ever-stay-in-balis-11-best-hostels-homestays-under-rs-990-61f3c2763ffb5",
        "placeName": "Bali",
        "category": "Travel"
    },
    {
        "title": "A Guide to Finding Hotels in Bali",
        "url": "https://www.tripoto.com/trip/where-to-stay-in-bali-a-comprehensive-guide-to-bali-hotels-5c8f8d2c27a74",
        "placeName": "Bali",
        "category": "Travel"
    },
    {
        "title": "7 Quirky Places to Stay in Bali",
        "url": "https://www.tripoto.com/trip/where-to-stay-in-bali",
        "placeName": "Bali",
        "category": "Travel"
    },
    {
        "title": "5 Hotels In Bali With Amazing Deals",
        "url": "https://www.tripoto.com/trip/5-hotels-in-bali-with-deals-so-amazing-that-youll-be-compelled-to-jet-set-and-go",
        "placeName": "Bali",
        "category": "Travel"
    },
    {
        "title": "10 Spectacular Airbnbs in Bali",
        "url": "https://www.tripoto.com/trip/these-spectacular-airbnbs-in-bali-will-blow-your-mind-3b3d86efe32adc1f7",
        "placeName": "Bali",
        "category": "Travel"
    },
    {
        "title": "Tree-Houses in Bali Under \u20b93000",
        "url": "https://www.tripoto.com/ubud/trips/thinking-bali-these-tree-houses-under-3000-will-light-up-your-ig-feed-5cab966068f58",
        "placeName": "Bali",
        "category": "Travel"
    },
    {
        "title": "Bali's Best Beaches",
        "url": "https://www.tripoto.com/trip/experience-balis-best-beaches-with-a-drink-62d143812911b",
        "placeName": "Bali",
        "category": "Travel"
    },
    {
        "title": "Best Beach Clubs in Bali",
        "url": "https://www.tripoto.com/trip/best-beach-clubs-in-bali-62a07350380f1",
        "placeName": "Bali",
        "category": "Music & Nightlife"
    },
    {
        "title": "9 Amazing Shopping Spots in Bali",
        "url": "https://www.tripoto.com/trip/shop-till-you-drop-in-bali-at-these-10-crazy-amazing-cheap-hot-spots-5c323d44cb1c7",
        "placeName": "Bali",
        "category": "Shopping"
    },
    {
        "title": "Best Places To Visit In Ooty",
        "url": "https://www.tripoto.com/trip/ooty-the-queen-of-hill-stations-5a083909b68f5",
        "placeName": "Ooty",
        "category": "Travel"
    },
    {
        "title": "Best Hotels In Ooty",
        "url": "https://www.tripoto.com/travel-guide/ooty/hotels",
        "placeName": "Ooty",
        "category": "Travel"
    },
    {
        "title": "Top Tourist Places In Ooty",
        "url": "https://www.tripoto.com/trip/a-travel-guide-to-experience-the-best-of-ooty-5ac3377418f70",
        "placeName": "Ooty",
        "category": "Travel"
    },
    {
        "title": "Things To Do In Ooty",
        "url": "https://www.tripoto.com/trip/ten-things-to-do-in-ooty-6879",
        "placeName": "Ooty",
        "category": "Things To Do"
    },
    {
        "title": "5 Things You Can't Miss In Nainital",
        "url": "https://www.tripoto.com/trip/top-5-things-to-do-in-nainital-the-lake-district-of-india-5461",
        "placeName": "Nainital",
        "category": "Things To Do"
    },
    {
        "title": "8 Cafes in Pondicherry",
        "url": "https://www.tripoto.com/puducherry/trips/best-cafes-in-pondicherry",
        "placeName": "Puducherry",
        "category": "Food & Drink"
    },
    {
        "title": "7 Ways to Enjoy Puducherry",
        "url": "https://www.tripoto.com/india/trips/7-ways-to-enjoy-puducherry-7916",
        "placeName": "Puducherry",
        "category": "Things To Do"
    },
    {
        "title": "10 Best Cafes in Gangtok",
        "url": "https://www.tripoto.com/sikkim/trips/gangtok-sightseeing",
        "placeName": "Gangtok",
        "category": "Food & Drink"
    },
    {
        "title": "10 of The Most Stunning Italian Towns",
        "url": "https://www.tripoto.com/trip/10-towns-that-will-make-you-move-to-italy-9409",
        "placeName": "Italy",
        "category": "Travel"
    },
    {
        "title": "Italy's Irresistible Food Tours",
        "url": "https://www.tripoto.com/trip/italy-food-tours-itinerary",
        "placeName": "Italy",
        "category": "Food & Drink"
    },
    {
        "title": "Italian Art And Architecture Trail",
        "url": "https://www.tripoto.com/trip/the-perfect-art-and-architecture-trail-in-northern-italy-for-history-buffs-58e20359b36ab",
        "placeName": "Italy",
        "category": "Travel"
    },
    {
        "title": "10 towns that will make you move to Italy",
        "url": "https://www.tripoto.com/europe/trips/10-towns-that-will-make-you-move-to-italy-9409",
        "placeName": "Italy",
        "category": "Travel"
    },
    {
        "title": "Best Hotels In Jodhpur",
        "url": "https://www.tripoto.com/travel-guide/jodhpur/hotels",
        "placeName": "Jodhpur",
        "category": "Travel"
    },
    {
        "title": "Places To See In Jodhpur",
        "url": "https://www.tripoto.com/trip/unravelling-the-bustling-blue-city-of-rajasthan-jodhpur-58889a0862296",
        "placeName": "Jodhpur",
        "category": "Travel"
    },
    {
        "title": "Places You Can\u2019t Miss in Jodhpur",
        "url": "https://www.tripoto.com/rajasthan/trips/places-you-can-t-miss-at-jodhpur-59543919d1b69",
        "placeName": "Jodhpur",
        "category": "Travel"
    },
    {
        "title": "Exploring Indonesian Islands, Beyond Bali",
        "url": "https://www.tripoto.com/trip/Indonesia-islands-travel-guide",
        "placeName": "Indonesia",
        "category": "Travel"
    },
    {
        "title": "10 Best Cultural Experiences in Indonesia",
        "url": "https://www.tripoto.com/trip/indonesia-is-a-lot-more-than-beaches-parties-here-are-10-cultural-experiences-you-can-have-there-3b3bf623b57d7236",
        "placeName": "Indonesia",
        "category": "Things To Do"
    },
    {
        "title": "Best Scuba Diving Spots in Indonesia",
        "url": "https://www.tripoto.com/trip/best-scuba-diving-in-the-world",
        "placeName": "Indonesia",
        "category": "Things To Do"
    },
    {
        "title": "14 Best Things To Do in Bali",
        "url": "https://www.tripoto.com/trip/t0p-14-things-to-do-in-bali-indonesia-bali-travel-guide-2022-3b0d8ad0b3dbf73d7",
        "placeName": "Bali",
        "category": "Things To Do"
    },
    {
        "title": "5 Best Temples in Bali",
        "url": "https://www.tripoto.com/trip/5-bali-temples-you-should-not-miss-bali-indonesia-little-traveling-soul-5f664b61defbd",
        "placeName": "Bali",
        "category": "Travel"
    },
    {
        "title": "Thrilling Island Hopping in Indonesia",
        "url": "https://www.tripoto.com/trip/island-hopping-in-indonesia-5b0d37db5deb0",
        "placeName": "Indonesia",
        "category": "Things To Do"
    },
    {
        "title": "17 Most Beautiful Beaches In Indonesia",
        "url": "https://www.tripoto.com/trip/best-beaches-in-indonesia",
        "placeName": "Indonesia",
        "category": "Travel"
    },
    {
        "title": "Appealing Things to Do in Ubud",
        "url": "https://www.tripoto.com/trip/things-to-do-in-ubud",
        "placeName": "Ubud",
        "category": "Things To Do"
    },
    {
        "title": "Best Luxury Hotels in Bali",
        "url": "https://www.tripoto.com/trip/these-luxurious-hotels-of-bali-are-also-astonishingly-budget-friendly-5e364fbf4bd49",
        "placeName": "Bali",
        "category": "Travel"
    },
    {
        "title": "10 Luxury Resorts In Bali",
        "url": "https://www.tripoto.com/trip/10-best-luxury-resorts-in-bali-for-honeymooners-3b1fc2441d484324b",
        "placeName": "Bali",
        "category": "Travel"
    },
    {
        "title": "5 Best Restaurants In Ubud, Bali",
        "url": "https://www.tripoto.com/trip/the-5-best-restaurants-in-ubud-5f40804df032d",
        "placeName": "Ubud",
        "category": "Food & Drink"
    },
    {
        "title": "Vegetarian Food Guide for your Bali Trip",
        "url": "https://www.tripoto.com/trip/vegetarian-food-guide-for-your-bali-trip-must-go-places-5db74328807c1",
        "placeName": "Bali",
        "category": "Food & Drink"
    },
    {
        "title": "Traditional Entrees To Indulge In Bali",
        "url": "https://www.tripoto.com/trip/when-in-bali-indulge-in-these-entree-traditional-eats-to-try-5c1274fd5b920",
        "placeName": "Bali",
        "category": "Food & Drink"
    },
    {
        "title": "Best Hotels In Srinagar",
        "url": "https://www.tripoto.com/travel-guide/srinagar/hotels",
        "placeName": "Srinagar",
        "category": "Travel"
    },
    {
        "title": "Best Hotels In Shillong",
        "url": "https://www.tripoto.com/travel-guide/shillong/hotels",
        "placeName": "Shillong",
        "category": "Travel"
    },
    {
        "title": "Things To Do In Shillong",
        "url": "https://www.tripoto.com/trip/5-reasons-why-you-need-to-pack-your-bags-now-and-head-out-to-shillong-593bc1641fe44",
        "placeName": "Shillong",
        "category": "Things To Do"
    },
    {
        "title": "5 Cafes In Shillong Serving Delicious Food",
        "url": "https://www.tripoto.com/meghalaya/trips/cafes-in-shillong",
        "placeName": "Shillong",
        "category": "Food & Drink"
    },
    {
        "title": "10 Of The Most Unusual Beaches In the World",
        "url": "https://www.tripoto.com/sydney/trips/10-secret-hidden-beaches-in-the-world-568e1c2793cd9",
        "placeName": "World",
        "category": "Travel"
    },
    {
        "title": "Best Beaches As Told by 15 Female Travelers",
        "url": "https://www.tripoto.com/australia/trips/world-s-best-beaches-from-the-eyes-of-15-girl-travelers-583ab31d68d13",
        "placeName": "World",
        "category": "Travel"
    },
    {
        "title": "8 Airports Offering Free City Tours During Layovers",
        "url": "https://www.tripoto.com/trip/airports-that-offer-free-city-tours-during-layovers-591544b979c5b",
        "placeName": "World",
        "category": "Travel"
    },
    {
        "title": "Best Hotels In Gangtok",
        "url": "https://www.tripoto.com/travel-guide/sikkim/hotels",
        "placeName": "Gangtok",
        "category": "Travel"
    },
    {
        "title": "Best Places to Visit in Assam",
        "url": "https://www.tripoto.com/trip/assam-ahoy-sister-5325",
        "placeName": "Assam",
        "category": "Travel"
    },
    {
        "title": "Things To Do In Assam",
        "url": "https://www.tripoto.com/trip/move-over-hampi-and-add-these-ruins-in-assam-to-your-bucket-list-right-now-5aa7b0953e574",
        "placeName": "Assam",
        "category": "Things To Do"
    },
    {
        "title": "Best Hotels In Assam",
        "url": "https://www.tripoto.com/travel-guide/assam/hotels",
        "placeName": "Assam",
        "category": "Travel"
    },
    {
        "title": "Hidden Gems Of Assam",
        "url": "https://www.tripoto.com/assam/trips/tripoto-unveils-the-hidden-gems-of-assam-601c7787c28d9272",
        "placeName": "Assam",
        "category": "Travel"
    },
    {
        "title": "6 Best Places to Eat in Guwahati, Assam",
        "url": "https://www.tripoto.com/india/trips/best-restaurants-in-guwahati",
        "placeName": "Guwahati",
        "category": "Food & Drink"
    },
    {
        "title": "Best Places To Visit In Lonavala",
        "url": "https://www.tripoto.com/trip/best-places-to-visit-in-lonavala-58b2ff2807e11",
        "placeName": "Lonavala",
        "category": "Travel"
    },
    {
        "title": "Best Hotels In Jaisalmer",
        "url": "https://www.tripoto.com/travel-guide/jaisalmer/hotels",
        "placeName": "Jaisalmer",
        "category": "Travel"
    },
    {
        "title": "Things To Do In Jaisalmer",
        "url": "https://www.tripoto.com/trip/11-things-to-do-in-jaisalmer-58b072e56803c",
        "placeName": "Jaisalmer",
        "category": "Things To Do"
    },
    {
        "title": "Best Places To Visit In Jaisalmer",
        "url": "https://www.tripoto.com/trip/jaisalmer-an-abode-for-lovers-of-the-dessert-740303",
        "placeName": "Jaisalmer",
        "category": "Travel"
    },
    {
        "title": "11 Things You Should Do In Jaisalmer",
        "url": "https://www.tripoto.com/jaisalmer/trips/things-to-do-in-jaisalmer",
        "placeName": "Jaisalmer",
        "category": "Things To Do"
    },
    {
        "title": "Top Things to do in Jaisalmer",
        "url": "https://www.tripoto.com/rajasthan/trips/top-things-to-do-in-jaisalmer-rajasthan-map-camera-travel-5c7e52efaa039",
        "placeName": "Jaisalmer",
        "category": "Things To Do"
    },
    {
        "title": "10 Things To Do And Places To Visit In Odisha",
        "url": "https://www.tripoto.com/trip/10-things-to-do-and-places-to-visit-in-odisha-that-will-give-an-urgent-call-to-all-wanderers-594244439121a",
        "placeName": "Odisha",
        "category": "Things To Do"
    },
    {
        "title": "Best Hotels In Kutch",
        "url": "https://www.tripoto.com/kutch/trips/best-hotels-in-kutch-59ca1ed722f46",
        "placeName": "Kutch",
        "category": "Travel"
    },
    {
        "title": "The Hidden Artisan Villages Of Kutch",
        "url": "https://www.tripoto.com/trip/a-guide-to-the-hidden-artisan-villages-of-kutch-5a5de7fe7b898",
        "placeName": "Kutch",
        "category": "Travel"
    },
    {
        "title": "Best Hotels In Agra",
        "url": "https://www.tripoto.com/travel-guide/agra/hotels",
        "placeName": "Agra",
        "category": "Travel"
    },
    {
        "title": "Best Places To Visit In Pondicherry",
        "url": "https://www.tripoto.com/trip/pondicherry-give-time-a-break-57b7442780ccf",
        "placeName": "Puducherry",
        "category": "Travel"
    },
    {
        "title": "Best Beach Resorts In Pondicherry",
        "url": "https://www.tripoto.com/hotels/Resorts-In-Pondicherry-That-Can-Revitalize-Your-Soul-And-Mind",
        "placeName": "Puducherry",
        "category": "Travel"
    },
    {
        "title": "Things To Do In Pondicherry",
        "url": "https://www.tripoto.com/trip/things-to-do-in-pondicherry-5821bcd191f64",
        "placeName": "Puducherry",
        "category": "Things To Do"
    },
    {
        "title": "Best Cafes In Pondicherry",
        "url": "https://www.tripoto.com/trip/10-best-cafes-in-pondicherry",
        "placeName": "Puducherry",
        "category": "Food & Drink"
    },
    {
        "title": "Best Hotels in Gokarna",
        "url": "https://www.tripoto.com/travel-guide/gokarna/hotels",
        "placeName": "Gokarna",
        "category": "Travel"
    },
    {
        "title": "Beaches In Gokarna",
        "url": "https://www.tripoto.com/trip/beaches-in-gokarna-598dc38a9ebb6",
        "placeName": "Gokarna",
        "category": "Travel"
    },
    {
        "title": "20 Hand-picked Tourist Places in Gokarna",
        "url": "https://www.tripoto.com/karnataka/trips/while-in-gokarna-don-t-miss-out-on-these-20-hand-picked-tourist-places-5e295185636262a6",
        "placeName": "Gokarna",
        "category": "Travel"
    },
    {
        "title": "11 Best Budget-Friendly Stays in Gokarna",
        "url": "https://www.tripoto.com/gokarna/trips/10-best-budget-friendly-gokarna-hotels-to-stay-in-3ad5ac22f16111134",
        "placeName": "Gokarna",
        "category": "Travel"
    },
    {
        "title": "Best Gokarna Resorts",
        "url": "https://www.tripoto.com/karnataka/trips/gokarna-resorts-to-stay-in-for-every-budget-3ad0862e7525c151",
        "placeName": "Gokarna",
        "category": "Travel"
    },
    {
        "title": "Things to Do in Gokarna",
        "url": "https://www.tripoto.com/karnataka/trips/things-to-do-in-gokarna",
        "placeName": "Gokarna",
        "category": "Things To Do"
    },
    {
        "title": "7 Places To Visit In Ahmedabad",
        "url": "https://www.tripoto.com/trip/7-touristic-things-to-do-in-ahmedabad-fly-with-shaunak-57b6ecd813e5e",
        "placeName": "Ahmedabad",
        "category": "Travel"
    },
    {
        "title": "Hotels In Ahmedabad",
        "url": "https://www.tripoto.com/travel-guide/ahmedabad/hotels",
        "placeName": "Ahmedabad",
        "category": "Travel"
    },
    {
        "title": "Shopping In Ahmedabad",
        "url": "https://www.tripoto.com/trip/cheap-street-shopping-places-in-ahmedabad-5864d9402a973",
        "placeName": "Ahmedabad",
        "category": "Shopping"
    },
    {
        "title": "Best Restaurants In Ahmedabad",
        "url": "https://www.tripoto.com/trip/9-best-places-for-famous-street-food-in-ahmedabad-9214",
        "placeName": "Ahmedabad",
        "category": "Food & Drink"
    },
    {
        "title": "Places To Visit Near Ahmedabad",
        "url": "https://www.tripoto.com/trip/places-to-visit-near-ahmedabad-best-weekend-getaways-within-200km",
        "placeName": "Ahmedabad",
        "category": "Travel"
    },
    {
        "title": "Cheap Street Shopping Places in Ahmedabad",
        "url": "https://www.tripoto.com/ahmedabad/trips/street-shopping-in-ahmedabad",
        "placeName": "Ahmedabad",
        "category": "Shopping"
    },
    {
        "title": "Best Places to Visit in Coorg",
        "url": "https://www.tripoto.com/kerala/trips/best-places-to-visit-in-coorg-3ac8bc2193bf5a2f0",
        "placeName": "Coorg",
        "category": "Travel"
    },
    {
        "title": "6 Best Things to do in Coorg",
        "url": "https://www.tripoto.com/trip/6-best-things-to-do-in-coorg-travel-goals-5e20216e7d542",
        "placeName": "Coorg",
        "category": "Things To Do"
    },
    {
        "title": "10 Beautiful Places of Thailand to Impress You",
        "url": "https://www.tripoto.com/trip/10-beautiful-places-of-thailand-that-will-impress-you-59dca754c0821",
        "placeName": "Thailand",
        "category": "Travel"
    },
    {
        "title": "Jaw-Dropping Temples of Chiang Mai",
        "url": "https://www.tripoto.com/trip/jaw-dropping-temples-of-chiang-mai-5e6714328566d",
        "placeName": "Chiang Mai",
        "category": "Travel"
    },
    {
        "title": "Offbeat Activities In Thailand",
        "url": "https://www.tripoto.com/trip/things-to-do-in-thailand",
        "placeName": "Thailand",
        "category": "Things To Do"
    },
    {
        "title": "Best Resorts In Thailand",
        "url": "https://www.tripoto.com/trip/best-resorts-in-thailand",
        "placeName": "Thailand",
        "category": "Travel"
    },
    {
        "title": "10 Best Airbnbs in Bangkok",
        "url": "https://www.tripoto.com/bangkok/trips/10-best-airbnbs-in-bangkok-that-you-need-to-bookmark-3ae3fe6ff0638ab1",
        "placeName": "Bangkok",
        "category": "Travel"
    },
    {
        "title": "15 Best Thai Foods to Try in Thailand",
        "url": "https://www.tripoto.com/trip/fifteen-thai-foods-you-must-try-what-to-eat-in-thailand-5cdbe89570a04",
        "placeName": "Thailand",
        "category": "Food & Drink"
    },
    {
        "title": "A Food Lover's Guide to Thailand",
        "url": "https://www.tripoto.com/trip/a-food-guide-for-the-travelers-heading-towards-thailand-5959c5170561b",
        "placeName": "Thailand",
        "category": "Food & Drink"
    },
    {
        "title": "Guide to Michelin Star Restaurants in Bangkok",
        "url": "https://www.tripoto.com/trip/a-guide-to-the-best-michelin-star-restaurants-in-bangkok-2023-3c4e589fa51e39192",
        "placeName": "Bangkok",
        "category": "Food & Drink"
    },
    {
        "title": "Top 5 Restaurants for Indian Food in Bangkok",
        "url": "https://www.tripoto.com/trip/top-5-restaurants-serving-indian-food-in-bangkok-5a002e46617bc",
        "placeName": "Bangkok",
        "category": "Food & Drink"
    },
    {
        "title": "10 Free Things to Do in Bangkok",
        "url": "https://www.tripoto.com/trip/10-free-things-to-do-in-bangkok-for-the-budget-traveller-5bbb8a3fb9c24",
        "placeName": "Bangkok",
        "category": "Things To Do"
    },
    {
        "title": "3 Spectacular Train Journeys In Thailand",
        "url": "https://www.tripoto.com/trip/three-spectacular-and-intriguing-train-journeys-you-can-only-experience-in-thailand-5af975a26d257",
        "placeName": "Thailand",
        "category": "Travel"
    },
    {
        "title": "Best Places To Visit In Mussoorie",
        "url": "https://www.tripoto.com/trip/mussoorie-through-my-lens",
        "placeName": "Mussoorie",
        "category": "Travel"
    },
    {
        "title": "Best Cafes In Landour",
        "url": "https://www.tripoto.com/trip/from-nutella-pancakes-to-mustard-chicken-cafes-in-landour-serving-yummy-food-in-the-hills-5aaa4656e4f50",
        "placeName": "Landour",
        "category": "Food & Drink"
    },
    {
        "title": "Things To Do In McLeod Ganj",
        "url": "https://www.tripoto.com/trip/mcleodganj-itinerary",
        "placeName": "McLeod Ganj",
        "category": "Things To Do"
    },
    {
        "title": "Best Places To Visit In McLeod Ganj",
        "url": "https://www.tripoto.com/places-to-visit/in-mcleod-ganj/bhagsu-waterfall",
        "placeName": "McLeod Ganj",
        "category": "Travel"
    },
    {
        "title": "Best Restaurants In McLeod Ganj",
        "url": "https://www.tripoto.com/trip/mcleod-ganj-cuisine-variations-simplified-best-places-to-try-different-cuisines-in-and-around-5a76d3e7e3ffe",
        "placeName": "McLeod Ganj",
        "category": "Food & Drink"
    },
    {
        "title": "Best Places To Visit In Munnar",
        "url": "https://www.tripoto.com/trip/munnar-a-jewel-in-god-s-own-country-5974",
        "placeName": "Munnar",
        "category": "Travel"
    },
    {
        "title": "Best Hotels In Munnar",
        "url": "https://www.tripoto.com/travel-guide/munnar/hotels",
        "placeName": "Munnar",
        "category": "Travel"
    },
    {
        "title": "Things To Do In Munnar",
        "url": "https://www.tripoto.com/trip/monsoon-in-munnar-7625",
        "placeName": "Munnar",
        "category": "Things To Do"
    },
    {
        "title": "20 Beautiful Hotels In Munnar Under Rs 3,000",
        "url": "https://www.tripoto.com/hotels/Top-20-Hotels-In-Munnar-Under-Rs-3000",
        "placeName": "Munnar",
        "category": "Travel"
    },
    {
        "title": "Discovering Goa's Nightlife",
        "url": "https://www.tripoto.com/india/trips/goa-nightlife",
        "placeName": "Goa",
        "category": "Music & Nightlife"
    },
    {
        "title": "5 Amazing Lesser-Known Hill Stations in India",
        "url": "https://www.tripoto.com/india/trips/best-hill-stations-in-north-east-india",
        "placeName": "India",
        "category": "Travel"
    },
    {
        "title": "Best Places To Visit In Darjeeling",
        "url": "https://www.tripoto.com/trip/more-than-just-a-tea-break-serene-darjeeling-8517",
        "placeName": "Darjeeling",
        "category": "Travel"
    },
    {
        "title": "World's Best Beaches",
        "url": "https://www.tripoto.com/australia/trips/world-s-best-beaches-from-the-eyes-of-15-girl-travelers-583ab31d68d13",
        "placeName": "World",
        "category": "Travel"
    },
    {
        "title": "10 Best Hotels in Bali",
        "url": "https://www.tripoto.com/bali/trips/10-best-hotels-in-bali-that-you-must-check-out-3ac6f1a8c04e2221b",
        "placeName": "Bali",
        "category": "Travel"
    },
    {
        "title": "3 Lesser-Known Activities in Thailand",
        "url": "https://www.tripoto.com/trip/3-lesser-known-activities-in-thailand-5b03922b16f06",
        "placeName": "Thailand",
        "category": "Things To Do"
    },
    {
        "title": "5 Fantastic National Parks To Visit In Thailand",
        "url": "https://www.tripoto.com/trip/five-fantastic-national-parks-to-visit-in-thrilling-thailand-5a71cd3668f15",
        "placeName": "Thailand",
        "category": "Travel"
    },
    {
        "title": "7 Amazing Beaches In Thailand You Can\u2019t Miss",
        "url": "https://www.tripoto.com/trip/7-best-beaches-in-thailand-that-you-can-t-miss-out-591aaa55660e1",
        "placeName": "Thailand",
        "category": "Travel"
    },
    {
        "title": "5 Floating Markets Of Bangkok You Shouldn\u2019t Miss",
        "url": "https://www.tripoto.com/trip/5-floating-markets-of-bangkok-that-you-shouldn-t-miss-5a5f340cb39c3",
        "placeName": "Bangkok",
        "category": "Shopping"
    },
    {
        "title": "5 Amazing Treks In Thailand You Can't Miss",
        "url": "https://www.tripoto.com/trip/5-treks-that-will-help-you-experience-thailand-like-never-before-5a058f400ac94",
        "placeName": "Thailand",
        "category": "Things To Do"
    },
    {
        "title": "Cafes in Phuket To Rejuvenate Your Senses",
        "url": "https://www.tripoto.com/trip/tired-after-a-long-day-at-the-beach-head-to-these-cafes-in-phuket-to-rejuvenate-your-senses-59b639b42cf59",
        "placeName": "Phuket",
        "category": "Food & Drink"
    },
    {
        "title": "5 Lesser-Known Hill Stations in North & North-Eastern India",
        "url": "https://www.tripoto.com/india/trips/best-hill-stations-in-north-east-india",
        "placeName": "India",
        "category": "Travel"
    },
    {
        "title": "Things To Do In Punjab",
        "url": "https://www.tripoto.com/trip/punjab-58ac57a44a6c3",
        "placeName": "Punjab",
        "category": "Things To Do"
    },
    {
        "title": "15 Cheap Street Shopping Places in Chandigarh",
        "url": "https://www.tripoto.com/trip/15-cheap-street-shopping-places-in-chandigarh-57dd3fce837cb",
        "placeName": "Chandigarh",
        "category": "Shopping"
    },
    {
        "title": "20 Dreamy Stays in Munnar",
        "url": "https://www.tripoto.com/trip/20-dreamy-stays-in-munnar-you-simply-cannot-miss-3aa5e72a312a3d17b",
        "placeName": "Munnar",
        "category": "Travel"
    },
    {
        "title": "15 Places to Visit in Kerala",
        "url": "https://www.tripoto.com/trip/the-only-list-of-places-to-visit-in-kerala-you-ll-ever-need-3aa4f145d91e2970",
        "placeName": "Kerala",
        "category": "Travel"
    },
    {
        "title": "7 Temple Festivals in Kerala",
        "url": "https://www.tripoto.com/trip/7-temple-festivals-in-kerala-that-are-a-cultural-extravaganza-for-every-traveler-5d1a5a2122087",
        "placeName": "Kerala",
        "category": "Things To Do"
    },
    {
        "title": "11 Best Things to do in Kerala",
        "url": "https://www.tripoto.com/trip/things-to-do-in-kerala",
        "placeName": "Kerala",
        "category": "Things To Do"
    },
    {
        "title": "20 Places To Visit In Munnar",
        "url": "https://www.tripoto.com/trip/top-20-places-to-visit-in-munnar-here-s-an-exclusive-guide-for-you-3ade6fff2dd3691d7",
        "placeName": "Munnar",
        "category": "Travel"
    },
    {
        "title": "25 Places to visit In Wayanad",
        "url": "https://www.tripoto.com/trip/25-handpicked-tourist-places-in-wayanad-for-your-hilly-vacation-5e2d3d0436cc12e4",
        "placeName": "Wayanad",
        "category": "Travel"
    },
    {
        "title": "Budget Properties in Kerala",
        "url": "https://www.tripoto.com/trip/ridiculously-stunning-properties-in-kerala-that-are-also-very-cheap-5c372ea42da0b",
        "placeName": "Kerala",
        "category": "Travel"
    },
    {
        "title": "7 Hidden Places In Kerala",
        "url": "https://www.tripoto.com/trip/places-to-see-in-kerala",
        "placeName": "Kerala",
        "category": "Travel"
    },
    {
        "title": "15 Must-Try Dishes in Kerala",
        "url": "https://www.tripoto.com/trip/around-kerala-in-15-dishes-must-eat-food-when-in-kerala-3aa9ddd5a77ffb15c",
        "placeName": "Kerala",
        "category": "Food & Drink"
    },
    {
        "title": "A Culinary Tour of Kerala",
        "url": "https://www.tripoto.com/trip/southern-spice-a-culinary-tour-of-kerala-1441",
        "placeName": "Kerala",
        "category": "Food & Drink"
    },
    {
        "title": "Ultimate Kerala Food Guide",
        "url": "https://www.tripoto.com/trip/my-picks-for-keralas-best-food-experience-on-a-banana-leaf-a-highway-dhaba-and-a-city-restaurant-603bdc021041d",
        "placeName": "Kerala",
        "category": "Food & Drink"
    },
    {
        "title": "10 Best Places to Eat in Kerala",
        "url": "https://www.tripoto.com/trip/a-list-of-ten-favourite-restaurants-to-help-you-eat-your-way-through-kerala-5af8a7d283bfb",
        "placeName": "Kerala",
        "category": "Food & Drink"
    },
    {
        "title": "6 Must Visit Tourist Places In Kerala",
        "url": "https://www.tripoto.com/trip/best-tourist-places-in-kerala",
        "placeName": "Kerala",
        "category": "Travel"
    },
    {
        "title": "Five places to visit in Kerala",
        "url": "https://www.tripoto.com/trip/our-favourite-five-places-to-visit-in-kerala-india-764731",
        "placeName": "Kerala",
        "category": "Travel"
    },
    {
        "title": "Best Hill Stations in Tamil Nadu",
        "url": "https://www.tripoto.com/trip/hill-stations-in-tamil-nadu",
        "placeName": "Tamil Nadu",
        "category": "Travel"
    },
    {
        "title": "Temples of Thanjavur, Tamil Nadu",
        "url": "https://www.tripoto.com/trip/temples-of-thanjavur-630de6422e0a2",
        "placeName": "Thanjavur",
        "category": "Travel"
    },
    {
        "title": "10 Things To Do In The French Capital of India",
        "url": "https://www.tripoto.com/trip/top-pondicherry-attractions",
        "placeName": "Puducherry",
        "category": "Things To Do"
    },
    {
        "title": "5 Best Resorts In Kodaikanal",
        "url": "https://www.tripoto.com/trip/5-best-resorts-in-kodaikanal-for-a-perfect-hilltop-holiday-3b17eccb4cb4e629e",
        "placeName": "Kodaikanal",
        "category": "Travel"
    },
    {
        "title": "Best Resorts for Every Budget In Ooty",
        "url": "https://www.tripoto.com/trip/planning-your-dream-vacation-to-ooty-check-out-the-handy-guide-of-ooty-resorts-for-every-budget-3b10c03d1884526e",
        "placeName": "Ooty",
        "category": "Travel"
    },
    {
        "title": "Restaurants for Candle Light Dinner in Chennai",
        "url": "https://www.tripoto.com/trip/best-candle-light-dinner-in-chennai-romantic-restaurants",
        "placeName": "Chennai",
        "category": "Food & Drink"
    },
    {
        "title": "Must Eat Restaurants in Chennai",
        "url": "https://www.tripoto.com/chennai/trips/you-must-eat-at-these-restaurants-when-you-re-in-chennai-59ee6010cdad4",
        "placeName": "Chennai",
        "category": "Food & Drink"
    },
    {
        "title": "Cafes and Restaurants to try in Pondicherry",
        "url": "https://www.tripoto.com/trip/cafe-and-restaurant-you-should-try-in-pondicherry-6157d847498e9",
        "placeName": "Puducherry",
        "category": "Food & Drink"
    },
    {
        "title": "7 Reasons To Visit Karaikudi In Tamil Nadu",
        "url": "https://www.tripoto.com/trip/7-reasons-to-visit-karaikudi-in-tamil-nadu-6039873c50144",
        "placeName": "Karaikudi",
        "category": "Travel"
    },
    {
        "title": "10 Reasons To Plan Your Next Trip To Tamil Nadu",
        "url": "https://www.tripoto.com/trip/10-reasons-to-plan-your-next-trip-to-tamil-nadu-6039821fd69cb",
        "placeName": "Tamil Nadu",
        "category": "Travel"
    },
    {
        "title": "Must-Visit Exquisite places in Tamil Nadu",
        "url": "https://www.tripoto.com/trip/must-visit-these-exquisite-places-in-tamil-nadu-and-no-we-are-not-talking-about-just-pondicherry-633ce83710c55",
        "placeName": "Tamil Nadu",
        "category": "Travel"
    },
    {
        "title": "Sunrise spots in Tamil Nadu You Cannot Miss",
        "url": "https://www.tripoto.com/trip/sunrise-spots-in-tamil-nadu-you-shouldnt-miss-beyond-the-most-celebrated-kanyakumari-62ba7d444f40b",
        "placeName": "Tamil Nadu",
        "category": "Travel"
    },
    {
        "title": "Top 10 Places to visit in Tamil Nadu",
        "url": "https://www.tripoto.com/trip/top-10-places-to-visit-in-tamil-nadu-617184309406a",
        "placeName": "Tamil Nadu",
        "category": "Travel"
    },
    {
        "title": "5 days in Tamil Nadu: 6 Must Visit Places",
        "url": "https://www.tripoto.com/trip/pondicherry-chidambaram-gangaikondachollapuram-tanjavur-kanchipuram-mahabalipuram-5de94a7f059c2",
        "placeName": "Tamil Nadu",
        "category": "Travel"
    },
    {
        "title": "10 Waterfalls Near Kanyakumari",
        "url": "https://www.tripoto.com/trip/there-s-more-to-kanyakumari-than-beaches-here-are-10-picture-perfect-waterfalls-5af487a15ba44",
        "placeName": "Kanyakumari",
        "category": "Travel"
    },
    {
        "title": "7 Monsoon Treks In The Himalayas",
        "url": "https://www.tripoto.com/jammu/trips/best-monsoon-treks-in-the-indian-himalayas-59003824a345d",
        "placeName": "Himalayas",
        "category": "Things To Do"
    },
    {
        "title": "10 Things to do in Hampi",
        "url": "https://www.tripoto.com/karnataka/trips/10-things-to-do-while-in-hampi",
        "placeName": "Hampi",
        "category": "Things To Do"
    },
    {
        "title": "Best Places To Visit In Shillong",
        "url": "https://www.tripoto.com/trip/shillong-1737",
        "placeName": "Shillong",
        "category": "Travel"
    },
    {
        "title": "10 Of The Best Places To Visit In January Outside India",
        "url": "https://www.tripoto.com/san-antonio/trips/best-places-to-visit-in-january",
        "placeName": "World",
        "category": "Travel"
    },
    {
        "title": "15 Best food cities in the world",
        "url": "https://www.tripoto.com/india/trips/here-are-the-15-best-food-cities-in-the-world-because-nobody-dislikes-food-576c1d3fa8e31",
        "placeName": "World",
        "category": "Food & Drink"
    },
    {
        "title": "Best Hotels In Shimla",
        "url": "https://www.tripoto.com/travel-guide/shimla/hotels",
        "placeName": "Shimla",
        "category": "Travel"
    },
    {
        "title": "Haunted Places of Shimla",
        "url": "https://www.tripoto.com/himachal-pradesh/trips/haunted-places-of-shimla-real-ghost-stories-551320",
        "placeName": "Shimla",
        "category": "Travel"
    },
    {
        "title": "Hiking & Cycling Trails To Explore in Shimla",
        "url": "https://www.tripoto.com/trip/11-must-do-hiking-cycling-experiences-in-shimla-58d3b7484b99a",
        "placeName": "Shimla",
        "category": "Things To Do"
    },
    {
        "title": "Best Places to Visit in Karnataka",
        "url": "https://www.tripoto.com/trip/places-to-visit-in-karnataka",
        "placeName": "Karnataka",
        "category": "Travel"
    },
    {
        "title": "Best Places To Visit In Jaipur",
        "url": "https://www.tripoto.com/trip/the-humongous-forts-of-jaipur-5688",
        "placeName": "Jaipur",
        "category": "Travel"
    },
    {
        "title": "8 New-Age Cafes in Jaipur",
        "url": "https://www.tripoto.com/trip/8-new-age-cafes-in-jaipur-that-are-instagram-famous-for-being-so-gorgeous-58f9e5580afb6",
        "placeName": "Jaipur",
        "category": "Food & Drink"
    },
    {
        "title": "Must-Visit Pubs and Bars in Jaipur",
        "url": "https://www.tripoto.com/trip/bar-and-pubs-in-jaipur-5a0aad8057739",
        "placeName": "Jaipur",
        "category": "Music & Nightlife"
    },
    {
        "title": "Street Food in Jaipur: A Tempting Guide",
        "url": "https://www.tripoto.com/trip/street-food-in-jaipur-a-tempting-guide-5be40df77dca2",
        "placeName": "Jaipur",
        "category": "Food & Drink"
    },
    {
        "title": "20 Shopping Places in Jaipur",
        "url": "https://www.tripoto.com/ajmer/trips/jaipur-famous-places-for-shopping",
        "placeName": "Jaipur",
        "category": "Shopping"
    },
    {
        "title": "13 Things To Do in Jaipur Over the Weekend",
        "url": "https://www.tripoto.com/trip/things-to-do-in-jaipur-in-just-2-days-a-long-weekend-trip-to-jaipur-5e22855abf880",
        "placeName": "Jaipur",
        "category": "Things To Do"
    },
    {
        "title": "Experience Royal Stays in Jaipur",
        "url": "https://www.tripoto.com/trip/experience-the-royalness-of-rajasthan-at-these-stays-in-jaipur-where-every-guest-is-a-king-5ff34536db5cb",
        "placeName": "Jaipur",
        "category": "Travel"
    },
    {
        "title": "Best Places To Visit In Udaipur",
        "url": "https://www.tripoto.com/trip/reasons-to-love-udaipur-9545",
        "placeName": "Udaipur",
        "category": "Travel"
    },
    {
        "title": "Best Hostels In Udaipur Starting At \u20b9250",
        "url": "https://www.tripoto.com/trip/udaipur-hostels-under-500-are-perfect-for-every-backpacker",
        "placeName": "Udaipur",
        "category": "Travel"
    },
    {
        "title": "Things To Do In Udaipur",
        "url": "https://www.tripoto.com/trip/6-best-restaurants-in-udaipur",
        "placeName": "Udaipur",
        "category": "Things To Do"
    },
    {
        "title": "6 Must-Visit Eateries in Udaipur",
        "url": "https://www.tripoto.com/rajasthan/trips/6-best-restaurants-in-udaipur",
        "placeName": "Udaipur",
        "category": "Food & Drink"
    },
    {
        "title": "9 Amazing Things To Do In Udaipur",
        "url": "https://www.tripoto.com/udaipur/trips/things-to-do-in-udaipur",
        "placeName": "Udaipur",
        "category": "Things To Do"
    },
    {
        "title": "10 Stunning Views You Cannot Miss In Udaipur",
        "url": "https://www.tripoto.com/trip/10-absolutely-stunning-views-you-cannot-miss-in-udaipur-586ffd62c85d3",
        "placeName": "Udaipur",
        "category": "Travel"
    },
    {
        "title": "30 Best Places To Explore In Rajasthan",
        "url": "https://www.tripoto.com/rajasthan/trips/30-places-to-visit-in-rajasthan-which-will-make-you-feel-the-royal-vibes-and-are-a-treasure-5e6e28628e2dd1e2",
        "placeName": "Rajasthan",
        "category": "Travel"
    },
    {
        "title": "The Ultimate Food Trail Across Royal Rajasthan",
        "url": "https://www.tripoto.com/trip/the-ultimate-food-trail-across-royal-rajasthan-5ddc83465ea012dc",
        "placeName": "Rajasthan",
        "category": "Food & Drink"
    },
    {
        "title": "7 Hidden Places in Rajasthan You Must Explore",
        "url": "https://www.tripoto.com/trip/hidden-places-in-Rajasthan",
        "placeName": "Rajasthan",
        "category": "Travel"
    },
    {
        "title": "10 Forts Revealing The Grandeur Of Rajasthan",
        "url": "https://www.tripoto.com/trip/10-forts-revealing-the-grandeur-of-rajasthan-and-making-it-more-royal-843027",
        "placeName": "Rajasthan",
        "category": "Travel"
    },
    {
        "title": "10 Spots for Glamping in Rajasthan",
        "url": "https://www.tripoto.com/trip/glamping-spots-in-rajasthan-59a55d88cf95b",
        "placeName": "Rajasthan",
        "category": "Travel"
    },
    {
        "title": "Best Wildlife Sanctuaries of Rajasthan",
        "url": "https://www.tripoto.com/trip/call-of-the-wild-best-wildlife-sanctuaries-of-rajasthan-59b95144ab82e",
        "placeName": "Rajasthan",
        "category": "Travel"
    },
    {
        "title": "9 Underrated Places To Eat In Bangalore",
        "url": "https://www.tripoto.com/bangalore/trips/underrated-places-to-eat-in-bangalore",
        "placeName": "Bangalore",
        "category": "Food & Drink"
    },
    {
        "title": "15 Secret Hikes and Treks Around Dehradun",
        "url": "https://www.tripoto.com/dehradun/trips/15-secret-hikes-and-treks-around-dehradun",
        "placeName": "Dehradun",
        "category": "Things To Do"
    },
    {
        "title": "6 Cheap Places to Shop in Chennai",
        "url": "https://www.tripoto.com/tamil-nadu/trips/shopping-in-chennai",
        "placeName": "Chennai",
        "category": "Shopping"
    },
    {
        "title": "Best Vegetarian Restaurants in Mumbai",
        "url": "https://www.tripoto.com/trip/veg-restaurants-in-mumbai-5678f361d594b\n",
        "placeName": "Mumbai",
        "category": "Food & Drink"
    },
    {
        "title": "Best Bars in Mumbai",
        "url": "https://www.tripoto.com/trip/7-bars-in-mumbai-you-probably-haven-t-tried-yet-but-should-578a232dce133",
        "placeName": "Mumbai",
        "category": "Music & Nightlife"
    },
    {
        "title": "12 Romantic Places For Couples In Mumbai",
        "url": "https://www.tripoto.com/maharashtra/trips/12-romantic-places-in-mumbai-for-couples",
        "placeName": "Mumbai",
        "category": "Travel"
    },
    {
        "title": "Fun and Almost Free Things to Do in Mumbai",
        "url": "https://www.tripoto.com/maharashtra/trips/things-to-do-in-mumbai-for-free",
        "placeName": "Mumbai",
        "category": "Things To Do"
    },
    {
        "title": "12 Best Picnic Spots Near Mumbai",
        "url": "https://www.tripoto.com/maharashtra/trips/best-picnic-spots-near-mumbai",
        "placeName": "Mumbai",
        "category": "Travel"
    },
    {
        "title": "10 Hidden Treasures of Mumbai",
        "url": "https://www.tripoto.com/maharashtra/trips/10-hidden-treasures-of-mumbai-city-places-u-can-see-for-free-exploringmycity-5d8df4e017c70",
        "placeName": "Mumbai",
        "category": "Travel"
    },
    {
        "title": "9 Must-See Tourist Places in Mumbai",
        "url": "https://www.tripoto.com/maharashtra/trips/9-must-see-tourist-places-in-mumbai-fly-with-shaunak-583a9a8a2b1a1",
        "placeName": "Mumbai",
        "category": "Travel"
    },
    {
        "title": "21 Best Luxury Resorts Near Mumbai",
        "url": "https://www.tripoto.com/maharashtra/trips/luxury-resorts-near-mumbai",
        "placeName": "Mumbai",
        "category": "Travel"
    },
    {
        "title": "13 Best Malls In Mumbai To Shop",
        "url": "https://www.tripoto.com/maharashtra/trips/13-best-malls-in-mumbai-to-do-shopping",
        "placeName": "Mumbai",
        "category": "Shopping"
    },
    {
        "title": "Beaches Of West Bengal",
        "url": "https://www.tripoto.com/trip/beaches-in-west-bengal",
        "placeName": "West Bengal",
        "category": "Travel"
    },
    {
        "title": "Trekking Trails In Bengal",
        "url": "https://www.tripoto.com/trip/experience-the-thrill-through-these-trekking-trails-in-west-bengal-5ad4b8a2211c9",
        "placeName": "West Bengal",
        "category": "Things To Do"
    },
    {
        "title": "Explore Offbeat Bengal",
        "url": "https://www.tripoto.com/trip/explore-these-offbeat-destinations-in-west-bengal-for-a-pristine-experience-3a96de3df225cc9e",
        "placeName": "West Bengal",
        "category": "Travel"
    },
    {
        "title": "17 Best Restaurants In Kolkata",
        "url": "https://www.tripoto.com/trip/17-best-restaurants-in-kolkata-for-every-food-lover-3aef31fdd0e59ce8",
        "placeName": "Kolkata",
        "category": "Food & Drink"
    },
    {
        "title": "Hidden Restaurants in Kolkata",
        "url": "https://www.tripoto.com/trip/restaurants-in-kolkata",
        "placeName": "Kolkata",
        "category": "Food & Drink"
    },
    {
        "title": "10 Authentic Chinese Eateries in Kolkata",
        "url": "https://www.tripoto.com/trip/10-authentic-chinese-eateries-in-calcutta-that-you-should-bookmark-for-your-next-trip-3addf5b9aa90d26e",
        "placeName": "Kolkata",
        "category": "Food & Drink"
    },
    {
        "title": "10 Best Biryani Houses in Kolkata",
        "url": "https://www.tripoto.com/trip/savour-your-taste-buds-with-the-10-best-biryani-houses-in-kolkata-3ab28e58aa4843338",
        "placeName": "Kolkata",
        "category": "Food & Drink"
    },
    {
        "title": "100+ Year Old Pice Hotels In Kolkata",
        "url": "https://www.tripoto.com/trip/pice-hotels-in-kolkata-running-for-more-than-100-years-6143959a07bdf",
        "placeName": "Kolkata",
        "category": "Food & Drink"
    },
    {
        "title": "7 Weekend Getaways from Kolkata",
        "url": "https://www.tripoto.com/trip/weekend-getaways-from-kolkata",
        "placeName": "Kolkata",
        "category": "Travel"
    },
    {
        "title": "22 Places To Visit Near Kolkata",
        "url": "https://www.tripoto.com/trip/places-to-visit-near-kolkata-within-100-kms",
        "placeName": "Kolkata",
        "category": "Travel"
    },
    {
        "title": "3 Weekend Destinations From Kolkata",
        "url": "https://www.tripoto.com/trip/getting-away-142316",
        "placeName": "Kolkata",
        "category": "Travel"
    },
    {
        "title": "5 Weekend Getaways From Kolkata",
        "url": "https://www.tripoto.com/trip/5-places-near-kolkata-to-visit-over-the-weekend-57f0aef10d4f7",
        "placeName": "Kolkata",
        "category": "Travel"
    },
    {
        "title": "Themed restaurants in Kolkata",
        "url": "https://www.tripoto.com/trip/these-themed-restaurants-in-kolkata-will-add-thrill-to-your-dining-experience-59b3bf4a4db7b",
        "placeName": "Kolkata",
        "category": "Food & Drink"
    },
    {
        "title": "7 best restaurants in Kolkata for fish dishes",
        "url": "https://www.tripoto.com/trip/7-best-restaurants-in-kolkata-for-amazing-fish-dishes-5c4f6a54548c1",
        "placeName": "Kolkata",
        "category": "Food & Drink"
    },
    {
        "title": "Kolkata's Best Desserts and Where to Find Them",
        "url": "https://www.tripoto.com/trip/the-definite-list-of-kolkatas-best-desserts-and-where-to-find-them-5cf4ea1b3b7ec",
        "placeName": "Kolkata",
        "category": "Food & Drink"
    },
    {
        "title": "10 Must-Visit Restaurants In Kolkata",
        "url": "https://www.tripoto.com/trip/top-10-restaurants-to-visit-in-kolkata-5cde9c9a3d01e",
        "placeName": "Kolkata",
        "category": "Food & Drink"
    },
    {
        "title": "7 Colonial Buildings of Kolkata",
        "url": "https://www.tripoto.com/trip/7-heritage-buildings-of-colonial-kolkata-5dd52d7481459",
        "placeName": "Kolkata",
        "category": "Travel"
    },
    {
        "title": "Insta-Worthy Cafes in Kolkata",
        "url": "https://www.tripoto.com/trip/this-pujo-give-park-street-a-break-and-chill-at-one-of-these-insta-worthy-cafes-in-kolkata-615c2afddd9ba",
        "placeName": "Kolkata",
        "category": "Food & Drink"
    },
    {
        "title": "15 Boutique & Heritage Properties In West Bengal",
        "url": "https://www.tripoto.com/trip/15-boutique-heritage-properties-in-west-bengal-for-your-next-staycation-3b84f8f401f94233b",
        "placeName": "West Bengal",
        "category": "Travel"
    },
    {
        "title": "Best Road Trips From Kolkata",
        "url": "https://www.tripoto.com/trip/best-road-trips-from-kolkata-62bb153f66f47",
        "placeName": "Kolkata",
        "category": "Travel"
    },
    {
        "title": "Karnataka\u2019s 10 Must-Visit Unexplored Gems",
        "url": "https://www.tripoto.com/trip/karnatakas-best-kept-secrets-10-unexplored-gems-to-add-to-your-travel-list-3ae00c8d38c4453d0",
        "placeName": "Karnataka",
        "category": "Travel"
    },
    {
        "title": "10 Best Budget-Friendly Stays in Gokarna",
        "url": "https://www.tripoto.com/trip/10-best-budget-friendly-gokarna-hotels-to-stay-in-3ad5ac22f16111134",
        "placeName": "Gokarna",
        "category": "Travel"
    },
    {
        "title": "Best Gokarna Resorts",
        "url": "https://www.tripoto.com/trip/gokarna-resorts-to-stay-in-for-every-budget-3ad0862e7525c151",
        "placeName": "Gokarna",
        "category": "Travel"
    },
    {
        "title": "The Best Sunday Brunches in\u00a0Bangalore",
        "url": "https://www.tripoto.com/trip/Sunday-brunch-bangalore",
        "placeName": "Bangalore",
        "category": "Food & Drink"
    },
    {
        "title": "10 Best Breakfast Places in Bangalore",
        "url": "https://www.tripoto.com/trip/10-best-breakfast-places-in-bangalore-to-eat-like-a-bangalorean-58060ba4d3b4f",
        "placeName": "Bangalore",
        "category": "Food & Drink"
    },
    {
        "title": "A Backpacker's Hostel Guide to Karnataka",
        "url": "https://www.tripoto.com/trip/the-purrrfect-hostel-circuit-guide-for-backpackers-in-karnataka-5c4411b4373d7",
        "placeName": "Karnataka",
        "category": "Travel"
    },
    {
        "title": "5 Places That Kempe Gowda Built in Bangalore",
        "url": "https://www.tripoto.com/trip/5-places-that-kempe-gowda-built-in-bangalore-and-why-you-must-visit-them-617f9b9a91fdb",
        "placeName": "Bangalore",
        "category": "Travel"
    },
    {
        "title": "Kayaking Spots Near Bangalore",
        "url": "https://www.tripoto.com/trip/if-in-doubt-paddle-out-best-kayaking-spots-near-bangalore-60c9a45f17ef2",
        "placeName": "Bangalore",
        "category": "Things To Do"
    },
    {
        "title": "Best Camping Spots Near Bangalore",
        "url": "https://www.tripoto.com/trip/communicating-with-nature-best-camping-spots-from-bangalore-60c72f5a6401b",
        "placeName": "Bangalore",
        "category": "Things To Do"
    },
    {
        "title": "5 Jyotirlingas In Maharashtra",
        "url": "https://www.tripoto.com/trip/an-offbeat-pilgrimage-passage-to-5-jyotirlings-in-maharashtra-58b9441f240cf",
        "placeName": "Maharashtra",
        "category": "Travel"
    },
    {
        "title": "13 Wildlife Sanctuaries of Maharashtra",
        "url": "https://www.tripoto.com/trip/13-must-visit-wildlife-sanctuaries-of-maharashtra-5f0de880233ae",
        "placeName": "Maharashtra",
        "category": "Travel"
    },
    {
        "title": "Top 5 beaches in Maharashtra",
        "url": "https://www.tripoto.com/trip/top-5-beaches-in-maharashtra-5b03bb30b8098",
        "placeName": "Maharashtra",
        "category": "Travel"
    },
    {
        "title": "7 wonders of Maharashtra",
        "url": "https://www.tripoto.com/trip/7-wonders-of-maharashtra-5bd9597ecdaea",
        "placeName": "Maharashtra",
        "category": "Travel"
    },
    {
        "title": "22 Places to Visit Near Pune",
        "url": "https://www.tripoto.com/trip/places-to-visit-near-pune-within-200-kms",
        "placeName": "Pune",
        "category": "Travel"
    },
    {
        "title": "20 Offbeat Experiences In And Around Mumbai",
        "url": "https://www.tripoto.com/trip/20-best-offbeat-experiences-in-and-around-mumbai-that-should-be-on-your-bucket-list-3b50585ddff8dd23",
        "placeName": "Mumbai",
        "category": "Things To Do"
    },
    {
        "title": "Monsoon Homestays and Villas in Maharashtra",
        "url": "https://www.tripoto.com/trip/enjoy-a-monsoon-weekend-getaway-at-these-secluded-homestays-villas-in-maharashtra-611639dda096e",
        "placeName": "Maharashtra",
        "category": "Travel"
    },
    {
        "title": "20 Best Hotels in Mumbai",
        "url": "https://www.tripoto.com/trip/20-best-hotels-in-mumbai-handpicked-for-your-next-holiday-3b38b80fd401862c6",
        "placeName": "Mumbai",
        "category": "Travel"
    },
    {
        "title": "15 Best Hotels in Nasik",
        "url": "https://www.tripoto.com/trip/here-are-the-best-15-hotels-in-nasik-for-your-next-holiday-3b1fbab62d318624e",
        "placeName": "Nasik",
        "category": "Travel"
    },
    {
        "title": "Best Hotels, Villas and Resorts in Mahabaleshwar",
        "url": "https://www.tripoto.com/trip/these-are-the-best-hotels-villas-and-resorts-in-mahabaleshwar-3b6d449d1440f13e",
        "placeName": "Mahabaleshwar",
        "category": "Travel"
    },
    {
        "title": "Alibaug's Best Hotels",
        "url": "https://www.tripoto.com/trip/close-to-mumbai-here-are-alibagh-s-best-hotels-for-your-next-beach-vacation-3b336781301b43379",
        "placeName": "Alibaug",
        "category": "Travel"
    },
    {
        "title": "10 Best Hotels In Shirdi Near Temple",
        "url": "https://www.tripoto.com/trip/10-best-hotels-in-shirdi-near-temple-that-fits-every-pocket-5ec2ba929432515e",
        "placeName": "Shirdi",
        "category": "Travel"
    },
    {
        "title": "Best Lonavala Resorts",
        "url": "https://www.tripoto.com/trip/the-best-lonavala-resorts-to-save-for-your-next-trip-3b0692d2abf6a63b6",
        "placeName": "Lonavala",
        "category": "Travel"
    },
    {
        "title": "Six Exotic Experiences In Maharashtra",
        "url": "https://www.tripoto.com/trip/five-exotic-experiences-to-lay-your-hand-at-without-stepping-out-of-maharashtra-60c90eb80c928",
        "placeName": "Maharashtra",
        "category": "Things To Do"
    },
    {
        "title": "8 Restaurants for a Candle Light Dinner in Pune",
        "url": "https://www.tripoto.com/trip/candle-light-dinner-in-pune",
        "placeName": "Pune",
        "category": "Food & Drink"
    },
    {
        "title": "10 Restaurants for a Candle Light Dinner in Mumbai",
        "url": "https://www.tripoto.com/trip/candle-light-dinner-in-mumbai",
        "placeName": "Mumbai",
        "category": "Food & Drink"
    },
    {
        "title": "Top Eateries In Mumbai To Spot Your Favourite Celebs",
        "url": "https://www.tripoto.com/trip/sushi-with-sonam-or-drinks-with-ranbir-top-eateries-in-mumbai-to-spot-your-fav-celebs-5b62f0c5528f9",
        "placeName": "Mumbai",
        "category": "Food & Drink"
    },
    {
        "title": "10 Pretty Cafes & Restaurants in Mumbai",
        "url": "https://www.tripoto.com/trip/bookmark-these-10-pretty-best-cafes-restaurants-that-i-visited-personally-in-mumbai-3a8cbdf18c31702e0",
        "placeName": "Mumbai",
        "category": "Food & Drink"
    },
    {
        "title": "10 Mouthwatering Bakeries in Mumbai",
        "url": "https://www.tripoto.com/trip/let-s-indulge-in-the-best-cupcakes-bun-maska-and-croissants-at-13-mouthwatering-bakeries-in-mumbai-5ef4b91bc395b317",
        "placeName": "Mumbai",
        "category": "Food & Drink"
    },
    {
        "title": "10 Best Pubs In Mumbai",
        "url": "https://www.tripoto.com/trip/pubs-in-mumbai",
        "placeName": "Mumbai",
        "category": "Music & Nightlife"
    },
    {
        "title": "Best rooftop bars in Mumbai",
        "url": "https://www.tripoto.com/trip/best-rooftop-bars-for-the-night-time-rendezvous-in-mumbai-3b5b51f9c3314719f",
        "placeName": "Mumbai",
        "category": "Music & Nightlife"
    },
    {
        "title": "5 Fort Treks to do in Maharashtra during Monsoons",
        "url": "https://www.tripoto.com/trip/5-fort-treks-to-do-in-maharashtra-during-monsoons-6300fe93956fe",
        "placeName": "Maharashtra",
        "category": "Things To Do"
    },
    {
        "title": "6 haunted places to visit in Pune",
        "url": "https://www.tripoto.com/pune/trips/6-haunted-places-to-visit-in-pune-if-you-re-a-horror-fanatic-5c262567cebfa",
        "placeName": "Pune",
        "category": "Travel"
    },
    {
        "title": "7 Hill Stations in Andhra Pradesh",
        "url": "https://www.tripoto.com/andhra-pradesh/trips/7-hill-stations-in-andhra-pradesh",
        "placeName": "Andhra Pradesh",
        "category": "Travel"
    },
    {
        "title": "Hill stations near Bangalore",
        "url": "https://www.tripoto.com/india/trips/hill-stations-near-bangalore-that-have-more-to-offer-for-a-holiday",
        "placeName": "Bangalore",
        "category": "Travel"
    },
    {
        "title": "30 Best Hill Stations in India",
        "url": "https://www.tripoto.com/trip/best-hill-stations-in-india",
        "placeName": "India",
        "category": "Travel"
    },
    {
        "title": "11 Unexplored Places You Must Explore In Himachal Pradesh",
        "url": "https://www.tripoto.com/himachal-pradesh/trips/tourist-places-in-himachal-pradesh",
        "placeName": "Himachal Pradesh",
        "category": "Travel"
    },
    {
        "title": "10 Amazing Offbeat Destinations In Himachal Pradesh",
        "url": "https://www.tripoto.com/himachal-pradesh/trips/offbeat-places-in-himachal-pradesh",
        "placeName": "Himachal Pradesh",
        "category": "Travel"
    },
    {
        "title": "14 Top Attractions in Himachal",
        "url": "https://www.tripoto.com/trip/15-attractions-in-himachal-pradesh-8194",
        "placeName": "Himachal Pradesh",
        "category": "Travel"
    },
    {
        "title": "Best Dishes To Try in Himachal",
        "url": "https://www.tripoto.com/trip/5-delicious-and-traditional-food-of-himachal-pradesh-5edb3dca3c8a0",
        "placeName": "Himachal Pradesh",
        "category": "Food & Drink"
    },
    {
        "title": "21 Festivals of Himachal",
        "url": "https://www.tripoto.com/trip/21-festivals-of-himachal-pradesh-to-witness-diversity-of-the-state-3ad73ce9db3be015f",
        "placeName": "Himachal Pradesh",
        "category": "Things To Do"
    },
    {
        "title": "30 Best Hotels in Manali",
        "url": "https://www.tripoto.com/trip/top-20-resorts-hostels-and-cottages-in-manali-himachal-pradesh-handpicked-for-all-budgets-5ff4094528ea8",
        "placeName": "Manali",
        "category": "Travel"
    },
    {
        "title": "Homestays in Himachal",
        "url": "https://www.tripoto.com/trip/this-winter-season-stay-in-these-homestays-and-b-bs-surrounded-by-nature-in-himachal-pradesh-5fe808c5080dc",
        "placeName": "Himachal Pradesh",
        "category": "Travel"
    },
    {
        "title": "Gorgeous Hotels in Palampur",
        "url": "https://www.tripoto.com/trip/palampur-is-himachal-pradesh-s-most-underrated-gem-and-these-gorgeous-hotels-are-proof-5acb61ae4790e",
        "placeName": "Palampur",
        "category": "Travel"
    },
    {
        "title": "Best Waterside Properties in Himachal",
        "url": "https://www.tripoto.com/trip/ten-breathtaking-river-facing-stays-in-himachal-to-social-distance-and-chill-60dc9eb4929d9",
        "placeName": "Himachal Pradesh",
        "category": "Travel"
    },
    {
        "title": "10 Best Hostels in Himachal",
        "url": "https://www.tripoto.com/trip/honest-reviews-hostel-trail-through-himachal-606d2399183ce",
        "placeName": "Himachal",
        "category": "Travel"
    },
    {
        "title": "27 Adventure And Trekking Destinations In Himachal Pradesh",
        "url": "https://www.tripoto.com/trip/27-best-adventure-and-trekking-destinations-in-himachal-pradesh-58cf7ed1c058e",
        "placeName": "Himachal Pradesh",
        "category": "Things To Do"
    },
    {
        "title": "Unexplored Places in Spiti Valley",
        "url": "https://www.tripoto.com/trip/take-the-road-less-travelled-to-these-unexplored-places-in-spiti-valley-61668db53575e",
        "placeName": "Spiti Valley",
        "category": "Travel"
    },
    {
        "title": "A Hostel Map of Himachal for Every Backpacker",
        "url": "https://www.tripoto.com/trip/a-hostel-map-of-himachal-for-every-backpacker-5bc730d01f2fb",
        "placeName": "Himachal Pradesh",
        "category": "Travel"
    },
    {
        "title": "10 Must-Visit Places In Andhra Pradesh",
        "url": "https://www.tripoto.com/trip/10-places-to-visit-in-andhra-pradesh-that-you-must-explore-3ae58f887f8a702b8",
        "placeName": "Andhra Pradesh",
        "category": "Travel"
    },
    {
        "title": "Glacier Treks in Uttarakhand",
        "url": "https://www.tripoto.com/trip/trekking-in-uttarakhand",
        "placeName": "Uttarakhand",
        "category": "Things To Do"
    },
    {
        "title": "Lesser-Known Shiva Temples In Uttarakhand",
        "url": "https://www.tripoto.com/trip/shiv-somvaar-special-two-lesser-known-shiva-temples-in-uttarakhand-6119e84846fe8",
        "placeName": "Uttarakhand",
        "category": "Travel"
    },
    {
        "title": "Ancient Temples in Uttarakhand",
        "url": "https://www.tripoto.com/trip/do-you-know-which-3-temples-of-uttarakhand-are-in-asi-must-see-list-60ddb94e76aab",
        "placeName": "Uttarakhand",
        "category": "Travel"
    },
    {
        "title": "Where to Eat In Rishikesh",
        "url": "https://www.tripoto.com/trip/heres-the-ultimate-guide-to-the-cafes-in-rishikesh-3a9c5efaa1408b239",
        "placeName": "Rishikesh",
        "category": "Food & Drink"
    },
    {
        "title": "Best Dishes from Uttarakhand",
        "url": "https://www.tripoto.com/trip/these-traditional-dishes-from-uttarakhand-are-a-must-try-for-every-traveler-612759d56a617",
        "placeName": "Uttarakhand",
        "category": "Food & Drink"
    },
    {
        "title": "Where To Eat In Mussoorie",
        "url": "https://www.tripoto.com/trip/food-places-in-mussoorie-you-must-visit-61df043b0377e",
        "placeName": "Mussoorie",
        "category": "Food & Drink"
    },
    {
        "title": "8 Food Trucks in Dehradun",
        "url": "https://www.tripoto.com/trip/8-food-trucks-you-must-visit-while-in-dehradun-3aca179b3170a921",
        "placeName": "Dehradun",
        "category": "Food & Drink"
    },
    {
        "title": "Best places to eat in Corbett",
        "url": "https://www.tripoto.com/trip/the-five-best-places-to-eat-in-jim-corbett-tiger-reserve-5e2afccb162c5",
        "placeName": "Corbett",
        "category": "Food & Drink"
    },
    {
        "title": "Best Places To Visit In Uttarakhand",
        "url": "https://www.tripoto.com/trip/photo-story-here-are-the-best-places-to-visit-in-uttarakhand-5aacf07cdc178",
        "placeName": "Uttarakhand",
        "category": "Travel"
    },
    {
        "title": "10 Must-Do Treks In Uttarakhand",
        "url": "https://www.tripoto.com/trip/top-10-must-do-treks-best-places-of-uttarakhand-himalayan-boys-5d14d3dc7cde8",
        "placeName": "Uttarakhand",
        "category": "Things To Do"
    },
    {
        "title": "6 Places In Uttarakhand From Bollywood",
        "url": "https://www.tripoto.com/trip/6-places-in-uttarakhand-that-have-made-it-to-bollywood-614ac60974367",
        "placeName": "Uttarakhand",
        "category": "Travel"
    },
    {
        "title": "Offbeat Places In Uttarakhand",
        "url": "https://www.tripoto.com/trip/offbeat-places-in-uttarakhand-that-are-a-hidden-gem-altogether-579f98d1579ea",
        "placeName": "Uttarakhand",
        "category": "Travel"
    },
    {
        "title": "Best Hotels In Mumbai",
        "url": "https://www.tripoto.com/maharashtra/trips/romantic-places-near-mumbai-for-couples",
        "placeName": "Mumbai",
        "category": "Travel"
    },
    {
        "title": "Best Places To Visit In Mumbai",
        "url": "https://www.tripoto.com/trip/9-must-see-tourist-places-in-mumbai-fly-with-shaunak-583a9a8a2b1a1",
        "placeName": "Mumbai",
        "category": "Travel"
    },
    {
        "title": "Best Restaurants In Mumbai",
        "url": "https://www.tripoto.com/trip/best-bars-in-mumbai-431368",
        "placeName": "Mumbai",
        "category": "Food & Drink"
    },
    {
        "title": "Wholesale & Jewellery Markets in Mumbai",
        "url": "https://www.tripoto.com/trip/15-wholesale-markets-in-mumbai",
        "placeName": "Mumbai",
        "category": "Shopping"
    },
    {
        "title": "Beaches Near Mumbai",
        "url": "https://www.tripoto.com/trip/beaches-near-mumbai",
        "placeName": "Mumbai",
        "category": "Travel"
    },
    {
        "title": "Hidden Restaurants in Mumbai",
        "url": "https://www.tripoto.com/trip/unusual-hidden-restaurants-in-mumbai",
        "placeName": "Mumbai",
        "category": "Food & Drink"
    },
    {
        "title": "Date-Worthy Restaurants In Mumbai",
        "url": "https://www.tripoto.com/trip/6-romantic-restaurants-bars-in-mumbai-that-won-t-leave-you-broke-5be0007438327",
        "placeName": "Mumbai",
        "category": "Food & Drink"
    },
    {
        "title": "Best Hotels in Darjeeling",
        "url": "https://www.tripoto.com/trip/best-darjeeling-hotels-to-stay-in-3b05d8ffe233be215",
        "placeName": "Darjeeling",
        "category": "Travel"
    },
    {
        "title": "12 Best Treks In India For Each Month",
        "url": "https://www.tripoto.com/trip/best-treks-in-india",
        "placeName": "India",
        "category": "Things To Do"
    },
    {
        "title": "8 Stunning Trek Trails in Maharashtra",
        "url": "https://www.tripoto.com/trip/treks-near-mumbai",
        "placeName": "Maharashtra",
        "category": "Things To Do"
    },
    {
        "title": "7 Amazing Treks Near Bangalore",
        "url": "https://www.tripoto.com/trip/trekking-near-bangalore",
        "placeName": "Bangalore",
        "category": "Things To Do"
    },
    {
        "title": "4 Stunning Trek Trails in West Bengal",
        "url": "https://www.tripoto.com/trip/experience-the-thrill-through-these-trekking-trails-in-west-bengal-5ad4b8a2211c9",
        "placeName": "West Bengal",
        "category": "Things To Do"
    },
    {
        "title": "Places To Visit In Nepal",
        "url": "https://www.tripoto.com/nepal/trips/places-to-visit-in-nepal-tourism-itinerary",
        "placeName": "Nepal",
        "category": "Travel"
    },
    {
        "title": "Best Cafes and Bakeries in Pune",
        "url": "https://www.tripoto.com/pune/trips/10-of-the-best-cafes-and-bakeries-in-pune-5b1ffc6f96294",
        "placeName": "Pune",
        "category": "Food & Drink"
    },
    {
        "title": "Best Hotels in Hyderabad",
        "url": "https://www.tripoto.com/trip/the-royal-city-of-hyderabad-755086",
        "placeName": "Hyderabad",
        "category": "Travel"
    },
    {
        "title": "Best Hotels In Goa",
        "url": "https://www.tripoto.com/goa/trips/best-hotels-in-goa-5b1e6bd5c85b1",
        "placeName": "Goa",
        "category": "Travel"
    },
    {
        "title": "Best places to visit in Goa",
        "url": "https://www.tripoto.com/goa/trips/best-places-to-visit-in-goa",
        "placeName": "Goa",
        "category": "Travel"
    },
    {
        "title": "30 best beaches in Goa",
        "url": "https://www.tripoto.com/goa/trips/best-beaches-in-goa",
        "placeName": "Goa",
        "category": "Travel"
    },
    {
        "title": "Hidden Hill Stations In South India",
        "url": "https://www.tripoto.com/india/trips/hill-stations-in-south-india",
        "placeName": "South India",
        "category": "Travel"
    },
    {
        "title": "18 Hill Stations in Uttarakhand",
        "url": "https://www.tripoto.com/uttarakhand/trips/best-hill-stations-in-uttarakhand",
        "placeName": "Uttarakhand",
        "category": "Travel"
    },
    {
        "title": "A Foodie's Guide to Amritsar's Street Food",
        "url": "https://www.tripoto.com/trip/amritsar-your-next-food-destination-6220",
        "placeName": "Amritsar",
        "category": "Food & Drink"
    },
    {
        "title": "Tourist Places in Punjab",
        "url": "https://www.tripoto.com/punjab/trips/tourist-places-in-punjab",
        "placeName": "Punjab",
        "category": "Travel"
    },
    {
        "title": "Top Temples In Siem Reap",
        "url": "https://www.tripoto.com/trip/11-must-visit-temples-in-siem-reap-57010fe6867a4",
        "placeName": "Siem Reap",
        "category": "Travel"
    },
    {
        "title": "Things To Do In Siem Reap Besides Temples",
        "url": "https://www.tripoto.com/trip/top-10-things-to-do-in-siem-reap-besides-the-temples-566aa41db6543",
        "placeName": "Siem Reap",
        "category": "Things To Do"
    },
    {
        "title": "10 Best Luxury Tours In India",
        "url": "https://www.tripoto.com/trip/luxury-tours-in-india",
        "placeName": "India",
        "category": "Travel"
    },
    {
        "title": "51 Beaches in Goa: Serene, Soulful and Splendid",
        "url": "https://www.tripoto.com/goa/trips/51-beaches-in-goa-serene-soulful-and-splendid-598f4433a425a",
        "placeName": "Goa",
        "category": "Travel"
    },
    {
        "title": "Unconventional Beaches of North Goa",
        "url": "https://www.tripoto.com/goa/trips/exploring-the-unconventional-beaches-of-north-goa-final-adventures-days-4-5-5957cbf7b3c04",
        "placeName": "North Goa",
        "category": "Travel"
    },
    {
        "title": "Top Most Beautiful Lakes in Canada",
        "url": "https://www.tripoto.com/trip/top-most-beautiful-lakes-in-canada-59fd596258870",
        "placeName": "Canada",
        "category": "Travel"
    },
    {
        "title": "Top 10 Things To Do In New York City",
        "url": "https://www.tripoto.com/trip/top-10-things-to-do-in-new-york-city-comprehensive-trip-report-576a7f8f1f9f3",
        "placeName": "New York City",
        "category": "Things To Do"
    },
    {
        "title": "Things To Do In Jaipur Over a Weekend",
        "url": "https://www.tripoto.com/bhangarh/trips/things-to-do-in-jaipur-that-will-keep-you-coming-back",
        "placeName": "Jaipur",
        "category": "Things To Do"
    },
    {
        "title": "7 Awesome Things To Do In Pattaya",
        "url": "https://www.tripoto.com/thailand/trips/7-awesome-things-to-do-in-pattaya-fly-with-shaunak-583a9d7610fd0",
        "placeName": "Pattaya",
        "category": "Things To Do"
    },
    {
        "title": "A Complete Guide To Shopping In Hyderabad",
        "url": "https://www.tripoto.com/andhra-pradesh/trips/cheap-places-to-shop-in-hyderabad",
        "placeName": "Hyderabad",
        "category": "Shopping"
    },
    {
        "title": "Best Stays in Sikkim (Resorts, Hotels, Homestays & Hostels)",
        "url": "https://www.tripoto.com/trip/a-curated-list-of-20-top-places-to-stay-and-surround-yourself-in-the-nature-warmth-of-sikkim-600110bde2798",
        "placeName": "Sikkim",
        "category": "Travel"
    },
    {
        "title": "Best Hotels In Andaman And Nicobar",
        "url": "https://www.tripoto.com/travel-guide/andaman-and-nicobar/hotels",
        "placeName": "Andaman & Nicobar Islands",
        "category": "Travel"
    },
    {
        "title": "15 Offbeat Things To Do In Andaman And Nicobar",
        "url": "https://www.tripoto.com/india/trips/things-to-do-in-andaman-and-nicobar",
        "placeName": "Andaman & Nicobar Islands",
        "category": "Things To Do"
    },
    {
        "title": "A Food Guide from North to South Goa",
        "url": "https://www.tripoto.com/trip/from-arambol-to-palolem-here-s-a-complete-food-guide-for-your-next-roadtrip-from-north-to-south-goa-5e0c13297d759174",
        "placeName": "Goa",
        "category": "Food & Drink"
    },
    {
        "title": "Secrets of Ladakh Only Locals Know",
        "url": "https://www.tripoto.com/trip/secrets-of-ladakh-that-the-locals-would-keep-to-themselves-143987",
        "placeName": "Ladakh",
        "category": "Travel"
    },
    {
        "title": "Best Budget Hotels in Ladakh Under \u20b92500",
        "url": "https://www.tripoto.com/trip/planning-a-trip-to-ladakh-heres-where-you-can-spend-a-night-under-2500-inr-6130746135048",
        "placeName": "Ladakh",
        "category": "Travel"
    },
    {
        "title": "13 Best Hotels in Ladakh for Every Budget",
        "url": "https://www.tripoto.com/trip/hotels-in-ladakh",
        "placeName": "Ladakh",
        "category": "Travel"
    },
    {
        "title": "Secret Lakes in Ladakh",
        "url": "https://www.tripoto.com/trip/secret-ladakh-lakes",
        "placeName": "Ladakh",
        "category": "Travel"
    },
    {
        "title": "Must-Drive Roads in Ladakh",
        "url": "https://www.tripoto.com/trip/roads-you-must-drive-on-when-in-ladakh-tm2021-61c0519345af0",
        "placeName": "Ladakh",
        "category": "Travel"
    },
    {
        "title": "Best Experiences on Delhi Metro's Yellow Line",
        "url": "https://www.tripoto.com/trip/discover-the-ultimate-food-shopping-experiences-on-delhi-metros-yellow-line-5ee4692ccba16d6",
        "placeName": "Delhi",
        "category": "Travel"
    },
    {
        "title": "International Cuisines in Delhi NCR",
        "url": "https://www.tripoto.com/trip/all-the-foodies-in-delhi-here-are-some-international-cuisines-you-can-have-in-delhi-ncr-5ee34b666307d275",
        "placeName": "Delhi NCR",
        "category": "Food & Drink"
    },
    {
        "title": "Best AirBnb Stays in Delhi",
        "url": "https://www.tripoto.com/trip/delhi-people-tired-of-staying-at-home-these-unique-airbnbs-are-worth-planning-a-weekend-getaway-6142e5c766064",
        "placeName": "Delhi",
        "category": "Travel"
    },
    {
        "title": "Best Staycation Spots in Delhi NCR",
        "url": "https://www.tripoto.com/trip/best-of-the-best-the-ultimate-staycation-spots-in-delhi-ncr-59a69e3d839e8",
        "placeName": "Delhi NCR",
        "category": "Travel"
    },
    {
        "title": "Farmhouses in Delhi NCR for a Weekend Getaway",
        "url": "https://www.tripoto.com/trip/farmhouses-in-ncr-where-you-can-enjoy-a-weekend-there-is-something-for-everyone-60b8e363ce6fa",
        "placeName": "Delhi NCR",
        "category": "Travel"
    },
    {
        "title": "Hill Resorts Close to Delhi NCR",
        "url": "https://www.tripoto.com/trip/10-utterly-romantic-closest-hill-resorts-for-delhites-to-get-cozy-with-your-partner-6141f728be821",
        "placeName": "Delhi NCR",
        "category": "Travel"
    },
    {
        "title": "Luxury Properties near Delhi NCR under \u20b910k",
        "url": "https://www.tripoto.com/trip/10-luxury-properties-near-delhi-that-are-perfect-for-a-quick-weekend-getaway-under-10k-inr-3b2530d4aac4ba299",
        "placeName": "Delhi NCR",
        "category": "Travel"
    },
    {
        "title": "Best Bars In Delhi For Your Party Scenes",
        "url": "https://www.tripoto.com/trip/the-best-bars-in-delhi-458518",
        "placeName": "Delhi",
        "category": "Music & Nightlife"
    },
    {
        "title": "A Guide to Shopping in Hyderabad",
        "url": "https://www.tripoto.com/trip/6-cheap-places-to-shop-in-hyderabad-946378",
        "placeName": "Hyderabad",
        "category": "Shopping"
    },
    {
        "title": "Best Places to visit in Alleppey",
        "url": "https://www.tripoto.com/trip/alleppey-backwaters-a-photo-blog-5900508a8a25c",
        "placeName": "Alleppey",
        "category": "Travel"
    },
    {
        "title": "Best Hotels In Jaisalmer",
        "url": "https://www.tripoto.com/jaisalmer/trips/best-hotels-in-jaisalmer-5a8d384487f39",
        "placeName": "Jaisalmer",
        "category": "Travel"
    },
    {
        "title": "Best Hotels In Lonavala",
        "url": "https://www.tripoto.com/trip/best-lonavala-hotels",
        "placeName": "Lonavala",
        "category": "Travel"
    },
    {
        "title": "10 Best Hotels in Jodhpur",
        "url": "https://www.tripoto.com/jodhpur/trips/best-hotels-in-jodhpur-5a8d33d7b420f",
        "placeName": "Jodhpur",
        "category": "Travel"
    },
    {
        "title": "10 Best Hotels in Udaipur",
        "url": "https://www.tripoto.com/udaipur/trips/best-hotels-in-udaipur-5a8d30e527d91",
        "placeName": "Udaipur",
        "category": "Travel"
    },
    {
        "title": "Best Places To Visit In December Around The Globe",
        "url": "https://www.tripoto.com/asia/trips/best-places-to-visit-in-december",
        "placeName": "World",
        "category": "Travel"
    },
    {
        "title": "7 Caribbean Destinations",
        "url": "https://www.tripoto.com/nassau/trips/these-7-caribbean-destinations-will-leave-you-high-56e440c1c817d",
        "placeName": "Caribbean",
        "category": "Travel"
    },
    {
        "title": "Best Places To Visit In India in December",
        "url": "https://www.tripoto.com/india/trips/best-places-to-visit-in-december-in-india",
        "placeName": "India",
        "category": "Travel"
    },
    {
        "title": "Best Places To Visit In August In India",
        "url": "https://www.tripoto.com/india/trips/best-places-to-visit-in-august-in-india",
        "placeName": "India",
        "category": "Travel"
    },
    {
        "title": "6 Visa-Free African Countries",
        "url": "https://www.tripoto.com/trip/beautiful-beaches-wildest-jungles-and-more-await-you-in-these-6-visa-free-african-countries-5aa233a9231cf",
        "placeName": "Africa",
        "category": "Travel"
    },
    {
        "title": "Hotels In Africa",
        "url": "https://www.tripoto.com/travel-guide/africa/hotels",
        "placeName": "Africa",
        "category": "Travel"
    },
    {
        "title": "8 Exciting Winter Activities In Australia",
        "url": "https://www.tripoto.com/australia/trips/8-awesome-things-to-do-in-australia-this-winter-596cfdb608bd6",
        "placeName": "Australia",
        "category": "Things To Do"
    },
    {
        "title": "Fascinating Animals in Australia",
        "url": "https://www.tripoto.com/australia/trips/these-fascinating-animals-in-australia-are-why-the-island-continent-is-every-wildlife-lovers-dream-3bd7949a7753cc36d?utm_source=Facebook-New-UGC&utm_medium=Social&utm_campaign=18-May-australia&fbclid=IwAR3iFb8W_uf-W0fY9UGaI7h_92QgFvXG1N35_m75C6eXoAgLpcapV8mb3oQ",
        "placeName": "Australia",
        "category": "Travel"
    },
    {
        "title": "12 Best Beaches in Sydney",
        "url": "https://www.tripoto.com/trip/top-10-beaches-to-visit-in-and-around-sydney-australia-5d417e0d381fc",
        "placeName": "Sydney",
        "category": "Travel"
    },
    {
        "title": "11 Gorgeous Beaches To Explore in Australia",
        "url": "https://www.tripoto.com/trip/australian-coastal-gems-unveiling-11-gorgeous-beaches-to-explore-3bd60aaa6431525c",
        "placeName": "Australia",
        "category": "Travel"
    },
    {
        "title": "Luxury Dining Experiences in Australia",
        "url": "https://www.tripoto.com/australia/trips/indulge-in-exquisite-luxury-dining-experiences-across-australia-5fbdfa53673297e",
        "placeName": "Australia",
        "category": "Food & Drink"
    },
    {
        "title": "Australian Adventures for Two",
        "url": "https://www.tripoto.com/australia/trips/australian-adventures-for-two-crafting-your-perfect-romantic-getaway-3be8c217e531c82aa?utm_source=Facebook-New-Family&utm_medium=Social&utm_campaign=10-June-australia&fbclid=IwAR3rdv2nNwVlinyl5z6PlziHmNxVaNQ4IeiMYPlooWrSV0wWVfbSjcXlmTY",
        "placeName": "Australia",
        "category": "Travel"
    },
    {
        "title": "Australia\u2019s Adventure Activities For Thrill Seekers",
        "url": "https://www.tripoto.com/australia/trips/australias-adventure-activities-are-a-dream-come-true-for-every-thrill-seeker-5fc58d45d8c35212?utm_source=Facebook-New-Family&utm_medium=Social&utm_campaign=25-May-Australia&fbclid=IwAR10ePEqqbgcqlc3uVVHb_LKV85iFH_qNw2R4WhaJevwqJUvYfouSzSUfmo",
        "placeName": "Australia",
        "category": "Things To Do"
    },
    {
        "title": "8 Must-Do Activities in Queensland",
        "url": "https://www.tripoto.com/trip/8-magical-things-that-you-can-only-do-in-queensland-5ac364af8d11b",
        "placeName": "Queensland",
        "category": "Things To Do"
    },
    {
        "title": "8 Cool Winter Activities in Australia",
        "url": "https://www.tripoto.com/trip/8-awesome-things-to-do-in-australia-this-winter-596cfdb608bd6",
        "placeName": "Australia",
        "category": "Things To Do"
    },
    {
        "title": "Epic Rail and Sailing Tours In Australia",
        "url": "https://www.tripoto.com/trip/a-journey-of-a-lifetime-rail-and-sailing-tours-where-the-mode-of-transport-is-half-the-fun-3bd623544a1c1c89",
        "placeName": "Australia",
        "category": "Travel"
    },
    {
        "title": "Unforgettable Experiences in Australia",
        "url": "https://www.tripoto.com/australia/trips/unforgettable-experiences-to-elevate-your-australian-holiday-5fbdef57b5a3b2e3",
        "placeName": "Australia",
        "category": "Things To Do"
    },
    {
        "title": "Australia's 12 Most Exciting Sporting Events",
        "url": "https://www.tripoto.com/australia/trips/mark-your-calendar-australia-s-12-most-exciting-sports-and-events-month-by-month-3bf95be326f496ff",
        "placeName": "Australia",
        "category": "Things To Do"
    },
    {
        "title": "Australia's Ultimate Foodie Destinations",
        "url": "https://www.tripoto.com/australia/trips/from-street-food-to-serene-wineries-heres-why-australia-is-the-ultimate-foodie-destination-3be1b4f181cc033ca",
        "placeName": "Australia",
        "category": "Food & Drink"
    },
    {
        "title": "The Ultimate Guide to Luxury Accommodations in Australia",
        "url": "https://www.tripoto.com/trip/the-ultimate-guide-to-luxury-accommodations-in-australia-3bd6bf378ba375175",
        "placeName": "Australia",
        "category": "Travel"
    },
    {
        "title": "Gorgeous Properties in Australia",
        "url": "https://www.tripoto.com/trip/these-gorgeous-properties-could-be-your-home-away-from-home-in-australia-5fe1a3bb9d36d26e",
        "placeName": "Australia",
        "category": "Travel"
    },
    {
        "title": "Top 10 Attractions In Philippines",
        "url": "https://www.tripoto.com/philippines/trips/having-fun-in-the-philippines-3618",
        "placeName": "Philippines",
        "category": "Travel"
    },
    {
        "title": "10 Best Things To Do in One Week in the Philippines",
        "url": "https://www.tripoto.com/philippines/trips/things-to-do-in-philippines-itinerary-in-one-week",
        "placeName": "Philippines",
        "category": "Things To Do"
    },
    {
        "title": "Visiting Indigenous Peoples in the Philippines",
        "url": "https://www.tripoto.com/trip/visiting-indigenous-peoples-in-the-philippines-3090",
        "placeName": "Philippines",
        "category": "Travel"
    },
    {
        "title": "7 Waterfalls Near Manila",
        "url": "https://www.tripoto.com/philippines/trips/best-waterfalls-near-manila",
        "placeName": "Manila",
        "category": "Travel"
    },
    {
        "title": "Hotels In Venice",
        "url": "https://www.tripoto.com/hotels?location_name=Venice&checkin=2018-05-03&checkout=2018-05-04&guests=1",
        "placeName": "Venice",
        "category": "Travel"
    },
    {
        "title": "European Highlights",
        "url": "https://www.tripoto.com/tour-packages/european-highlights",
        "placeName": "Europe",
        "category": "Travel"
    },
    {
        "title": "Best Places to Visit in Bihar",
        "url": "https://www.tripoto.com/bihar/trips/5-hidden-places-in-bihar-that-tourists-miss-585776f0ce853",
        "placeName": "Bihar",
        "category": "Travel"
    },
    {
        "title": "Best Hotels In Bihar",
        "url": "https://www.tripoto.com/hotels?location_name=Bihar&embed=collections&checkin=2018-09-08&checkout=2018-09-09&guests=1",
        "placeName": "Bihar",
        "category": "Travel"
    },
    {
        "title": "Best Hotels in Jodhpur",
        "url": "https://www.tripoto.com/travel-guide/jodhpur/hotels",
        "placeName": "Jodhpur",
        "category": "Travel"
    },
    {
        "title": "10 Best Things To Do in Bali",
        "url": "https://www.tripoto.com/trip/the-ultimate-guide-to-the-11-things-to-do-in-bali-on-your-honeymoon-628ae80bd6b4e",
        "placeName": "Bali",
        "category": "Things To Do"
    },
    {
        "title": "10 Best Hotels in Jaipur",
        "url": "https://www.tripoto.com/jaipur/trips/best-hotels-in-jaipur-5a8d29b28b70e",
        "placeName": "Jaipur",
        "category": "Travel"
    },
    {
        "title": "Top 10 Attractions In Japan",
        "url": "https://www.tripoto.com/trip/10-best-tourist-spots-in-china-1368",
        "placeName": "Japan",
        "category": "Travel"
    },
    {
        "title": "11 Festivals in Japan",
        "url": "https://www.tripoto.com/japan/trips/festivals-in-japan",
        "placeName": "Japan",
        "category": "Things To Do"
    },
    {
        "title": "A Vegetarian & Vegan Food Guide to Japan",
        "url": "https://www.tripoto.com/japan/trips/vegetarian-food-guide-tokyo-japan-2021-60e9c64ec9f80",
        "placeName": "Japan",
        "category": "Food & Drink"
    },
    {
        "title": "7 Free Things to Do in Japan",
        "url": "https://www.tripoto.com/tokyo/trips/7-free-things-to-do-in-japan-5bd2bcab30313",
        "placeName": "Japan",
        "category": "Things To Do"
    },
    {
        "title": "9 Unique Experiences In Japan",
        "url": "https://www.tripoto.com/japan/trips/9-unique-experiences-in-japan-that-will-make-every-indian-want-to-travel-there-5c9778757039c",
        "placeName": "Japan",
        "category": "Things To Do"
    },
    {
        "title": "10 Must-Have South Korean Foods",
        "url": "https://www.tripoto.com/trip/south-korean-food",
        "placeName": "South Korea",
        "category": "Food & Drink"
    },
    {
        "title": "5 Beaches Near Seoul",
        "url": "https://www.tripoto.com/seoul/trips/5-beaches-near-seoul-you-have-to-visit-while-spending-summer-in-korea-590356",
        "placeName": "Seoul",
        "category": "Travel"
    },
    {
        "title": "Best Restaurants In Abu Dhabi",
        "url": "https://www.tripoto.com/abu-dhabi/trips/5-of-the-best-middle-eastern-restaurants-in-abu-dhabi-781228",
        "placeName": "Abu Dhabi",
        "category": "Food & Drink"
    },
    {
        "title": "Things To Do in Abu Dhabi",
        "url": "https://www.tripoto.com/trip/10-unexpectedly-awesome-things-to-do-in-the-coast-city-of-abu-dhabi-5a85a35171de2",
        "placeName": "Abu Dhabi",
        "category": "Things To Do"
    },
    {
        "title": "Best Hotels In South Africa",
        "url": "https://www.tripoto.com/travel-guide/south-africa/hotels",
        "placeName": "South Africa",
        "category": "Travel"
    },
    {
        "title": "Best Hotels In Kuala Lumpur",
        "url": "https://www.tripoto.com/travel-guide/kuala-lumpur/hotels",
        "placeName": "Kuala Lumpur",
        "category": "Travel"
    },
    {
        "title": "A Guide to the Kuala Lumpur Food Trail",
        "url": "https://www.tripoto.com/trip/eating-in-kuala-lumpur-8385",
        "placeName": "Kuala Lumpur",
        "category": "Food & Drink"
    },
    {
        "title": "10 Most Amazing Waterfalls in India",
        "url": "https://www.tripoto.com/trip/10-most-amazing-waterfalls-in-india-you-should-visit-this-monsoon-5978abf476050",
        "placeName": "India",
        "category": "Travel"
    },
    {
        "title": "Best Places To Visit Near Bangalore",
        "url": "https://www.tripoto.com/karnataka/trips/tourist-places-near-bangalore-within-100-150-kms",
        "placeName": "Bangalore",
        "category": "Travel"
    },
    {
        "title": "Best Places To Visit in Agra",
        "url": "https://www.tripoto.com/trip/agra-beyond-the-taj-5726ce46f41dc",
        "placeName": "Agra",
        "category": "Travel"
    },
    {
        "title": "Best Places To Visit In Delhi",
        "url": "https://www.tripoto.com/trip/things-to-do-in-delhi-tourism-itinerary",
        "placeName": "Delhi",
        "category": "Travel"
    },
    {
        "title": "Best Hotels in Delhi",
        "url": "https://www.tripoto.com/new-delhi/trips/ultimate-cheatsheet-for-hotels-in-delhi-suitable-to-every-budget-5e9024fec06273bf",
        "placeName": "Delhi",
        "category": "Travel"
    },
    {
        "title": "Things To Do In Delhi",
        "url": "https://www.tripoto.com/trip/15-cheap-unusual-things-to-do-in-delhi-57d7edf785f5c",
        "placeName": "Delhi",
        "category": "Things To Do"
    },
    {
        "title": "Jugaad Markets In Delhi",
        "url": "https://www.tripoto.com/trip/where-to-go-in-delhi-for-what-20-places-you-need-to-visit-if-you-re-looking-for-something-specific-58a2b42342f53",
        "placeName": "Delhi",
        "category": "Shopping"
    },
    {
        "title": "Late Night Food Joints In Delhi",
        "url": "https://www.tripoto.com/trip/top-10-dirt-cheap-food-joints-in-delhi-ncr-that-are-open-throughout-the-night-58021e8f5fc7b",
        "placeName": "Delhi NCR",
        "category": "Food & Drink"
    },
    {
        "title": "Best Restaurants in Delhi",
        "url": "https://www.tripoto.com/trip/these-10-new-restaurants-in-delhi-are-the-hottest-additions-for-your-ideal-weekend-5e291bf5a3afe19a",
        "placeName": "Delhi",
        "category": "Food & Drink"
    },
    {
        "title": "Best Open-air Cafes in Delhi NCR",
        "url": "https://www.tripoto.com/trip/these-open-air-cafes-are-perfect-winter-jaunts-now-in-delhi-5ee960d95e8e3c",
        "placeName": "Delhi NCR",
        "category": "Food & Drink"
    },
    {
        "title": "13 Must-Do Things in Varanasi",
        "url": "https://www.tripoto.com/varanasi/trips/13-must-things-to-do-in-varanasi-58f06efe75aa4",
        "placeName": "Varanasi",
        "category": "Things To Do"
    },
    {
        "title": "A Definitive Guide To The Ghats In Varanasi",
        "url": "https://www.tripoto.com/varanasi/trips/ghats-in-varanasi",
        "placeName": "Varanasi",
        "category": "Travel"
    },
    {
        "title": "Tourist Places In Ooty",
        "url": "https://www.tripoto.com/trip/a-travel-guide-to-experience-the-best-of-ooty-5ac3377418f70",
        "placeName": "Ooty",
        "category": "Travel"
    },
    {
        "title": "Best Places To See In Jodhpur",
        "url": "https://www.tripoto.com/trip/unravelling-the-bustling-blue-city-of-rajasthan-jodhpur-58889a0862296",
        "placeName": "Jodhpur",
        "category": "Travel"
    },
    {
        "title": "Places you can\u2019t miss in Jodhpur",
        "url": "https://www.tripoto.com/rajasthan/trips/places-you-can-t-miss-at-jodhpur-59543919d1b69",
        "placeName": "Jodhpur",
        "category": "Travel"
    },
    {
        "title": "Exploring Indonesian Islands Beyond Bali",
        "url": "https://www.tripoto.com/trip/Indonesia-islands-travel-guide",
        "placeName": "Indonesia",
        "category": "Travel"
    },
    {
        "title": "6 Visa-Free African Countries for Indians",
        "url": "https://www.tripoto.com/trip/beautiful-beaches-wildest-jungles-and-more-await-you-in-these-6-visa-free-african-countries-5aa233a9231cf",
        "placeName": "Africa",
        "category": "Travel"
    },
    {
        "title": "Top Things To Do In United Arab Emirates",
        "url": "https://www.tripoto.com/united-arab-emirates/trips/top-things-to-do-in-united-arab-emirates-5905b963da8bc",
        "placeName": "United Arab Emirates",
        "category": "Things To Do"
    },
    {
        "title": "101 Magical Ways To Love The Middle East",
        "url": "https://www.tripoto.com/fujairah/trips/101-magical-ways-to-love-the-middle-east-573c200d9132c",
        "placeName": "Middle East",
        "category": "Travel"
    },
    {
        "title": "10 Things To Do In The French Capital Of India, Pondicherry",
        "url": "https://www.tripoto.com/trip/top-pondicherry-attractions",
        "placeName": "Puducherry",
        "category": "Things To Do"
    },
    {
        "title": "An Italian Art And Architecture Trail",
        "url": "https://www.tripoto.com/trip/the-perfect-art-and-architecture-trail-in-northern-italy-for-history-buffs-58e20359b36ab",
        "placeName": "Italy",
        "category": "Travel"
    },
    {
        "title": "9 Underrated Places To Eat In Bangalore",
        "url": "https://www.tripoto.com/bangalore/trips/underrated-places-to-eat-in-bangalore",
        "placeName": "Bangalore",
        "category": "Food & Drink"
    },
    {
        "title": "Unique Dining Experiences in Delhi",
        "url": "https://www.tripoto.com/trip/7-unique-dinning-experiences-in-delhi-only-true-food-lovers-would-know-about-56e2867694edf\n",
        "placeName": "Delhi",
        "category": "Food & Drink"
    },
    {
        "title": "Top 9 Places To Hangout In Chennai",
        "url": "https://www.tripoto.com/tamil-nadu/trips/places-to-hangout-in-chennai",
        "placeName": "Chennai",
        "category": "Travel"
    },
    {
        "title": "11 Best places to visit in Goa",
        "url": "https://www.tripoto.com/goa/trips/best-places-to-visit-in-goa",
        "placeName": "Goa",
        "category": "Travel"
    }
]