
[
    {
        "title": "The Best Hotels in Paris",
        "url": "https://www.cntraveler.com/gallery/the-best-hotels-in-paris",
        "category": "Travel",
        "placeName": "Paris"
      },
      {
        "title": "28 Best Luxury Hotels in Paris",
        "url": "https://www.cntraveler.com/gallery/best-luxury-hotels-in-paris",
        "category": "Travel",
        "placeName": "Paris"
      },
      {
        "title": "The Best Airbnbs in Paris",
        "url": "https://www.cntraveler.com/gallery/best-airbnbs-in-paris",
        "category": "Travel",
        "placeName": "Paris"
      },
      {
        "title": "Top Family-Friendly Paris Hotels",
        "url": "https://www.cntraveler.com/gallery/best-family-friendly-hotels-in-paris",
        "category": "Travel",
        "placeName": "Paris"
      },
      {
        "title": "18 Paris Hotels with Incredible Views",
        "url": "https://www.cntraveler.com/gallery/paris-hotels-with-a-view",
        "category": "Travel",
        "placeName": "Paris"
      },
      {
        "title": "32 Best Things to Do in Paris",
        "url": "https://www.cntraveler.com/gallery/best-things-to-do-in-paris",
        "category": "Things To Do",
        "placeName": "Paris"
      },
      {
        "title": "5 Best Day Trips from Paris",
        "url": "https://www.cntraveler.com/gallery/best-day-trips-from-paris",
        "category": "Things To Do",
        "placeName": "Paris"
      },
      {
        "title": "12 Best Museums & Galleries in Paris",
        "url": "https://www.cntraveler.com/gallery/best-museums-galleries-in-paris",
        "category": "Things To Do",
        "placeName": "Paris"
      },
      {
        "title": "18 Best Places for Shopping in Paris",
        "url": "https://www.cntraveler.com/gallery/best-places-for-shopping-in-paris",
        "category": "Shopping",
        "placeName": "Paris"
      },
      {
        "title": "19 Best Paris Walking Tours",
        "url": "https://www.cntraveler.com/gallery/best-paris-walking-tours",
        "category": "Things To Do",
        "placeName": "Paris"
      },
      {
        "title": "15 Best Things to Do in Paris With Kids",
        "url": "https://www.cntraveler.com/gallery/best-things-to-do-in-paris-with-kids",
        "category": "Things To Do",
        "placeName": "Paris"
      },
      {
        "title": "29 Best Restaurants in Paris",
        "url": "https://www.cntraveler.com/gallery/best-restaurants-in-paris",
        "category": "Food & Drink",
        "placeName": "Paris"
      },
      {
        "title": "25 Best Bars in Paris",
        "url": "https://www.cntraveler.com/gallery/best-bars-in-paris",
        "category": "Food & Drink",
        "placeName": "Paris"
      },
      {
        "title": "20 Best Pâtisseries in Paris",
        "url": "https://www.cntraveler.com/gallery/best-bakeries-in-paris",
        "category": "Food & Drink",
        "placeName": "Paris"
      },
      {
        "title": "22 Best Cafés and Coffee Shops in Paris",
        "url": "https://www.cntraveler.com/gallery/best-cafes-and-coffee-shops-in-paris",
        "category": "Food & Drink",
        "placeName": "Paris"
      },
      {
        "title": "20 Best Food Tours in Paris",
        "url": "https://www.cntraveler.com/gallery/best-food-tours-in-paris",
        "category": "Food & Drink",
        "placeName": "Paris"
      },
      {
        "title": "Paris Travel Guide",
        "url": "https://www.cntraveler.com/destinations/paris",
        "category": "Travel",
        "placeName": "Paris"
      },
      {
        "title": "The 33 Best Hotels in Tokyo",
        "url": "https://www.cntraveler.com/gallery/best-hotels-in-tokyo",
        "category": "Travel",
        "placeName": "Tokyo"
      },
      {
        "title": "The 23 Best Sushi Restaurants in Tokyo",
        "url": "https://www.cntraveler.com/gallery/best-places-for-sushi-in-tokyo",
        "category": "Food & Drink",
        "placeName": "Tokyo"
      },
      {
        "title": "21 Best Bars in Tokyo",
        "url": "https://www.cntraveler.com/gallery/best-bars-in-tokyo",
        "category": "Food & Drink",
        "placeName": "Tokyo"
      },
      {
        "title": "39 Best Restaurants in Tokyo",
        "url": "https://www.cntraveler.com/gallery/best-restaurants-in-tokyo",
        "category": "Food & Drink",
        "placeName": "Tokyo"
      },
      {
        "title": "5 Best Day Trips from Tokyo",
        "url": "https://www.cntraveler.com/gallery/best-day-trips-from-tokyo",
        "category": "Things To Do",
        "placeName": "Tokyo"
      },
      {
        "title": "10 Best Museums in Tokyo",
        "url": "https://www.cntraveler.com/gallery/best-museums-in-tokyo",
        "category": "Things To Do",
        "placeName": "Tokyo"
      },
      {
        "title": "12 Best Things to Do in Tokyo With Kids",
        "url": "https://www.cntraveler.com/gallery/best-things-to-do-in-tokyo-with-kids",
        "category": "Things To Do",
        "placeName": "Tokyo"
      },
      {
        "title": "15 Best Places to Eat Like a Local in Tokyo",
        "url": "https://www.cntraveler.com/gallery/best-places-to-eat-like-a-local-in-tokyo",
        "category": "Food & Drink",
        "placeName": "Tokyo"
      },
      {
        "title": "Tokyo Travel Guide",
        "url": "https://www.cntraveler.com/destinations/tokyo",
        "category": "Travel",
        "placeName": "Tokyo"
      },
      {
        "title": "11 Best Things to Do in Edinburgh",
        "url": "https://www.cntraveler.com/gallery/best-things-to-do-in-edinburgh",
        "category": "Things To Do",
        "placeName": "Edinburgh"
      },
      {
        "title": "3 Best Day Trips From Edinburgh",
        "url": "https://www.cntraveler.com/gallery/best-day-trips-from-edinburgh",
        "category": "Things To Do",
        "placeName": "Edinburgh"
      },
      {
        "title": "10 Best Castles in Edinburgh",
        "url": "https://www.cntraveler.com/gallery/best-castles-in-edinburgh",
        "category": "Things To Do",
        "placeName": "Edinburgh"
      },
      {
        "title": "10 Best Museums in Edinburgh",
        "url": "https://www.cntraveler.com/gallery/best-museums-in-edinburgh",
        "category": "Things To Do",
        "placeName": "Edinburgh"
      },
      {
        "title": "10 Best Places for Shopping in Edinburgh",
        "url": "https://www.cntraveler.com/gallery/best-places-for-shopping-in-edinburgh",
        "category": "Shopping",
        "placeName": "Edinburgh"
      },
      {
        "title": "20 Best Restaurants in Edinburgh",
        "url": "https://www.cntraveler.com/gallery/best-restaurants-in-edinburgh",
        "category": "Food & Drink",
        "placeName": "Edinburgh"
      },
      {
        "title": "16 Best Bars & Pubs in Edinburgh",
        "url": "https://www.cntraveler.com/gallery/best-bars-and-pubs-in-edinburgh",
        "category": "Food & Drink",
        "placeName": "Edinburgh"
      },
      {
        "title": "10 Best Coffee Shops in Edinburgh",
        "url": "https://www.cntraveler.com/gallery/best-coffee-shops-in-edinburgh",
        "category": "Food & Drink",
        "placeName": "Edinburgh"
      },
      {
        "title": "Edinburgh Travel Guide",
        "url": "https://www.cntraveler.com/destinations/edinburgh",
        "category": "Travel",
        "placeName": "Edinburgh"
      },
      {
        "title": "16 Best Things to Do in Florence",
        "url": "https://www.cntraveler.com/galleries/2016-07-01/best-things-to-do-in-florence-italy",
        "category": "Things To Do",
        "placeName": "Florence"
      },
      {
        "title": "3 Best Day Trips from Florence",
        "url": "https://www.cntraveler.com/gallery/best-day-trips-from-florence",
        "category": "Things To Do",
        "placeName": "Florence"
      },
      {
        "title": "10 Best Museums in Florence",
        "url": "https://www.cntraveler.com/gallery/best-museums-in-florence",
        "category": "Things To Do",
        "placeName": "Florence"
      },
      {
        "title": "11 Best Places for Shopping in Florence",
        "url": "https://www.cntraveler.com/gallery/best-places-for-shopping-in-florence",
        "category": "Shopping",
        "placeName": "Florence"
      },
      {
        "title": "21 Best Restaurants in Florence",
        "url": "https://www.cntraveler.com/gallery/best-restaurants-in-florence",
        "category": "Food & Drink",
        "placeName": "Florence"
      },
      {
        "title": "15 Best Bars in Florence",
        "url": "https://www.cntraveler.com/gallery/best-bars-in-florence",
        "category": "Food & Drink",
        "placeName": "Florence"
      },
      {
        "title": "11 Best Gelato Shops in Florence",
        "url": "https://www.cntraveler.com/gallery/best-gelato-shops-in-florence",
        "category": "Food & Drink",
        "placeName": "Florence"
      },
      {
        "title": "12 Best Wine Tours and Tastings in Florence",
        "url": "https://www.cntraveler.com/gallery/best-wine-tours-and-tastings-in-florence",
        "category": "Food & Drink",
        "placeName": "Florence"
      },
      {
        "title": "Florence Travel Guide",
        "url": "https://www.cntraveler.com/destinations/florence",
        "category": "Travel",
        "placeName": "Florence"
      },
      {
        "title": "Best Hotels in Florence",
        "url": "https://www.cntraveler.com/gallery/best-hotels-in-florence",
        "category": "Travel",
        "placeName": "Florence"
      },
      {
        "title": "15 Best Things to Do in Lisbon",
        "url": "https://www.cntraveler.com/gallery/best-things-to-do-in-lisbon",
        "category": "Things To Do",
        "placeName": "Lisbon"
      },
      {
        "title": "3 Best Day Trips from Lisbon",
        "url": "https://www.cntraveler.com/gallery/best-day-trips-from-lisbon",
        "category": "Things To Do",
        "placeName": "Lisbon"
      },
      {
        "title": "10 Best Places for Shopping in Lisbon",
        "url": "https://www.cntraveler.com/gallery/best-places-for-shopping-in-lisbon",
        "category": "Shopping",
        "placeName": "Lisbon"
      },
      {
        "title": "10 Best Museums in Lisbon",
        "url": "https://www.cntraveler.com/gallery/best-museums-in-lisbon",
        "category": "Things To Do",
        "placeName": "Lisbon"
      },
      {
        "title": "10 Best Places for Fado Music in Lisbon",
        "url": "https://www.cntraveler.com/gallery/best-places-for-fado-music-in-lisbon",
        "category": "Music & Nightlife",
        "placeName": "Lisbon"
      },
      {
        "title": "13 Best Restaurants in Lisbon",
        "url": "https://www.cntraveler.com/gallery/best-restaurants-in-lisbon",
        "category": "Food & Drink",
        "placeName": "Lisbon"
      },
      {
        "title": "15 Best Bars in Lisbon",
        "url": "https://www.cntraveler.com/gallery/best-bars-in-lisbon",
        "category": "Food & Drink",
        "placeName": "Lisbon"
      },
      {
        "title": "11 Best Coffee Shops in Lisbon",
        "url": "https://www.cntraveler.com/gallery/best-coffee-shops-in-lisbon",
        "category": "Food & Drink",
        "placeName": "Lisbon"
      },
      {
        "title": "Lisbon Travel Guide",
        "url": "https://www.cntraveler.com/destinations/lisbon",
        "category": "Travel",
        "placeName": "Lisbon"
      },
      {
        "title": "Best Hotels in Lisbon",
        "url": "https://www.cntraveler.com/gallery/best-hotels-in-lisbon",
        "category": "Travel",
        "placeName": "Lisbon"
      },
      {
        "title": "The Best Airbnbs in Lisbon",
        "url": "https://www.cntraveler.com/gallery/best-airbnbs-in-lisbon",
        "category": "Travel",
        "placeName": "Lisbon"
      },
      {
        "title": "17 Best Things to Do in Madrid",
        "url": "https://www.cntraveler.com/gallery/best-things-to-do-in-madrid",
        "category": "Things To Do",
        "placeName": "Madrid"
      },
      {
        "title": "3 Best Day Trips from Madrid",
        "url": "https://www.cntraveler.com/gallery/best-day-trips-from-madrid",
        "category": "Things To Do",
        "placeName": "Madrid"
      },
      {
        "title": "9 Best Museums in Madrid",
        "url": "https://www.cntraveler.com/gallery/best-museums-in-madrid",
        "category": "Things To Do",
        "placeName": "Madrid"
      },
      {
        "title": "12 Best Places for Shopping in Madrid",
        "url": "https://www.cntraveler.com/gallery/best-places-for-shopping-in-madrid",
        "category": "Shopping",
        "placeName": "Madrid"
      },
      {
        "title": "10 Best Coffee Shops in Madrid",
        "url": "https://www.cntraveler.com/gallery/best-coffee-shops-in-madrid",
        "category": "Food & Drink",
        "placeName": "Madrid"
      },
      {
        "title": "21 Best Restaurants in Madrid",
        "url": "https://www.cntraveler.com/gallery/best-restaurants-in-madrid",
        "category": "Food & Drink",
        "placeName": "Madrid"
      },
      {
        "title": "15 Best Bars in Madrid",
        "url": "https://www.cntraveler.com/gallery/best-bars-in-madrid",
        "category": "Food & Drink",
        "placeName": "Madrid"
      },
      {
        "title": "15 Best Tapas Bars in Madrid",
        "url": "https://www.cntraveler.com/gallery/best-tapas-bars-in-madrid",
        "category": "Food & Drink",
        "placeName": "Madrid"
      },
      {
        "title": "9 Best Markets in Madrid",
        "url": "https://www.cntraveler.com/gallery/best-markets-in-madrid",
        "category": "Shopping",
        "placeName": "Madrid"
      },
      {
        "title": "Madrid Travel Guide",
        "url": "https://www.cntraveler.com/destinations/madrid",
        "category": "Travel",
        "placeName": "Madrid"
      },
      {
        "title": "Best Hotels in Madrid",
        "url": "https://www.cntraveler.com/gallery/the-best-hotels-in-madrid",
        "category": "Travel",
        "placeName": "Madrid"
      },
      {
        "title": "4 Best Day Trips from Rome",
        "url": "https://www.cntraveler.com/gallery/best-day-trips-from-rome",
        "category": "Things To Do",
        "placeName": "Rome"
      },
      {
        "title": "22 Best Things to Do in Rome",
        "url": "https://www.cntraveler.com/gallery/best-things-to-do-in-rome",
        "category": "Things To Do",
        "placeName": "Rome"
      },
      {
        "title": "19 Best Tours in Rome",
        "url": "https://www.cntraveler.com/gallery/best-tours-in-rome",
        "category": "Things To Do",
        "placeName": "Rome"
      },
      {
        "title": "10 Best Things to Do in Rome with Kids",
        "url": "https://www.cntraveler.com/gallery/best-things-to-do-in-rome-with-kids",
        "category": "Things To Do",
        "placeName": "Rome"
      },
      {
        "title": "14 Best Places for Shopping in Rome",
        "url": "https://www.cntraveler.com/gallery/best-places-for-shopping-in-rome",
        "category": "Shopping",
        "placeName": "Rome"
      },
      {
        "title": "42 Best Restaurants in Rome",
        "url": "https://www.cntraveler.com/gallery/best-restaurants-in-rome",
        "category": "Food & Drink",
        "placeName": "Rome"
      },
      {
        "title": "20 Best Bars in Rome",
        "url": "https://www.cntraveler.com/gallery/best-bars-in-rome",
        "category": "Food & Drink",
        "placeName": "Rome"
      },
      {
        "title": "11 Best Gelato Shops in Rome",
        "url": "https://www.cntraveler.com/gallery/best-gelato-shops-in-rome",
        "category": "Food & Drink",
        "placeName": "Rome"
      },
      {
        "title": "19 Best Spots for Aperitivo in Rome",
        "url": "https://www.cntraveler.com/gallery/best-spots-for-aperitivo-in-rome",
        "category": "Food & Drink",
        "placeName": "Rome"
      },
      {
        "title": "Best Pizza in Rome",
        "url": "https://www.cntraveler.com/gallery/best-pizza-in-rome",
        "category": "Food & Drink",
        "placeName": "Rome"
      },
      {
        "title": "Rome Travel Guide",
        "url": "https://www.cntraveler.com/destinations/rome",
        "category": "Travel",
        "placeName": "Rome"
      },
      {
        "title": "Best Hotels in Rome",
        "url": "https://www.cntraveler.com/gallery/best-hotels-in-rome",
        "category": "Travel",
        "placeName": "Rome"
      },
      {
        "title": "The Best Airbnbs in Rome",
        "url": "https://www.cntraveler.com/gallery/best-airbnbs-in-rome",
        "category": "Travel",
        "placeName": "Rome"
      },
      {
        "title": "25 Best Things to Do in Dubai",
        "url": "https://www.cntraveler.com/gallery/best-things-to-do-in-dubai",
        "category": "Things To Do",
        "placeName": "Dubai"
      },
      {
        "title": "5 Best Day Trips from Dubai",
        "url": "https://www.cntraveler.com/gallery/best-day-trips-from-dubai",
        "category": "Things To Do",
        "placeName": "Dubai"
      },
      {
        "title": "10 Best Shops in Dubai",
        "url": "https://www.cntraveler.com/gallery/best-shops-in-dubai",
        "category": "Shopping",
        "placeName": "Dubai"
      },
      {
        "title": "15 Best Desert Safaris in Dubai",
        "url": "https://www.cntraveler.com/gallery/best-desert-safaris-in-dubai",
        "category": "Things To Do",
        "placeName": "Dubai"
      },
      {
        "title": "Seven Awesome Things to Do with Your Kids in Dubai",
        "url": "https://www.cntraveler.com/gallery/seven-awesome-things-to-do-with-your-kids-in-dubai",
        "category": "Things To Do",
        "placeName": "Dubai"
      },
      {
        "title": "13 Best Outdoor and Extreme Sporting Activities in Dubai",
        "url": "https://www.cntraveler.com/gallery/best-outdoor-and-extreme-sporting-activities-in-dubai",
        "category": "Things To Do",
        "placeName": "Dubai"
      },
      {
        "title": "The Very Best of the Dubai Mall",
        "url": "https://www.cntraveler.com/gallery/the-very-best-of-the-dubai-mall",
        "category": "Shopping",
        "placeName": "Dubai"
      },
      {
        "title": "30 Best Restaurants in Dubai",
        "url": "https://www.cntraveler.com/gallery/best-restaurants-in-dubai",
        "category": "Food & Drink",
        "placeName": "Dubai"
      },
      {
        "title": "20 Best Bars in Dubai",
        "url": "https://www.cntraveler.com/gallery/best-bars-in-dubai",
        "category": "Food & Drink",
        "placeName": "Dubai"
      },
      {
        "title": "10 Best Hotel Brunches in Dubai",
        "url": "https://www.cntraveler.com/gallery/best-hotel-brunches-in-dubai",
        "category": "Food & Drink",
        "placeName": "Dubai"
      },
      {
        "title": "The Best Healthy-ish Restaurants in Dubai",
        "url": "https://www.cntraveler.com/gallery/the-best-healthy-ish-restaurants-in-dubai",
        "category": "Food & Drink",
        "placeName": "Dubai"
      },
      {
        "title": "The Seven Best Dubai Restaurants to Book with Your Friends",
        "url": "https://www.cntraveler.com/gallery/the-seven-best-dubai-restaurants-to-book-with-your-friends",
        "category": "Food & Drink",
        "placeName": "Dubai"
      },
      {
        "title": "Dubai Travel Guide",
        "url": "https://www.cntraveler.com/destinations/dubai",
        "category": "Travel",
        "placeName": "Dubai"
      },
      {
        "title": "Top 15 Hotels in Southern Africa: Readers’ Choice Awards 2022",
        "url": "https://www.cntraveler.com/gallery/top-hotels-in-southern-africa-readers-choice-awards",
        "category": "Travel",
        "placeName": "Africa"
      },
      {
        "title": "Top 10 Hotels in Northern Africa: Readers’ Choice Awards 2022",
        "url": "https://www.cntraveler.com/gallery/top-hotels-in-northern-africa-readers-choice-awards",
        "category": "Travel",
        "placeName": "Africa"
      },
      {
        "title": "Top 15 Resorts in East Africa: Readers’ Choice Awards 2022",
        "url": "https://www.cntraveler.com/gallery/top-east-africa-resorts",
        "category": "Travel",
        "placeName": "Africa"
      },
      {
        "title": "Top 15 Resorts in South Africa: Readers’ Choice Awards 2022",
        "url": "https://www.cntraveler.com/gallery/top-resorts-in-south-africa-readers-choice-awards",
        "category": "Travel",
        "placeName": "Africa"
      },
      {
        "title": "Top 20 Resorts in Africa: Readers’ Choice Awards 2022",
        "url": "https://www.cntraveler.com/gallery/africa-top-resorts",
        "category": "Travel",
        "placeName": "Africa"
      },
      {
        "title": "The Best New Hotels in Africa and the Middle East: 2025 Hot List",
        "url": "https://www.cntraveler.com/gallery/best-new-hotels-in-africa-middle-east-hot-list",
        "category": "Travel",
        "placeName": "Africa"
      },
      {
        "title": "Africa Travel Guide",
        "url": "https://www.cntraveler.com/destinations/africa",
        "category": "Travel",
        "placeName": "Africa"
      },
      {
        "title": "The Best New Hotels in Australia and Asia: 2025 Hot List",
        "url": "https://www.cntraveler.com/gallery/best-new-hotels-in-australia-asia-hot-list",
        "category": "Travel",
        "placeName": "Australia"
      },
      {
        "title": "15 Best Things to Do in Venice",
        "url": "https://www.cntraveler.com/gallery/best-things-to-do-in-venice",
        "category": "Things To Do",
        "placeName": "Venice"
      },
      {
        "title": "3 Best Day Trips from Venice",
        "url": "https://www.cntraveler.com/gallery/best-day-trips-from-venice",
        "category": "Things To Do",
        "placeName": "Venice"
      },
      {
        "title": "11 Best Places for Shopping in Venice",
        "url": "https://www.cntraveler.com/gallery/best-places-for-shopping-in-venice",
        "category": "Shopping",
        "placeName": "Venice"
      },
      {
        "title": "10 Best Museums in Venice",
        "url": "https://www.cntraveler.com/gallery/best-museums-in-venice",
        "category": "Things To Do",
        "placeName": "Venice"
      },
      {
        "title": "23 Best Restaurants in Venice",
        "url": "https://www.cntraveler.com/gallery/best-restaurants-in-venice",
        "category": "Food & Drink",
        "placeName": "Venice"
      },
      {
        "title": "16 Best Bars in Venice",
        "url": "https://www.cntraveler.com/gallery/best-bars-in-venice",
        "category": "Food & Drink",
        "placeName": "Venice"
      },
      {
        "title": "9 Best Gelato Shops in Venice",
        "url": "https://www.cntraveler.com/gallery/best-gelato-in-venice",
        "category": "Food & Drink",
        "placeName": "Venice"
      },
      {
        "title": "10 Best Coffee Shops in Venice",
        "url": "https://www.cntraveler.com/gallery/best-coffee-shops-in-venice",
        "category": "Food & Drink",
        "placeName": "Venice"
      },
      {
        "title": "Venice Travel Guide",
        "url": "https://www.cntraveler.com/destinations/venice",
        "category": "Travel",
        "placeName": "Venice"
      },
      {
        "title": "The Best Airbnbs in Venice",
        "url": "https://www.cntraveler.com/gallery/best-airbnbs-venice",
        "category": "Travel",
        "placeName": "Venice"
      },
      {
        "title": "Best Hotels in Venice",
        "url": "https://www.cntraveler.com/gallery/best-hotels-in-venice",
        "category": "Travel",
        "placeName": "Venice"
      },
      {
        "title": "19 Best Things to Do in Bali",
        "url": "https://www.cntraveler.com/gallery/best-things-to-do-in-bali",
        "category": "Things To Do",
        "placeName": "Bali"
      },
      {
        "title": "3 Best Day Trips in Bali",
        "url": "https://www.cntraveler.com/gallery/best-day-trips-in-bali",
        "category": "Things To Do",
        "placeName": "Bali"
      },
      {
        "title": "9 Best Spas in Bali",
        "url": "https://www.cntraveler.com/gallery/best-spas-in-bali",
        "category": "Things To Do",
        "placeName": "Bali"
      },
      {
        "title": "10 Best Places for Shopping in Bali",
        "url": "https://www.cntraveler.com/gallery/best-places-for-shopping-in-bali",
        "category": "Shopping",
        "placeName": "Bali"
      },
      {
        "title": "18 Best Restaurants in Bali",
        "url": "https://www.cntraveler.com/gallery/best-restaurants-in-bali",
        "category": "Food & Drink",
        "placeName": "Bali"
      },
      {
        "title": "14 Best Bars in Bali",
        "url": "https://www.cntraveler.com/gallery/best-bars-in-bali",
        "category": "Food & Drink",
        "placeName": "Bali"
      },
      {
        "title": "12 Best Beach Clubs in Bali",
        "url": "https://www.cntraveler.com/gallery/best-beach-clubs-in-bali",
        "category": "Music & Nightlife",
        "placeName": "Bali"
      },
      {
        "title": "10 Best Coffee Shops in Bali",
        "url": "https://www.cntraveler.com/gallery/best-coffee-shops-in-bali",
        "category": "Food & Drink",
        "placeName": "Bali"
      },
      {
        "title": "Bali Travel Guide",
        "url": "https://www.cntraveler.com/destinations/bali",
        "category": "Travel",
        "placeName": "Bali"
      },
      {
        "title": "19 Best Things to Do in Bangkok",
        "url": "https://www.cntraveler.com/gallery/best-things-to-do-in-bangkok",
        "category": "Things To Do",
        "placeName": "Bangkok"
      },
      {
        "title": "10 Best Museums in Bangkok",
        "url": "https://www.cntraveler.com/gallery/best-museums-in-bangkok",
        "category": "Things To Do",
        "placeName": "Bangkok"
      },
      {
        "title": "3 Best Day Trips From Bangkok",
        "url": "https://www.cntraveler.com/gallery/best-day-trips-from-bangkok",
        "category": "Things To Do",
        "placeName": "Bangkok"
      },
      {
        "title": "11 Best Street Food Spots in Bangkok",
        "url": "https://www.cntraveler.com/gallery/best-street-food-spots-in-bangkok",
        "category": "Food & Drink",
        "placeName": "Bangkok"
      },
      {
        "title": "11 Best Restaurants in Bangkok",
        "url": "https://www.cntraveler.com/gallery/best-restaurants-in-bangkok",
        "category": "Food & Drink",
        "placeName": "Bangkok"
      },
      {
        "title": "10 Best Bars in Bangkok",
        "url": "https://www.cntraveler.com/gallery/best-bars-in-bangkok",
        "category": "Food & Drink",
        "placeName": "Bangkok"
      },
      {
        "title": "11 Best Places For Coffee in Bangkok",
        "url": "https://www.cntraveler.com/gallery/best-places-for-coffee-in-bangkok",
        "category": "Food & Drink",
        "placeName": "Bangkok"
      },
      {
        "title": "9 Best Brunch Spots in Bangkok",
        "url": "https://www.cntraveler.com/gallery/best-brunch-spots-in-bangkok",
        "category": "Food & Drink",
        "placeName": "Bangkok"
      },
      {
        "title": "Bangkok Travel Guide",
        "url": "https://www.cntraveler.com/destinations/bangkok",
        "category": "Travel",
        "placeName": "Bangkok"
      },
      {
        "title": "15 Best Beaches in Barcelona",
        "url": "https://www.cntraveler.com/gallery/best-beaches-in-barcelona",
        "category": "Things To Do",
        "placeName": "Barcelona"
      },
      {
        "title": "Best Things to Do With Kids in Barcelona",
        "url": "https://www.cntraveler.com/gallery/best-things-to-do-with-kids-in-barcelona",
        "category": "Things To Do",
        "placeName": "Barcelona"
      },
      {
        "title": "14 Best Museums in Barcelona",
        "url": "https://www.cntraveler.com/gallery/best-museums-in-barcelona",
        "category": "Things To Do",
        "placeName": "Barcelona"
      },
      {
        "title": "Where to Shop in Barcelona",
        "url": "https://www.cntraveler.com/gallery/best-places-for-shopping-in-barcelona",
        "category": "Shopping",
        "placeName": "Barcelona"
      },
      {
        "title": "6 Best Day Trips from Barcelona",
        "url": "https://www.cntraveler.com/gallery/best-day-trips-from-barcelona",
        "category": "Things To Do",
        "placeName": "Barcelona"
      },
      {
        "title": "34 Best Restaurants in Barcelona",
        "url": "https://www.cntraveler.com/gallery/best-restaurants-in-barcelona",
        "category": "Food & Drink",
        "placeName": "Barcelona"
      },
      {
        "title": "21 Best Bars in Barcelona",
        "url": "https://www.cntraveler.com/gallery/best-bars-in-barcelona",
        "category": "Food & Drink",
        "placeName": "Barcelona"
      },
      {
        "title": "16 Best Tapas Bars in Barcelona",
        "url": "https://www.cntraveler.com/gallery/best-tapas-bars-in-barcelona",
        "category": "Food & Drink",
        "placeName": "Barcelona"
      },
      {
        "title": "14 Best Wine Bars in Barcelona",
        "url": "https://www.cntraveler.com/gallery/best-wine-bars-in-barcelona",
        "category": "Food & Drink",
        "placeName": "Barcelona"
      },
      {
        "title": "Barcelona Travel Guide",
        "url": "https://www.cntraveler.com/destinations/barcelona",
        "category": "Travel",
        "placeName": "Barcelona"
      },
      {
        "title": "Best Hotels in Barcelona",
        "url": "https://www.cntraveler.com/gallery/best-hotels-in-barcelona",
        "category": "Travel",
        "placeName": "Barcelona"
      },
      {
        "title": "The Very Best Airbnbs in Barcelona",
        "url": "https://www.cntraveler.com/gallery/best-airbnbs-in-barcelona",
        "category": "Travel",
        "placeName": "Barcelona"
      },
      {
        "title": "17 Best Things to Do in Berlin",
        "url": "https://www.cntraveler.com/gallery/best-things-to-do-in-berlin",
        "category": "Things To Do",
        "placeName": "Berlin"
      },
      {
        "title": "3 Best Day Trips from Berlin",
        "url": "https://www.cntraveler.com/gallery/best-day-trips-from-berlin",
        "category": "Things To Do",
        "placeName": "Berlin"
      },
      {
        "title": "10 Best Museums in Berlin",
        "url": "https://www.cntraveler.com/gallery/best-museums-in-berlin",
        "category": "Things To Do",
        "placeName": "Berlin"
      },
      {
        "title": "Top 10 Free Things to Do in Berlin",
        "url": "https://www.cntraveler.com/galleries/2015-02-20/top-10-free-things-to-do-in-berlin",
        "category": "Things To Do",
        "placeName": "Berlin"
      },
      {
        "title": "8 Best Nightclubs & Nightlife Spots in Berlin",
        "url": "https://www.cntraveler.com/gallery/best-nightclubs-and-nightlife-spots-in-berlin",
        "category": "Music & Nightlife",
        "placeName": "Berlin"
      },
      {
        "title": "19 Best Restaurants in Berlin",
        "url": "https://www.cntraveler.com/gallery/best-restaurants-in-berlin",
        "category": "Food & Drink",
        "placeName": "Berlin"
      },
      {
        "title": "13 Best Bars in Berlin",
        "url": "https://www.cntraveler.com/gallery/best-bars-in-berlin",
        "category": "Food & Drink",
        "placeName": "Berlin"
      },
      {
        "title": "9 Best Brunch Spots in Berlin",
        "url": "https://www.cntraveler.com/gallery/best-brunch-spots-in-berlin",
        "category": "Food & Drink",
        "placeName": "Berlin"
      },
      {
        "title": "8 Best Coffee Shops in Berlin",
        "url": "https://www.cntraveler.com/gallery/best-coffee-shops-in-berlin",
        "category": "Food & Drink",
        "placeName": "Berlin"
      },
      {
        "title": "Berlin Travel Guide",
        "url": "https://www.cntraveler.com/destinations/berlin",
        "category": "Travel",
        "placeName": "Berlin"
      },
      {
        "title": "Bermuda Snorkeling Guide: 9 Best Dive Sites On The Island",
        "url": "https://www.cntraveler.com/story/best-snorkeling-dive-sites-in-bermuda",
        "category": "Things To Do",
        "placeName": "Bermuda"
      },
      {
        "title": "10 Best Cultural Attractions in Bermuda",
        "url": "https://www.cntraveler.com/gallery/best-cultural-attractions-in-bermuda",
        "category": "Things To Do",
        "placeName": "Bermuda"
      },
      {
        "title": "The 12 Best Places for Shopping in Bermuda",
        "url": "https://www.cntraveler.com/gallery/best-shops-in-bermuda",
        "category": "Shopping",
        "placeName": "Bermuda"
      },
      {
        "title": "10 Best Museums in Bermuda",
        "url": "https://www.cntraveler.com/gallery/best-museums-in-bermuda",
        "category": "Things To Do",
        "placeName": "Bermuda"
      },
      {
        "title": "New York State Travel Guide",
        "url": "https://www.cntraveler.com/destinations/new-york",
        "category": "Travel",
        "placeName": "New York City"
      },
      {
        "title": "34 Best Hotels in New York City",
        "url": "https://www.cntraveler.com/gallery/best-hotels-in-new-york-city",
        "category": "Travel",
        "placeName": "New York City"
      },
      {
        "title": "27 Best Things to Do in New York",
        "url": "https://www.cntraveler.com/gallery/best-things-to-do-in-new-york",
        "category": "Things To Do",
        "placeName": "New York City"
      },
      {
        "title": "23 Best Museums in New York City",
        "url": "https://www.cntraveler.com/gallery/best-museums-in-new-york-city",
        "category": "Things To Do",
        "placeName": "New York City"
      },
      {
        "title": "16 Cheap Things to Do in NYC",
        "url": "https://www.cntraveler.com/story/cheap-things-to-do-nyc",
        "category": "Things To Do",
        "placeName": "New York City"
      },
      {
        "title": "15 Best Things to Do With Kids in New York City",
        "url": "https://www.cntraveler.com/gallery/best-things-to-do-in-nyc-with-kids",
        "category": "Things To Do",
        "placeName": "New York City"
      },
      {
        "title": "Where to Go Shopping in NYC: Our 20 Picks",
        "url": "https://www.cntraveler.com/gallery/best-places-for-shopping-in-new-york-city",
        "category": "Shopping",
        "placeName": "New York City"
      },
      {
        "title": "7 Easy Weekend Trips from NYC",
        "url": "https://www.cntraveler.com/galleries/2016-05-12/8-easy-weekend-getaways-from-new-york-city",
        "category": "Travel",
        "placeName": "New York City"
      },
      {
        "title": "17 Airbnbs Within 3 Hours of New York City",
        "url": "https://www.cntraveler.com/gallery/best-airbnbs-near-new-york-city",
        "category": "Travel",
        "placeName": "New York City"
      },
      {
        "title": "5 Best Day Trips from New York City",
        "url": "https://www.cntraveler.com/gallery/best-day-trips-from-new-york-city",
        "category": "Things To Do",
        "placeName": "New York City"
      },
      {
        "title": "28 Best Restaurants in New York City",
        "url": "https://www.cntraveler.com/gallery/best-restaurants-in-new-york-city",
        "category": "Food & Drink",
        "placeName": "New York City"
      },
      {
        "title": "The Best Sushi in NYC",
        "url": "https://www.cntraveler.com/gallery/best-sushi-nyc",
        "category": "Food & Drink",
        "placeName": "New York City"
      },
      {
        "title": "The 15 Best Bakeries in NYC",
        "url": "https://www.cntraveler.com/story/best-bakeries-nyc",
        "category": "Food & Drink",
        "placeName": "New York City"
      },
      {
        "title": "The Best Jewish Food in NYC",
        "url": "https://www.cntraveler.com/story/the-best-jewish-food-in-nyc-according-to-a-jewish-new-yorker",
        "category": "Food & Drink",
        "placeName": "New York City"
      },
      {
        "title": "22 Best Places for Pizza in New York City",
        "url": "https://www.cntraveler.com/gallery/best-places-for-pizza-in-new-york-city",
        "category": "Food & Drink",
        "placeName": "New York City"
      },
      {
        "title": "The Best Burgers in NYC",
        "url": "https://www.cntraveler.com/story/best-burger-nyc",
        "category": "Food & Drink",
        "placeName": "New York City"
      },
      {
        "title": "15 Best Bars in New York City",
        "url": "https://www.cntraveler.com/gallery/best-bars-in-new-york-city",
        "category": "Food & Drink",
        "placeName": "New York City"
      },
      {
        "title": "Our Favorite Steakhouses in NYC",
        "url": "https://www.cntraveler.com/gallery/best-steakhouse-in-nyc",
        "category": "Food & Drink",
        "placeName": "New York City"
      },
      {
        "title": "28 Best Brunches in New York City",
        "url": "https://www.cntraveler.com/gallery/best-brunches-in-new-york-city",
        "category": "Food & Drink",
        "placeName": "New York City"
      },
      {
        "title": "21 Best Italian Restaurants in New York",
        "url": "https://www.cntraveler.com/gallery/best-italian-restaurants-in-new-york",
        "category": "Food & Drink",
        "placeName": "New York City"
      },
      {
        "title": "New York City",
        "url": "https://www.cntraveler.com/destinations/new-york-city",
        "category": "Travel",
        "placeName": "New York City"
      },
      {
        "title": "17 Best Things to Do in Austin",
        "url": "https://www.cntraveler.com/gallery/best-things-to-do-in-austin",
        "category": "Things To Do",
        "placeName": "Austin"
      },
      {
        "title": "9 Best Hikes in Austin",
        "url": "https://www.cntraveler.com/gallery/best-hikes-in-austin",
        "category": "Things To Do",
        "placeName": "Austin"
      },
      {
        "title": "12 Fun Things To Do in Austin with Kids",
        "url": "https://www.cntraveler.com/gallery/best-things-to-do-in-austin-with-kids",
        "category": "Things To Do",
        "placeName": "Austin"
      },
      {
        "title": "12 Best Places for Shopping in Austin",
        "url": "https://www.cntraveler.com/gallery/best-places-for-shopping-in-austin",
        "category": "Shopping",
        "placeName": "Austin"
      },
      {
        "title": "19 Best Restaurants in Austin",
        "url": "https://www.cntraveler.com/gallery/best-restaurants-in-austin",
        "category": "Food & Drink",
        "placeName": "Austin"
      },
      {
        "title": "18 Best Bars in Austin",
        "url": "https://www.cntraveler.com/gallery/best-bars-in-austin",
        "category": "Food & Drink",
        "placeName": "Austin"
      },
      {
        "title": "10 Best Food Trucks in Austin",
        "url": "https://www.cntraveler.com/gallery/best-food-trucks-in-austin",
        "category": "Food & Drink",
        "placeName": "Austin"
      },
      {
        "title": "14 Best BBQ in Austin",
        "url": "https://www.cntraveler.com/gallery/best-bbq-in-austin",
        "category": "Food & Drink",
        "placeName": "Austin"
      },
      {
        "title": "11 Best Brunches in Austin",
        "url": "https://www.cntraveler.com/gallery/best-brunches-in-austin",
        "category": "Food & Drink",
        "placeName": "Austin"
      },
      {
        "title": "10 Best Breweries in Austin",
        "url": "https://www.cntraveler.com/gallery/best-breweries-in-austin",
        "category": "Food & Drink",
        "placeName": "Austin"
      },
      {
        "title": "14 Best Things to Do in Atlanta",
        "url": "https://www.cntraveler.com/gallery/best-things-to-do-in-atlanta",
        "category": "Things To Do",
        "placeName": "Atlanta"
      },
      {
        "title": "3 Best Day Trips from Atlanta",
        "url": "https://www.cntraveler.com/gallery/best-day-trips-from-atlanta",
        "category": "Things To Do",
        "placeName": "Atlanta"
      },
      {
        "title": "12 Best Museums in Atlanta",
        "url": "https://www.cntraveler.com/gallery/best-museums-in-atlanta",
        "category": "Things To Do",
        "placeName": "Atlanta"
      },
      {
        "title": "11 Best Parks in Atlanta You'll Want to Visit",
        "url": "https://www.cntraveler.com/gallery/best-parks-in-atlanta",
        "category": "Things To Do",
        "placeName": "Atlanta"
      },
      {
        "title": "21 Best Restaurants in Atlanta",
        "url": "https://www.cntraveler.com/gallery/best-restaurants-in-atlanta",
        "category": "Food & Drink",
        "placeName": "Atlanta"
      },
      {
        "title": "10 Best Brunch Places in Atlanta",
        "url": "https://www.cntraveler.com/gallery/best-brunch-places-in-atlanta",
        "category": "Food & Drink",
        "placeName": "Atlanta"
      },
      {
        "title": "9 Best Coffee Shops in Atlanta",
        "url": "https://www.cntraveler.com/gallery/best-coffee-shops-in-atlanta",
        "category": "Food & Drink",
        "placeName": "Atlanta"
      },
      {
        "title": "15 Best Bars in Atlanta",
        "url": "https://www.cntraveler.com/gallery/best-bars-in-atlanta",
        "category": "Food & Drink",
        "placeName": "Atlanta"
      },
      {
        "title": "Atlanta",
        "url": "https://www.cntraveler.com/destinations/atlanta",
        "category": "Travel",
        "placeName": "Atlanta"
      },
      {
        "title": "13 Best Hotels in Atlanta",
        "url": "https://www.cntraveler.com/gallery/best-hotels-in-atlanta",
        "category": "Travel",
        "placeName": "Atlanta"
      },
      {
        "title": "20 Best Things to Do in New Orleans",
        "url": "https://www.cntraveler.com/gallery/best-things-to-do-in-new-orleans",
        "category": "Things To Do",
        "placeName": "New Orleans"
      },
      {
        "title": "The 10 Best Tours Not to Miss in New Orleans",
        "url": "https://www.cntraveler.com/gallery/best-tours-in-new-orleans",
        "category": "Things To Do",
        "placeName": "New Orleans"
      },
      {
        "title": "9 Best Museums in New Orleans",
        "url": "https://www.cntraveler.com/gallery/best-museums-in-new-orleans",
        "category": "Things To Do",
        "placeName": "New Orleans"
      },
      {
        "title": "3 Best Day Trips from New Orleans",
        "url": "https://www.cntraveler.com/gallery/best-day-trips-from-new-orleans",
        "category": "Things To Do",
        "placeName": "New Orleans"
      },
      {
        "title": "12 Things to Do in New Orleans With Kids (That Are Fun for You, Too)",
        "url": "https://www.cntraveler.com/gallery/things-to-do-in-new-orleans-with-kids-that-are-fun-for-you-too",
        "category": "Things To Do",
        "placeName": "New Orleans"
      },
      {
        "title": "27 Best Restaurants in New Orleans",
        "url": "https://www.cntraveler.com/gallery/best-restaurants-in-new-orleans",
        "category": "Food & Drink",
        "placeName": "New Orleans"
      },
      {
        "title": "The 12 Best Po' Boys in New Orleans",
        "url": "https://www.cntraveler.com/gallery/best-po-boys-in-new-orleans",
        "category": "Food & Drink",
        "placeName": "New Orleans"
      },
      {
        "title": "23 Best Bars in New Orleans",
        "url": "https://www.cntraveler.com/gallery/best-bars-in-new-orleans",
        "category": "Food & Drink",
        "placeName": "New Orleans"
      },
      {
        "title": "12 Best Brunches in New Orleans",
        "url": "https://www.cntraveler.com/gallery/best-brunches-in-new-orleans",
        "category": "Food & Drink",
        "placeName": "New Orleans"
      },
      {
        "title": "Best Beignets in New Orleans",
        "url": "https://www.cntraveler.com/gallery/best-beignets-in-new-orleans",
        "category": "Food & Drink",
        "placeName": "New Orleans"
      },
      {
        "title": "19 Best Hotels in New Orleans",
        "url": "https://www.cntraveler.com/gallery/best-hotels-in-new-orleans",
        "category": "Travel",
        "placeName": "New Orleans"
      },
      {
        "title": "21 Best Hotels in San Francisco",
        "url": "https://www.cntraveler.com/gallery/best-hotels-in-san-francisco",
        "category": "Travel",
        "placeName": "San Francisco"
      },
      {
        "title": "23 Best Things to Do in San Francisco",
        "url": "https://www.cntraveler.com/gallery/best-things-to-do-in-san-francisco",
        "category": "Things To Do",
        "placeName": "San Francisco"
      },
      {
        "title": "5 Best Day Trips from San Francisco",
        "url": "https://www.cntraveler.com/gallery/best-day-trips-from-san-francisco",
        "category": "Things To Do",
        "placeName": "San Francisco"
      },
      {
        "title": "14 Best Spas in San Francisco",
        "url": "https://www.cntraveler.com/gallery/best-spas-in-san-francisco",
        "category": "Things To Do",
        "placeName": "San Francisco"
      },
      {
        "title": "27 Best Restaurants in San Francisco",
        "url": "https://www.cntraveler.com/gallery/best-restaurants-in-san-francisco",
        "category": "Food & Drink",
        "placeName": "San Francisco"
      },
      {
        "title": "18 Best Bars in San Francisco",
        "url": "https://www.cntraveler.com/gallery/best-bars-in-san-francisco",
        "category": "Food & Drink",
        "placeName": "San Francisco"
      },
      {
        "title": "Best Pizza in San Francisco",
        "url": "https://www.cntraveler.com/gallery/best-pizza-in-san-francisco",
        "category": "Food & Drink",
        "placeName": "San Francisco"
      },
      {
        "title": "16 Best Coffee Shops in San Francisco",
        "url": "https://www.cntraveler.com/gallery/best-coffee-shops-in-san-francisco",
        "category": "Food & Drink",
        "placeName": "San Francisco"
      },
      {
        "title": "15 Best Places for Chinese Food in San Francisco",
        "url": "https://www.cntraveler.com/gallery/best-chinese-food-in-san-francisco",
        "category": "Food & Drink",
        "placeName": "San Francisco"
      },
      {
        "title": "14 Best Seafood in San Francisco",
        "url": "https://www.cntraveler.com/gallery/best-seafood-in-san-francisco",
        "category": "Food & Drink",
        "placeName": "San Francisco"
      },
      {
        "title": "San Francisco Travel Guide",
        "url": "https://www.cntraveler.com/destinations/san-francisco",
        "category": "Travel",
        "placeName": "San Francisco"
      },
      {
        "title": "11 Best Things to Do in Seattle Right Now",
        "url": "https://www.cntraveler.com/gallery/best-things-to-do-in-seattle",
        "category": "Things To Do",
        "placeName": "Seattle"
      },
      {
        "title": "13 Best Hikes in Seattle",
        "url": "https://www.cntraveler.com/gallery/best-hikes-in-seattle",
        "category": "Things To Do",
        "placeName": "Seattle"
      },
      {
        "title": "Four Best Day Trips from Seattle",
        "url": "https://www.cntraveler.com/gallery/best-day-trips-from-seattle",
        "category": "Things To Do",
        "placeName": "Seattle"
      },
      {
        "title": "21 Best Restaurants in Seattle",
        "url": "https://www.cntraveler.com/gallery/best-restaurants-in-seattle",
        "category": "Food & Drink",
        "placeName": "Seattle"
      },
      {
        "title": "15 Best Bars in Seattle",
        "url": "https://www.cntraveler.com/gallery/best-bars-in-seattle",
        "category": "Food & Drink",
        "placeName": "Seattle"
      },
      {
        "title": "10 Best Sushi Restaurants in Seattle",
        "url": "https://www.cntraveler.com/gallery/best-sushi-restaurants-in-seattle",
        "category": "Food & Drink",
        "placeName": "Seattle"
      },
      {
        "title": "10 Best Coffee Shops in Seattle",
        "url": "https://www.cntraveler.com/gallery/best-coffee-shops-in-seattle",
        "category": "Food & Drink",
        "placeName": "Seattle"
      },
      {
        "title": "12 Best Breweries in Seattle",
        "url": "https://www.cntraveler.com/gallery/best-breweries-in-seattle",
        "category": "Food & Drink",
        "placeName": "Seattle"
      },
      {
        "title": "10 Best Brunch & Breakfast Places in Seattle",
        "url": "https://www.cntraveler.com/gallery/best-brunch-and-breakfast-places-in-seattle",
        "category": "Food & Drink",
        "placeName": "Seattle"
      },
      {
        "title": "Seattle Travel Guide",
        "url": "https://www.cntraveler.com/destinations/seattle",
        "category": "Travel",
        "placeName": "Seattle"
      },
      {
        "title": "15 Best Hotels in Boston",
        "url": "https://www.cntraveler.com/gallery/best-hotels-in-boston",
        "category": "Travel",
        "placeName": "Boston"
      },
      {
        "title": "12 Best Things to Do in Boston",
        "url": "https://www.cntraveler.com/gallery/best-things-to-do-in-boston",
        "category": "Things To Do",
        "placeName": "Boston"
      },
      {
        "title": "12 Best Museums in Boston You'll Want to Visit",
        "url": "https://www.cntraveler.com/gallery/best-museums-in-boston",
        "category": "Things To Do",
        "placeName": "Boston"
      },
      {
        "title": "4 Best Day Trips From Boston",
        "url": "https://www.cntraveler.com/gallery/best-day-trips-from-boston",
        "category": "Things To Do",
        "placeName": "Boston"
      },
      {
        "title": "19 Best Restaurants in Boston",
        "url": "https://www.cntraveler.com/gallery/best-restaurants-in-boston",
        "category": "Food & Drink",
        "placeName": "Boston"
      },
      {
        "title": "15 Best Bars in Boston",
        "url": "https://www.cntraveler.com/gallery/best-bars-in-boston",
        "category": "Food & Drink",
        "placeName": "Boston"
      },
      {
        "title": "11 Best Seafood Restaurants in Boston",
        "url": "https://www.cntraveler.com/gallery/best-seafood-restaurants-in-boston",
        "category": "Food & Drink",
        "placeName": "Boston"
      },
      {
        "title": "10 Best Places for Brunch in Boston",
        "url": "https://www.cntraveler.com/gallery/best-places-for-brunch-in-boston",
        "category": "Food & Drink",
        "placeName": "Boston"
      },
      {
        "title": "10 Best Pizza Spots in Boston",
        "url": "https://www.cntraveler.com/gallery/best-pizza-spots-in-boston",
        "category": "Food & Drink",
        "placeName": "Boston"
      },
      {
        "title": "Boston Travel Guide",
        "url": "https://www.cntraveler.com/destinations/boston",
        "category": "Travel",
        "placeName": "Boston"
      },
      {
        "title": "14 Best Things to Do in Abu Dhabi",
        "url": "https://www.cntraveler.com/gallery/best-things-to-do-in-abu-dhabi",
        "category": "Things To Do",
        "placeName": "Abu Dhabi"
      },
      {
        "title": "6 Best Day Trips from Abu Dhabi",
        "url": "https://www.cntraveler.com/story/best-day-trips-from-abu-dhabi",
        "category": "Things To Do",
        "placeName": "Abu Dhabi"
      },
      {
        "title": "9 Best Things to Do With Kids in Abu Dhabi",
        "url": "https://www.cntraveler.com/gallery/best-things-to-do-in-abu-dhabi-with-kids",
        "category": "Things To Do",
        "placeName": "Abu Dhabi"
      },
      {
        "title": "11 Best Spas in Abu Dhabi",
        "url": "https://www.cntraveler.com/gallery/best-spas-in-abu-dhabi",
        "category": "Things To Do",
        "placeName": "Abu Dhabi"
      },
      {
        "title": "10 Best Museums in Abu Dhabi",
        "url": "https://www.cntraveler.com/gallery/best-museums-in-abu-dhabi",
        "category": "Things To Do",
        "placeName": "Abu Dhabi"
      },
      {
        "title": "11 Best Cafes & Coffee Shops in Abu Dhabi",
        "url": "https://www.cntraveler.com/gallery/best-coffee-shops-in-abu-dhabi",
        "category": "Food & Drink",
        "placeName": "Abu Dhabi"
      },
      {
        "title": "17 Best Restaurants in Abu Dhabi",
        "url": "https://www.cntraveler.com/gallery/best-restaurants-in-abu-dhabi",
        "category": "Food & Drink",
        "placeName": "Abu Dhabi"
      },
      {
        "title": "9 Best Brunches in Abu Dhabi",
        "url": "https://www.cntraveler.com/gallery/best-brunches-in-abu-dhabi",
        "category": "Food & Drink",
        "placeName": "Abu Dhabi"
      },
      {
        "title": "Drinking in Abu Dhabi: A Definitive Guide",
        "url": "https://www.cntraveler.com/story/best-bars-in-abu-dhabi",
        "category": "Food & Drink",
        "placeName": "Abu Dhabi"
      },
      {
        "title": "Abu Dhabi Travel Guide",
        "url": "https://www.cntraveler.com/destinations/abu-dhabi",
        "category": "Travel",
        "placeName": "Abu Dhabi"
      },
      {
        "title": "15 Best Things to Do in Amsterdam",
        "url": "https://www.cntraveler.com/gallery/best-things-to-do-in-amsterdam",
        "category": "Things To Do",
        "placeName": "Amsterdam"
      },
      {
        "title": "10 Best Tours in Amsterdam",
        "url": "https://www.cntraveler.com/gallery/best-tours-in-amsterdam",
        "category": "Things To Do",
        "placeName": "Amsterdam"
      },
      {
        "title": "10 Best Museums in Amsterdam",
        "url": "https://www.cntraveler.com/gallery/best-museums-in-amsterdam",
        "category": "Things To Do",
        "placeName": "Amsterdam"
      },
      {
        "title": "10 Best Shops in Amsterdam",
        "url": "https://www.cntraveler.com/gallery/best-shops-in-amsterdam",
        "category": "Shopping",
        "placeName": "Amsterdam"
      },
      {
        "title": "3 Best Day Trips from Amsterdam",
        "url": "https://www.cntraveler.com/gallery/best-day-trips-from-amsterdam",
        "category": "Things To Do",
        "placeName": "Amsterdam"
      },
      {
        "title": "20 Best Restaurants in Amsterdam",
        "url": "https://www.cntraveler.com/gallery/best-restaurants-in-amsterdam",
        "category": "Food & Drink",
        "placeName": "Amsterdam"
      },
      {
        "title": "18 Best Bars in Amsterdam",
        "url": "https://www.cntraveler.com/gallery/best-bars-in-amsterdam",
        "category": "Food & Drink",
        "placeName": "Amsterdam"
      },
      {
        "title": "10 Best Local Eats in Amsterdam",
        "url": "https://www.cntraveler.com/gallery/best-local-eats-in-amsterdam",
        "category": "Food & Drink",
        "placeName": "Amsterdam"
      },
      {
        "title": "8 Best Clubs in Amsterdam",
        "url": "https://www.cntraveler.com/gallery/best-clubs-in-amsterdam",
        "category": "Music & Nightlife",
        "placeName": "Amsterdam"
      },
      {
        "title": "Amsterdam Travel Guide",
        "url": "https://www.cntraveler.com/destinations/amsterdam",
        "category": "Travel",
        "placeName": "Amsterdam"
      },
      {
        "title": "The Best Hotels in Amsterdam",
        "url": "https://www.cntraveler.com/gallery/the-best-hotels-in-amsterdam",
        "category": "Travel",
        "placeName": "Amsterdam"
      },
      {
        "title": "The Countries With the Most Islands in the World",
        "url": "https://www.cntraveler.com/story/the-countries-with-the-most-islands-in-the-world",
        "category": "Travel",
        "placeName": "General"
      },
      {
        "title": "On Location: ‘Ocean with David Attenborough' Takes Us From the Red Sea to Hawaii",
        "url": "https://www.cntraveler.com/story/on-location-ocean-with-david-attenborough-takes-us-from-the-red-sea-to-hawaii",
        "category": "Travel",
        "placeName": "General"
      },
      {
        "title": "The Shifting Role of the Cruise Ship Godmother",
        "url": "https://www.cntraveler.com/story/the-shifting-role-of-the-cruise-ship-godmother",
        "category": "Travel",
        "placeName": "General"
      },
      {
        "title": "The World’s Best Places for Bird Watching",
        "url": "https://www.cntraveler.com/story/best-places-for-bird-watching-in-the-world",
        "category": "Things To Do",
        "placeName": "General"
      },
      {
        "title": "The Tallest Active Volcanoes You Can Actually Climb",
        "url": "https://www.cntraveler.com/story/the-tallest-active-volcanoes-you-can-actually-climb",
        "category": "Things To Do",
        "placeName": "General"
      },
      {
        "title": "A Beginner's Guide to Italian Aperitivi Cocktails and Where to Try Them",
        "url": "https://www.cntraveler.com/gallery/a-beginners-guide-to-italian-aperitivi-cocktails-and-where-to-try-them",
        "category": "Food & Drink",
        "placeName": "General"
      },
      {
        "title": "Ellerman House",
        "url": "https://www.cntraveler.com/hotels/cape-town/ellerman-house",
        "category": "Travel",
        "placeName": "Cape Town"
      },
      {
        "title": "Tintswalo Atlantic",
        "url": "https://www.cntraveler.com/hotels/cape-town/tintswalo-atlantic",
        "category": "Travel",
        "placeName": "Cape Town"
      },
      {
        "title": "Cape Cadogan Boutique Hotel",
        "url": "https://www.cntraveler.com/hotels/cape-town/cape-cadogan-boutique-hotel",
        "category": "Travel",
        "placeName": "Cape Town"
      },
      {
        "title": "The Twelve Apostles Hotel and Spa",
        "url": "https://www.cntraveler.com/hotels/cape-town/the-twelve-apostles-hotel-and-spa",
        "category": "Travel",
        "placeName": "Cape Town"
      },
      {
        "title": "Last Word Long Beach",
        "url": "https://www.cntraveler.com/hotels/cape-town/last-word-long-beach",
        "category": "Travel",
        "placeName": "Cape Town"
      },
      {
        "title": "Cape Grace",
        "url": "https://www.cntraveler.com/hotels/cape-town/cape-grace",
        "category": "Travel",
        "placeName": "Cape Town"
      },
      {
        "title": "One&Only Cape Town",
        "url": "https://www.cntraveler.com/hotels/cape-town/oneandonly-cape-town",
        "category": "Travel",
        "placeName": "Cape Town"
      },
      {
        "title": "Mount Nelson, A Belmond Hotel, Cape Town",
        "url": "https://www.cntraveler.com/hotels/south-africa/cape-town/mount-nelson-hotel-cape-town",
        "category": "Travel",
        "placeName": "Cape Town"
      },
      {
        "title": "The Cellars-Hohenort",
        "url": "https://www.cntraveler.com/hotels/cape-town/the-cellars-hohenort",
        "category": "Travel",
        "placeName": "Cape Town"
      },
      {
        "title": "Future Found Sanctuary",
        "url": "https://www.cntraveler.com/hotels/cape-town/future-found-sanctuary",
        "category": "Travel",
        "placeName": "Cape Town"
      },
      {
        "title": "More Quarters Hotel",
        "url": "https://www.cntraveler.com/hotels/cape-town/more-quarters-hotel",
        "category": "Travel",
        "placeName": "Cape Town"
      },
      {
        "title": "The Silo Hotel",
        "url": "https://www.cntraveler.com/hotels/cape-town/cape-town/the-silo-hotel",
        "category": "Travel",
        "placeName": "Cape Town"
      },
      {
        "title": "Taj Cape Town",
        "url": "https://www.cntraveler.com/hotels/south-africa/cape-town/taj-cape-town",
        "category": "Travel",
        "placeName": "Cape Town"
      },
      {
        "title": "Queen Victoria Hotel",
        "url": "https://www.cntraveler.com/hotels/south-africa/cape-town/queen-victoria-hotel",
        "category": "Travel",
        "placeName": "Cape Town"
      },
      {
        "title": "The Table Bay",
        "url": "https://www.cntraveler.com/hotels/south-africa/cape-town/table-bay-hotel-cape-town",
        "category": "Travel",
        "placeName": "Cape Town"
      },
      {
        "title": "14 Best Things to Do in Cape Town",
        "url": "https://www.cntraveler.com/gallery/best-things-to-do-in-cape-town",
        "category": "Things To Do",
        "placeName": "Cape Town"
      },
      {
        "title": "3 Best Day Trips From Cape Town",
        "url": "https://www.cntraveler.com/gallery/best-day-trips-from-cape-town",
        "category": "Things To Do",
        "placeName": "Cape Town"
      },
      {
        "title": "15 Best Museums in Cape Town",
        "url": "https://www.cntraveler.com/gallery/best-museums-in-cape-town",
        "category": "Things To Do",
        "placeName": "Cape Town"
      },
      {
        "title": "The 6 Best Beaches in Cape Town, South Africa",
        "url": "https://www.cntraveler.com/galleries/2016-04-13/the-6-best-beaches-in-cape-town-south-africa",
        "category": "Things To Do",
        "placeName": "Cape Town"
      },
      {
        "title": "21 Best Restaurants in Cape Town",
        "url": "https://www.cntraveler.com/gallery/best-restaurants-in-cape-town",
        "category": "Food & Drink",
        "placeName": "Cape Town"
      },
      {
        "title": "13 Best Bars in Cape Town",
        "url": "https://www.cntraveler.com/gallery/best-bars-in-cape-town",
        "category": "Food & Drink",
        "placeName": "Cape Town"
      },
      {
        "title": "10 Best Wineries & Tasting Rooms in Cape Town",
        "url": "https://www.cntraveler.com/gallery/best-wineries-and-tasting-rooms-in-cape-town",
        "category": "Food & Drink",
        "placeName": "Cape Town"
      },
      {
        "title": "10 Best Coffee Shops in Cape Town",
        "url": "https://www.cntraveler.com/gallery/best-coffee-shops-in-cape-town",
        "category": "Food & Drink",
        "placeName": "Cape Town"
      },
      {
        "title": "10 Best Food Markets in Cape Town",
        "url": "https://www.cntraveler.com/gallery/best-food-markets-in-cape-town",
        "category": "Food & Drink",
        "placeName": "Cape Town"
      },
      {
        "title": "Cape Town Travel Guide",
        "url": "https://www.cntraveler.com/destinations/cape-town",
        "category": "Travel",
        "placeName": "Cape Town"
      },
      {
        "title": "The Ansonborough",
        "url": "https://www.cntraveler.com/hotels/charleston/the-ansonborough",
        "category": "Travel",
        "placeName": "Charleston"
      },
      {
        "title": "Zero George",
        "url": "https://www.cntraveler.com/hotels/charleston/zero-george",
        "category": "Travel",
        "placeName": "Charleston"
      },
      {
        "title": "French Quarter Inn",
        "url": "https://www.cntraveler.com/hotels/charleston/french-quarter-inn",
        "category": "Travel",
        "placeName": "Charleston"
      },
      {
        "title": "Grand Bohemian Hotel Charleston, Autograph Collection",
        "url": "https://www.cntraveler.com/hotels/united-states/charleston/grand-bohemian-hotel-charleston",
        "category": "Travel",
        "placeName": "Charleston"
      },
      {
        "title": "The Loutrel",
        "url": "https://www.cntraveler.com/hotels/charleston/the-loutrel",
        "category": "Travel",
        "placeName": "Charleston"
      },
      {
        "title": "John Rutledge House Inn",
        "url": "https://www.cntraveler.com/hotels/united-states/charleston/john-rutledge-house-inn-charleston",
        "category": "Travel",
        "placeName": "Charleston"
      },
      {
        "title": "Wentworth Mansion",
        "url": "https://www.cntraveler.com/hotels/charleston/wentworth-mansion",
        "category": "Travel",
        "placeName": "Charleston"
      },
      {
        "title": "The Beach Club at Charleston Harbor Resort & Marina",
        "url": "https://www.cntraveler.com/hotels/mount-pleasant/the-beach-club-at-charleston-harbor-resort-and-marina",
        "category": "Travel",
        "placeName": "Charleston"
      },
      {
        "title": "The Restoration",
        "url": "https://www.cntraveler.com/hotels/united-states/charleston/restoration-on-king-charleston",
        "category": "Travel",
        "placeName": "Charleston"
      },
      {
        "title": "The Charleston Place",
        "url": "https://www.cntraveler.com/hotels/united-states/charleston/charleston-place",
        "category": "Travel",
        "placeName": "Charleston"
      },
      {
        "title": "The Dewberry Charleston",
        "url": "https://www.cntraveler.com/hotels/charleston/the-dewberry",
        "category": "Travel",
        "placeName": "Charleston"
      },
      {
        "title": "Hotel Bennett",
        "url": "https://www.cntraveler.com/hotels/charleston/hotel-bennett",
        "category": "Travel",
        "placeName": "Charleston"
      },
      {
        "title": "The Pinch",
        "url": "https://www.cntraveler.com/hotels/charleston/the-pinch",
        "category": "Travel",
        "placeName": "Charleston"
      },
      {
        "title": "The Vendue",
        "url": "https://www.cntraveler.com/hotels/charleston/the-vendue",
        "category": "Travel",
        "placeName": "Charleston"
      },
      {
        "title": "The Spectator Hotel",
        "url": "https://www.cntraveler.com/hotels/united-states/charleston/the-spectator-hotel",
        "category": "Travel",
        "placeName": "Charleston"
      },
      {
        "title": "15 Best Things to Do in Charleston",
        "url": "https://www.cntraveler.com/gallery/the-best-things-to-do-in-charleston-sc",
        "category": "Things To Do",
        "placeName": "Charleston"
      },
      {
        "title": "3 Best Day Trips from Charleston",
        "url": "https://www.cntraveler.com/gallery/best-day-trips-from-charleston",
        "category": "Things To Do",
        "placeName": "Charleston"
      },
      {
        "title": "The Best Beaches in Charleston for a Little R&R",
        "url": "https://www.cntraveler.com/gallery/best-beaches-in-charleston",
        "category": "Things To Do",
        "placeName": "Charleston"
      },
      {
        "title": "10 Best Historic House Tours in Charleston",
        "url": "https://www.cntraveler.com/gallery/best-historic-house-tours-in-charleston",
        "category": "Things To Do",
        "placeName": "Charleston"
      },
      {
        "title": "31 Best Restaurants in Charleston",
        "url": "https://www.cntraveler.com/gallery/best-restaurants-in-charleston",
        "category": "Food & Drink",
        "placeName": "Charleston"
      },
      {
        "title": "15 Best Bars in Charleston",
        "url": "https://www.cntraveler.com/gallery/best-bars-in-charleston",
        "category": "Food & Drink",
        "placeName": "Charleston"
      },
      {
        "title": "10 Best Rooftop Bars in Charleston",
        "url": "https://www.cntraveler.com/gallery/best-rooftop-bars-in-charleston",
        "category": "Food & Drink",
        "placeName": "Charleston"
      },
      {
        "title": "10 Best Brunches in Charleston",
        "url": "https://www.cntraveler.com/gallery/best-brunches-in-charleston",
        "category": "Food & Drink",
        "placeName": "Charleston"
      },
      {
        "title": "10 Best Seafood Restaurants in Charleston",
        "url": "https://www.cntraveler.com/gallery/best-seafood-restaurants-in-charleston",
        "category": "Food & Drink",
        "placeName": "Charleston"
      },
      {
        "title": "Charleston Travel Guide",
        "url": "https://www.cntraveler.com/destinations/charleston",
        "category": "Travel",
        "placeName": "Charleston"
      },
      {
        "title": "L7 Chicago by Lotte",
        "url": "https://www.cntraveler.com/hotels/chicago/l7-chicago-by-lotte",
        "category": "Travel",
        "placeName": "Chicago"
      },
      {
        "title": "Renaissance Chicago Downtown Hotel",
        "url": "https://www.cntraveler.com/hotels/united-states/chicago/renaissance-chicago-hotel",
        "category": "Travel",
        "placeName": "Chicago"
      },
      {
        "title": "LondonHouse Chicago, Curio Collection by Hilton",
        "url": "https://www.cntraveler.com/hotels/chicago/londonhouse-chicago-curio-collection-by-hilton",
        "category": "Travel",
        "placeName": "Chicago"
      },
      {
        "title": "Four Seasons Hotel Chicago",
        "url": "https://www.cntraveler.com/hotels/chicago/four-seasons-hotel-chicago",
        "category": "Travel",
        "placeName": "Chicago"
      },
      {
        "title": "The St. Regis Chicago",
        "url": "https://www.cntraveler.com/hotels/chicago/st-regis-chicago",
        "category": "Travel",
        "placeName": "Chicago"
      },
      {
        "title": "The Gwen, a Luxury Collection Hotel, Michigan Avenue Chicago",
        "url": "https://www.cntraveler.com/hotels/chicago/the-gwen-a-luxury-collection-hotel-michigan-avenue-chicago",
        "category": "Travel",
        "placeName": "Chicago"
      },
      {
        "title": "Le Méridien Essex Chicago",
        "url": "https://www.cntraveler.com/hotels/chicago/le-meridien-essex-chicago",
        "category": "Travel",
        "placeName": "Chicago"
      },
      {
        "title": "The Godfrey Hotel Chicago",
        "url": "https://www.cntraveler.com/hotels/chicago/the-godfrey-hotel-chicago",
        "category": "Travel",
        "placeName": "Chicago"
      },
      {
        "title": "Waldorf Astoria Chicago",
        "url": "https://www.cntraveler.com/hotels/united-states/chicago/waldorf-astoria-chicago",
        "category": "Travel",
        "placeName": "Chicago"
      },
      {
        "title": "The Peninsula Chicago",
        "url": "https://www.cntraveler.com/hotels/united-states/chicago/the-peninsula-chicago",
        "category": "Travel",
        "placeName": "Chicago"
      },
      {
        "title": "Viceroy Chicago",
        "url": "https://www.cntraveler.com/hotels/chicago/chicago/viceroy-chicago",
        "category": "Travel",
        "placeName": "Chicago"
      },
      {
        "title": "The Emily Hotel",
        "url": "https://www.cntraveler.com/hotels/chicago/the-emily-hotel",
        "category": "Travel",
        "placeName": "Chicago"
      },
      {
        "title": "citizenM Chicago Downtown",
        "url": "https://www.cntraveler.com/hotels/chicago/citizenm-chicago-downtown",
        "category": "Travel",
        "placeName": "Chicago"
      },
      {
        "title": "Sofitel Chicago Magnificent Mile",
        "url": "https://www.cntraveler.com/hotels/united-states/chicago/sofitel-chicago-water-tower",
        "category": "Travel",
        "placeName": "Chicago"
      },
      {
        "title": "The LaSalle Chicago, Autograph Collection",
        "url": "https://www.cntraveler.com/hotels/chicago/the-lasalle-chicago-autograph-collection",
        "category": "Travel",
        "placeName": "Chicago"
      },
      {
        "title": "21 Best Things to Do in Chicago",
        "url": "https://www.cntraveler.com/gallery/best-things-to-do-in-chicago",
        "category": "Things To Do",
        "placeName": "Chicago"
      },
      {
        "title": "35 Best Restaurants in Chicago",
        "url": "https://www.cntraveler.com/gallery/best-restaurants-in-chicago",
        "category": "Food & Drink",
        "placeName": "Chicago"
      },
      {
        "title": "33 Best Bars in Chicago",
        "url": "https://www.cntraveler.com/gallery/best-bars-in-chicago",
        "category": "Food & Drink",
        "placeName": "Chicago"
      },
      {
        "title": "13 Best Pizza Places in Chicago",
        "url": "https://www.cntraveler.com/gallery/best-pizza-in-chicago",
        "category": "Food & Drink",
        "placeName": "Chicago"
      },
      {
        "title": "12 Best Rooftop Bars in Chicago",
        "url": "https://www.cntraveler.com/gallery/best-rooftop-bars-in-chicago",
        "category": "Food & Drink",
        "placeName": "Chicago"
      },
      {
        "title": "14 Best Coffee Shops in Chicago",
        "url": "https://www.cntraveler.com/gallery/14-best-coffee-shops-in-chicago",
        "category": "Food & Drink",
        "placeName": "Chicago"
      },
      {
        "title": "16 Best Brunches in Chicago",
        "url": "https://www.cntraveler.com/gallery/best-brunch-in-chicago",
        "category": "Food & Drink",
        "placeName": "Chicago"
      },
      {
        "title": "Chicago Travel Guide",
        "url": "https://www.cntraveler.com/destinations/chicago",
        "category": "Travel",
        "placeName": "Chicago"
      },
      {
        "title": "Hotel D'Angleterre",
        "url": "https://www.cntraveler.com/hotels/copenhagen/hotel-dangleterre",
        "category": "Travel",
        "placeName": "Copenhagen"
      },
      {
        "title": "Nimb Hotel",
        "url": "https://www.cntraveler.com/hotels/denmark/frederiksberg/nimb-hotel",
        "category": "Travel",
        "placeName": "Copenhagen"
      },
      {
        "title": "Villa Copenhagen",
        "url": "https://www.cntraveler.com/hotels/copenhagen/villa-copenhagen",
        "category": "Travel",
        "placeName": "Copenhagen"
      },
      {
        "title": "The Socialist, a Tribute Portfolio Hotel",
        "url": "https://www.cntraveler.com/hotels/copenhagen/socialist-tribute-portfolio-collection",
        "category": "Travel",
        "placeName": "Copenhagen"
      },
      {
        "title": "Hotel SP34",
        "url": "https://www.cntraveler.com/hotels/copenhagen/copenhagen/hotel-sp34",
        "category": "Travel",
        "placeName": "Copenhagen"
      },
      {
        "title": "Hotel Herman K",
        "url": "https://www.cntraveler.com/hotels/copenhagen/hotel-herman-k",
        "category": "Travel",
        "placeName": "Copenhagen"
      },
      {
        "title": "Hotel Danmark",
        "url": "https://www.cntraveler.com/hotels/denmark/copenhagen/hotel-danmark",
        "category": "Travel",
        "placeName": "Copenhagen"
      },
      {
        "title": "Skt. Petri",
        "url": "https://www.cntraveler.com/hotels/denmark/copenhagen/first-hotel-skt-petri",
        "category": "Travel",
        "placeName": "Copenhagen"
      },
      {
        "title": "Nobis Hotel Copenhagen",
        "url": "https://www.cntraveler.com/hotels/copenhagen/nobis-hotel-copenhagen",
        "category": "Travel",
        "placeName": "Copenhagen"
      },
      {
        "title": "15 Best Things to Do in Copenhagen",
        "url": "https://www.cntraveler.com/gallery/best-things-to-do-in-copenhagen",
        "category": "Things To Do",
        "placeName": "Copenhagen"
      },
      {
        "title": "3 Best Day Trips From Copenhagen",
        "url": "https://www.cntraveler.com/gallery/best-day-trips-from-copenhagen",
        "category": "Things To Do",
        "placeName": "Copenhagen"
      },
      {
        "title": "9 Best Canal Tours in Copenhagen",
        "url": "https://www.cntraveler.com/gallery/best-canal-tours-in-copenhagen",
        "category": "Things To Do",
        "placeName": "Copenhagen"
      },
      {
        "title": "10 Best Museums in Copenhagen",
        "url": "https://www.cntraveler.com/gallery/10-best-museums-in-copenhagen",
        "category": "Things To Do",
        "placeName": "Copenhagen"
      },
      {
        "title": "10 Best Shops in Copenhagen",
        "url": "https://www.cntraveler.com/gallery/best-shops-in-copenhagen",
        "category": "Shopping",
        "placeName": "Copenhagen"
      },
      {
        "title": "Top 10 Free Things to Do in Copenhagen",
        "url": "https://www.cntraveler.com/galleries/2014-12-28/top-10-free-things-to-do-in-copenhagen-denmark",
        "category": "Things To Do",
        "placeName": "Copenhagen"
      },
      {
        "title": "What to Do in Denmark Beyond Copenhagen",
        "url": "https://www.cntraveler.com/gallery/what-to-do-in-denmark-beyond-copenhagen",
        "category": "Things To Do",
        "placeName": "Copenhagen"
      },
      {
        "title": "22 Best Restaurants in Copenhagen",
        "url": "https://www.cntraveler.com/gallery/best-restaurants-in-copenhagen",
        "category": "Food & Drink",
        "placeName": "Copenhagen"
      },
      {
        "title": "15 Best Bars in Copenhagen",
        "url": "https://www.cntraveler.com/gallery/best-bars-in-copenhagen",
        "category": "Food & Drink",
        "placeName": "Copenhagen"
      },
      {
        "title": "10 Best Street Food Spots in Copenhagen",
        "url": "https://www.cntraveler.com/gallery/best-street-food-spots-in-copenhagen",
        "category": "Food & Drink",
        "placeName": "Copenhagen"
      },
      {
        "title": "Punk Pastries: Copenhagen's Coolest Bakeries",
        "url": "https://www.cntraveler.com/gallery/punk-pastries-copenhagens-coolest-bakeries",
        "category": "Food & Drink",
        "placeName": "Copenhagen"
      },
      {
        "title": "Copenhagen Travel Guide",
        "url": "https://www.cntraveler.com/destinations/copenhagen",
        "category": "Travel",
        "placeName": "Copenhagen"
      },
      {
        "title": "Hôtel Swexan",
        "url": "https://www.cntraveler.com/hotels/dallas/hotel-swexan",
        "category": "Travel",
        "placeName": "Dallas"
      },
      {
        "title": "Hotel Crescent Court",
        "url": "https://www.cntraveler.com/hotels/dallas/hotel-crescent-court",
        "category": "Travel",
        "placeName": "Dallas"
      },
      {
        "title": "HALL Arts Hotel, Curio Collection by Hilton",
        "url": "https://www.cntraveler.com/hotels/dallas/hall-arts-hotel-curio-collection-by-hilton",
        "category": "Travel",
        "placeName": "Dallas"
      },
      {
        "title": "The Joule",
        "url": "https://www.cntraveler.com/hotels/dallas/the-joule",
        "category": "Travel",
        "placeName": "Dallas"
      },
      {
        "title": "JW Marriott Dallas Arts District",
        "url": "https://www.cntraveler.com/hotels/dallas/jw-marriott-dallas-arts-district",
        "category": "Travel",
        "placeName": "Dallas"
      },
      {
        "title": "W Dallas - Victory",
        "url": "https://www.cntraveler.com/hotels/united-states/united-states/dallas/w-dallas-victory",
        "category": "Travel",
        "placeName": "Dallas"
      },
      {
        "title": "Virgin Hotels Dallas",
        "url": "https://www.cntraveler.com/hotels/dallas/virgin-hotels-dallas",
        "category": "Travel",
        "placeName": "Dallas"
      },
      {
        "title": "Rosewood Mansion on Turtle Creek",
        "url": "https://www.cntraveler.com/hotels/united-states/united-states/dallas/rosewood-mansion-on-turtle-creek-dallas",
        "category": "Travel",
        "placeName": "Dallas"
      },
      {
        "title": "Thompson Dallas",
        "url": "https://www.cntraveler.com/hotels/dallas/thompson-dallas",
        "category": "Travel",
        "placeName": "Dallas"
      },
      {
        "title": "The Ritz-Carlton, Dallas",
        "url": "https://www.cntraveler.com/hotels/united-states/dallas/ritz-carlton-dallas",
        "category": "Travel",
        "placeName": "Dallas"
      },
      {
        "title": "Le Méridien Dallas, The Stoneleigh",
        "url": "https://www.cntraveler.com/hotels/united-states/dallas/stoneleigh-hotel-spa",
        "category": "Travel",
        "placeName": "Dallas"
      },
      {
        "title": "Hotel ZaZa Dallas Uptown",
        "url": "https://www.cntraveler.com/hotels/united-states/united-states/dallas/hotel-zaza-dallas",
        "category": "Travel",
        "placeName": "Dallas"
      },
      {
        "title": "The Highland Dallas, Curio Collection by Hilton",
        "url": "https://www.cntraveler.com/hotels/dallas/dallas/the-highland-dallas",
        "category": "Travel",
        "placeName": "Dallas"
      },
      {
        "title": "12 Best Things to Do in Dallas",
        "url": "https://www.cntraveler.com/gallery/best-things-to-do-in-dallas",
        "category": "Things To Do",
        "placeName": "Dallas"
      },
      {
        "title": "9 Best Museums in Dallas",
        "url": "https://www.cntraveler.com/gallery/best-museums-in-dallas",
        "category": "Things To Do",
        "placeName": "Dallas"
      },
      {
        "title": "12 Best Spots for Shopping in Dallas",
        "url": "https://www.cntraveler.com/gallery/best-spots-for-shopping-in-dallas",
        "category": "Shopping",
        "placeName": "Dallas"
      },
      {
        "title": "3 Best Day Trips From Dallas",
        "url": "https://www.cntraveler.com/gallery/best-day-trips-from-dallas",
        "category": "Things To Do",
        "placeName": "Dallas"
      },
      {
        "title": "20 Best Restaurants in Dallas",
        "url": "https://www.cntraveler.com/gallery/best-restaurants-in-dallas",
        "category": "Food & Drink",
        "placeName": "Dallas"
      },
      {
        "title": "15 Best Bars in Dallas",
        "url": "https://www.cntraveler.com/gallery/best-bars-in-dallas",
        "category": "Food & Drink",
        "placeName": "Dallas"
      },
      {
        "title": "8 Best BBQ Places in Dallas",
        "url": "https://www.cntraveler.com/gallery/best-bbq-places-in-dallas",
        "category": "Food & Drink",
        "placeName": "Dallas"
      },
      {
        "title": "9 Best Brunch Spots in Dallas",
        "url": "https://www.cntraveler.com/gallery/best-brunch-spots-in-dallas",
        "category": "Food & Drink",
        "placeName": "Dallas"
      },
      {
        "title": "Dallas Travel Guide",
        "url": "https://www.cntraveler.com/destinations/dallas",
        "category": "Travel",
        "placeName": "Dallas"
      },
      {
        "title": "Anantara The Marker Hotel Dublin",
        "url": "https://www.cntraveler.com/hotels/dublin/anantara-the-marker-hotel-dublin",
        "category": "Travel",
        "placeName": "Dublin"
      },
      {
        "title": "The Morrison Dublin, Curio Collection by Hilton",
        "url": "https://www.cntraveler.com/hotels/dublin/the-morrison-dublin-curio-collection-by-hilton",
        "category": "Travel",
        "placeName": "Dublin"
      },
      {
        "title": "The Westbury",
        "url": "https://www.cntraveler.com/hotels/dublin/the-westbury",
        "category": "Travel",
        "placeName": "Dublin"
      },
      {
        "title": "The Merrion",
        "url": "https://www.cntraveler.com/hotels/dublin/the-merrion",
        "category": "Travel",
        "placeName": "Dublin"
      },
      {
        "title": "Generator Dublin",
        "url": "https://www.cntraveler.com/hotels/dublin/generator-dublin",
        "category": "Travel",
        "placeName": "Dublin"
      },
      {
        "title": "Conrad Dublin",
        "url": "https://www.cntraveler.com/hotels/ireland/dublin/conrad-dublin",
        "category": "Travel",
        "placeName": "Dublin"
      },
      {
        "title": "The Shelbourne, Autograph Collection",
        "url": "https://www.cntraveler.com/hotels/ireland/blackrock-glenomena/shelbourne-hotel-dublin",
        "category": "Travel",
        "placeName": "Dublin"
      },
      {
        "title": "The Cliff Townhouse",
        "url": "https://www.cntraveler.com/hotels/ireland/dublin/the-cliff-townhouse",
        "category": "Travel",
        "placeName": "Dublin"
      },
      {
        "title": "Number 31",
        "url": "https://www.cntraveler.com/hotels/ireland/dublin/number-31",
        "category": "Travel",
        "placeName": "Dublin"
      },
      {
        "title": "Brooks Hotel",
        "url": "https://www.cntraveler.com/hotels/dublin/brooks-hotel",
        "category": "Travel",
        "placeName": "Dublin"
      },
      {
        "title": "Croke Park Hotel",
        "url": "https://www.cntraveler.com/hotels/ireland/dublin/croke-park-hotel",
        "category": "Travel",
        "placeName": "Dublin"
      },
      {
        "title": "16 Best Things to Do in Dublin",
        "url": "https://www.cntraveler.com/gallery/best-things-to-do-in-dublin",
        "category": "Things To Do",
        "placeName": "Dublin"
      },
      {
        "title": "3 Best Day Trips from Dublin",
        "url": "https://www.cntraveler.com/gallery/best-day-trips-from-dublin",
        "category": "Things To Do",
        "placeName": "Dublin"
      },
      {
        "title": "10 Best Places for Live Music in Dublin",
        "url": "https://www.cntraveler.com/gallery/best-places-for-live-music-in-dublin",
        "category": "Music & Nightlife",
        "placeName": "Dublin"
      },
      {
        "title": "10 Best Museums in Dublin You'll Want to Visit",
        "url": "https://www.cntraveler.com/gallery/best-museums-in-dublin",
        "category": "Things To Do",
        "placeName": "Dublin"
      },
      {
        "title": "Three Hours Shopping in Dublin's Creative Quarter",
        "url": "https://www.cntraveler.com/galleries/2014-10-20/three-hours-shopping-in-dublin-s-creative-quarter",
        "category": "Shopping",
        "placeName": "Dublin"
      },
      {
        "title": "10 Best Free Things to Do in Dublin",
        "url": "https://www.cntraveler.com/galleries/2015-02-03/10-best-free-things-to-do-in-dublin",
        "category": "Things To Do",
        "placeName": "Dublin"
      },
      {
        "title": "15 Best Restaurants in Dublin",
        "url": "https://www.cntraveler.com/gallery/best-restaurants-in-dublin",
        "category": "Food & Drink",
        "placeName": "Dublin"
      },
      {
        "title": "11 Best Bars in Dublin",
        "url": "https://www.cntraveler.com/gallery/best-bars-in-dublin",
        "category": "Food & Drink",
        "placeName": "Dublin"
      },
      {
        "title": "7 Best Coffee Shops in Dublin",
        "url": "https://www.cntraveler.com/gallery/best-coffee-shops-in-dublin",
        "category": "Food & Drink",
        "placeName": "Dublin"
      },
      {
        "title": "10 Best Brunch Places in Dublin",
        "url": "https://www.cntraveler.com/gallery/best-brunch-places-in-dublin",
        "category": "Food & Drink",
        "placeName": "Dublin"
      },
      {
        "title": "Dublin Travel Guide",
        "url": "https://www.cntraveler.com/destinations/dublin",
        "category": "Travel",
        "placeName": "Dublin"
      },
      {
        "title": "The Peninsula Hong Kong",
        "url": "https://www.cntraveler.com/hotels/hong-kong/the-peninsula-hong-kong",
        "category": "Travel",
        "placeName": "Hong Kong"
      },
      {
        "title": "Four Seasons Hotel Hong Kong",
        "url": "https://www.cntraveler.com/hotels/hong-kong/four-seasons-hotel-hong-kong",
        "category": "Travel",
        "placeName": "Hong Kong"
      },
      {
        "title": "Rosewood Hong Kong",
        "url": "https://www.cntraveler.com/hotels/hong-kong/rosewood-hong-kong",
        "category": "Travel",
        "placeName": "Hong Kong"
      },
      {
        "title": "InterContinental Grand Stanford Hong Kong",
        "url": "https://www.cntraveler.com/hotels/hong-kong/intercontinental-grand-stanford-hong-kong",
        "category": "Travel",
        "placeName": "Hong Kong"
      },
      {
        "title": "Island Shangri-La, Hong Kong",
        "url": "https://www.cntraveler.com/hotels/hong-kong/island-shangri-la-hong-kong",
        "category": "Travel",
        "placeName": "Hong Kong"
      },
      {
        "title": "The Upper House",
        "url": "https://www.cntraveler.com/hotels/hong-kong/the-upper-house",
        "category": "Travel",
        "placeName": "Hong Kong"
      },
      {
        "title": "W Hong Kong",
        "url": "https://www.cntraveler.com/hotels/hong-kong/w-hong-kong",
        "category": "Travel",
        "placeName": "Hong Kong"
      },
      {
        "title": "Regent Hong Kong",
        "url": "https://www.cntraveler.com/hotels/hong-kong/regent-hong-kong",
        "category": "Travel",
        "placeName": "Hong Kong"
      },
      {
        "title": "The Langham, Hong Kong",
        "url": "https://www.cntraveler.com/hotels/hong-kong/the-langham-hong-kong",
        "category": "Travel",
        "placeName": "Hong Kong"
      },
      {
        "title": "Mandarin Oriental, Hong Kong",
        "url": "https://www.cntraveler.com/hotels/hong-kong-s-a-r-/jordan/mandarin-oriental-hong-kong",
        "category": "Travel",
        "placeName": "Hong Kong"
      },
      {
        "title": "JW Marriott Hotel Hong Kong",
        "url": "https://www.cntraveler.com/hotels/hong-kong-s-a-r-/wan-chai-gap/jw-marriott-hong-kong",
        "category": "Travel",
        "placeName": "Hong Kong"
      },
      {
        "title": "The Landmark Mandarin Oriental, Hong Kong",
        "url": "https://www.cntraveler.com/hotels/hong-kong-s-a-r-/hong-kong/landmark-mandarin-oriental-hong-kong",
        "category": "Travel",
        "placeName": "Hong Kong"
      },
      {
        "title": "Conrad Hong Kong",
        "url": "https://www.cntraveler.com/hotels/china/hong-kong/conrad-hong-kong",
        "category": "Travel",
        "placeName": "Hong Kong"
      },
      {
        "title": "The Ritz-Carlton, Hong Kong",
        "url": "https://www.cntraveler.com/hotels/china/jordan/ritz-carlton-hong-kong",
        "category": "Travel",
        "placeName": "Hong Kong"
      },
      {
        "title": "EAST Hong Kong",
        "url": "https://www.cntraveler.com/hotels/china/hong-kong/east-hong-kong",
        "category": "Travel",
        "placeName": "Hong Kong"
      },
      {
        "title": "24 Best Things to Do in Hong Kong",
        "url": "https://www.cntraveler.com/gallery/best-things-to-do-in-hong-kong",
        "category": "Things To Do",
        "placeName": "Hong Kong"
      },
      {
        "title": "22 Best Shops in Hong Kong",
        "url": "https://www.cntraveler.com/gallery/best-shops-in-hong-kong",
        "category": "Shopping",
        "placeName": "Hong Kong"
      },
      {
        "title": "5 Best Day Trips from Hong Kong",
        "url": "https://www.cntraveler.com/gallery/best-day-trips-from-hong-kong",
        "category": "Things To Do",
        "placeName": "Hong Kong"
      },
      {
        "title": "19 Best Beaches in Hong Kong",
        "url": "https://www.cntraveler.com/gallery/best-beaches-in-hong-kong",
        "category": "Things To Do",
        "placeName": "Hong Kong"
      },
      {
        "title": "10 Best Markets in Hong Kong",
        "url": "https://www.cntraveler.com/gallery/best-markets-in-hong-kong",
        "category": "Shopping",
        "placeName": "Hong Kong"
      },
      {
        "title": "30 Best Restaurants in Hong Kong",
        "url": "https://www.cntraveler.com/gallery/best-restaurants-in-hong-kong",
        "category": "Food & Drink",
        "placeName": "Hong Kong"
      },
      {
        "title": "20 Best Bars in Hong Kong",
        "url": "https://www.cntraveler.com/gallery/best-bars-in-hong-kong",
        "category": "Food & Drink",
        "placeName": "Hong Kong"
      },
      {
        "title": "19 Best Dim Sum in Hong Kong",
        "url": "https://www.cntraveler.com/gallery/best-dim-sum-in-hong-kong",
        "category": "Food & Drink",
        "placeName": "Hong Kong"
      },
      {
        "title": "19 Best Hotel Brunch Buffets in Hong Kong",
        "url": "https://www.cntraveler.com/gallery/best-hotel-brunch-buffets-in-hong-kong",
        "category": "Food & Drink",
        "placeName": "Hong Kong"
      },
      {
        "title": "Hong Kong Travel Guide",
        "url": "https://www.cntraveler.com/destinations/hong-kong",
        "category": "Travel",
        "placeName": "Hong Kong"
      },
      {
        "title": "Eden House",
        "url": "https://www.cntraveler.com/hotels/eden-house-key-west/eden-house-key-west",
        "category": "Travel",
        "placeName": "Key West"
      },
      {
        "title": "Casa Marina Key West, Curio Collection by Hilton",
        "url": "https://www.cntraveler.com/hotels/key-west/casa-marina-key-west-curio-collection-by-hilton",
        "category": "Travel",
        "placeName": "Key West"
      },
      {
        "title": "Hyatt Centric Key West Resort & Spa",
        "url": "https://www.cntraveler.com/hotels/united-states/key-west/hyatt-key-west-resort-and-spa",
        "category": "Travel",
        "placeName": "Key West"
      },
      {
        "title": "La Concha Key West, Autograph Collection",
        "url": "https://www.cntraveler.com/hotels/key-west/la-concha-key-west-autograph-collection",
        "category": "Travel",
        "placeName": "Key West"
      },
      {
        "title": "Sunset Key Cottages",
        "url": "https://www.cntraveler.com/hotels/key-w/key-w/sunset-key-guest-cottage-key-west",
        "category": "Travel",
        "placeName": "Key West"
      },
      {
        "title": "Ocean Key Resort & Spa",
        "url": "https://www.cntraveler.com/hotels/united-states/key-w/ocean-key-resort-spa-key-west",
        "category": "Travel",
        "placeName": "Key West"
      },
      {
        "title": "Island House Key West Resort",
        "url": "https://www.cntraveler.com/hotels/key-west/island-house-key-west-resort",
        "category": "Travel",
        "placeName": "Key West"
      },
      {
        "title": "The Perry Hotel & Marina Key West",
        "url": "https://www.cntraveler.com/hotels/the-perry-hotel-key-west",
        "category": "Travel",
        "placeName": "Key West"
      },
      {
        "title": "Oceans Edge Resort & Marina",
        "url": "https://www.cntraveler.com/hotels/key-west/oceans-edge-resort-and-marina",
        "category": "Travel",
        "placeName": "Key West"
      },
      {
        "title": "The Marker Harbor Resort",
        "url": "https://www.cntraveler.com/hotels/key-west/the-marker-waterfront-resort-key-west",
        "category": "Travel",
        "placeName": "Key West"
      },
      {
        "title": "The Marquesa Hotel",
        "url": "https://www.cntraveler.com/hotels/united-states/key-w/marquesa-hotel-key-west",
        "category": "Travel",
        "placeName": "Key West"
      },
      {
        "title": "The Saint Hotel Key West, Autograph Collection",
        "url": "https://www.cntraveler.com/hotels/key-west/the-saint-hotel-key-west-autograph-collection",
        "category": "Travel",
        "placeName": "Key West"
      },
      {
        "title": "Pier House Resort & Spa",
        "url": "https://www.cntraveler.com/hotels/pier-house-resort-and-caribbean-spa/pier-house-resort-and-caribbean-spa",
        "category": "Travel",
        "placeName": "Key West"
      },
      {
        "title": "Southernmost Beach Resort",
        "url": "https://www.cntraveler.com/hotels/key-w/key-w/la-mer-hotel-dewey-house-key-west",
        "category": "Travel",
        "placeName": "Key West"
      },
      {
        "title": "Winslow's Bungalows - Key West Historic Inns",
        "url": "https://www.cntraveler.com/hotels/key-west/kimpton-key-west",
        "category": "Travel",
        "placeName": "Key West"
      },
      {
        "title": "14 Best Things to Do in Key West",
        "url": "https://www.cntraveler.com/gallery/best-things-to-do-in-key-west",
        "category": "Things To Do",
        "placeName": "Key West"
      },
      {
        "title": "10 Best Restaurants in Key West",
        "url": "https://www.cntraveler.com/gallery/best-restaurants-in-key-west",
        "category": "Food & Drink",
        "placeName": "Key West"
      },
      {
        "title": "Key West Travel Guide",
        "url": "https://www.cntraveler.com/destinations/key-west",
        "category": "Travel",
        "placeName": "Key West"
      },
      {
        "title": "W Hollywood",
        "url": "https://www.cntraveler.com/hotels/los-angeles/w-hollywood",
        "category": "Travel",
        "placeName": "Los Angeles"
      },
      {
        "title": "Whisky Hotel",
        "url": "https://www.cntraveler.com/hotels/los-angeles/whisky-hotel",
        "category": "Travel",
        "placeName": "Los Angeles"
      },
      {
        "title": "Los Angeles Athletic Club",
        "url": "https://www.cntraveler.com/hotels/los-angeles/los-angeles-athletic-club",
        "category": "Travel",
        "placeName": "Los Angeles"
      },
      {
        "title": "Hotel Figueroa - The Unbound Collection by Hyatt",
        "url": "https://www.cntraveler.com/hotels/los-angeles/hotel-figueroa",
        "category": "Travel",
        "placeName": "Los Angeles"
      },
      {
        "title": "Hollywood Volume",
        "url": "https://www.cntraveler.com/hotels/los-angeles/tommie-hollywood",
        "category": "Travel",
        "placeName": "Los Angeles"
      },
      {
        "title": "Chateau Marmont",
        "url": "https://www.cntraveler.com/hotels/los-angeles/chateau-marmont",
        "category": "Travel",
        "placeName": "Los Angeles"
      },
      {
        "title": "SLS Hotel, a Luxury Collection Hotel, Beverly Hills",
        "url": "https://www.cntraveler.com/hotels/los-angeles/sls-hotel-a-luxury-collection-hotel-beverly-hills",
        "category": "Travel",
        "placeName": "Los Angeles"
      },
      {
        "title": "Waldorf Astoria Beverly Hills",
        "url": "https://www.cntraveler.com/hotels/los-angeles/waldorf-astoria-beverly-hills",
        "category": "Travel",
        "placeName": "Los Angeles"
      },
      {
        "title": "Four Seasons Hotel Los Angeles at Beverly Hills",
        "url": "https://www.cntraveler.com/hotels/los-angeles/four-seasons-hotel-los-angeles-at-beverly-hills",
        "category": "Travel",
        "placeName": "Los Angeles"
      },
      {
        "title": "Palihotel Hollywood",
        "url": "https://www.cntraveler.com/hotels/los-angeles/palihotel-hollywood",
        "category": "Travel",
        "placeName": "Los Angeles"
      },
      {
        "title": "Petit Ermitage",
        "url": "https://www.cntraveler.com/hotels/los-angeles/petit-ermitage",
        "category": "Travel",
        "placeName": "Los Angeles"
      },
      {
        "title": "Hotel Bel-Air, Dorchester Collection",
        "url": "https://www.cntraveler.com/hotels/los-angeles/hotel-bel-air-dorchester-collection",
        "category": "Travel",
        "placeName": "Los Angeles"
      },
      {
        "title": "The Beverly Hills Hotel, Dorchester Collection",
        "url": "https://www.cntraveler.com/hotels/los-angeles/the-beverly-hills-hotel-dorchester-collection",
        "category": "Travel",
        "placeName": "Los Angeles"
      },
      {
        "title": "Sofitel Los Angeles at Beverly Hills",
        "url": "https://www.cntraveler.com/hotels/los-angeles/sofitel-los-angeles-at-beverly-hills",
        "category": "Travel",
        "placeName": "Los Angeles"
      },
      {
        "title": "19 Best Things to Do in Los Angeles",
        "url": "https://www.cntraveler.com/gallery/best-things-to-do-in-los-angeles",
        "category": "Things To Do",
        "placeName": "Los Angeles"
      },
      {
        "title": "16 Best Beaches in Los Angeles",
        "url": "https://www.cntraveler.com/gallery/13-best-beaches-in-los-angeles",
        "category": "Things To Do",
        "placeName": "Los Angeles"
      },
      {
        "title": "13 Best Hikes in Los Angeles",
        "url": "https://www.cntraveler.com/gallery/best-hikes-in-los-angeles",
        "category": "Things To Do",
        "placeName": "Los Angeles"
      },
      {
        "title": "11 Things to Do in Koreatown, Los Angeles: The Neighborhood Guide",
        "url": "https://www.cntraveler.com/gallery/best-things-to-do-in-koreatown-los-angeles",
        "category": "Things To Do",
        "placeName": "Los Angeles"
      },
      {
        "title": "6 Best Day Trips from Los Angeles",
        "url": "https://www.cntraveler.com/gallery/best-day-trips-from-los-angeles",
        "category": "Things To Do",
        "placeName": "Los Angeles"
      },
      {
        "title": "10 Fun, Easy Things to Do in Los Angeles With Kids",
        "url": "https://www.cntraveler.com/gallery/best-things-to-do-in-los-angeles-with-kids",
        "category": "Things To Do",
        "placeName": "Los Angeles"
      },
      {
        "title": "46 Best Restaurants in Los Angeles",
        "url": "https://www.cntraveler.com/gallery/best-restaurants-in-los-angeles",
        "category": "Food & Drink",
        "placeName": "Los Angeles"
      },
      {
        "title": "24 Best Bars in Los Angeles",
        "url": "https://www.cntraveler.com/gallery/20-best-bars-in-los-angeles",
        "category": "Food & Drink",
        "placeName": "Los Angeles"
      },
      {
        "title": "16 Best Brunches in Los Angeles",
        "url": "https://www.cntraveler.com/gallery/best-brunches-in-los-angeles",
        "category": "Food & Drink",
        "placeName": "Los Angeles"
      },
      {
        "title": "18 Best Sushi Restaurants in Los Angeles",
        "url": "https://www.cntraveler.com/gallery/best-sushi-restaurants-in-los-angeles",
        "category": "Food & Drink",
        "placeName": "Los Angeles"
      },
      {
        "title": "14 Best Mexican Restaurants in Los Angeles",
        "url": "https://www.cntraveler.com/gallery/best-mexican-restaurants-in-los-angeles",
        "category": "Food & Drink",
        "placeName": "Los Angeles"
      },
      {
        "title": "Los Angeles Travel Guide",
        "url": "https://www.cntraveler.com/destinations/los-angeles",
        "category": "Travel",
        "placeName": "Los Angeles"
      },
      {
        "title": "36 Best Hotels in Los Angeles",
        "url": "https://www.cntraveler.com/gallery/best-hotels-in-los-angeles",
        "category": "Travel",
        "placeName": "Los Angeles"
      },
      {
        "title": "Hyde Melbourne Place",
        "url": "https://www.cntraveler.com/hotels/melbourne/hyde-melbourne-place",
        "category": "Travel",
        "placeName": "Melbourne"
      },
      {
        "title": "The Ritz-Carlton, Melbourne",
        "url": "https://www.cntraveler.com/hotels/melbourne/the-ritz-carlton-melbourne",
        "category": "Travel",
        "placeName": "Melbourne"
      },
      {
        "title": "The Langham, Melbourne",
        "url": "https://www.cntraveler.com/hotels/australia/melbourne/the-langham-melbourne",
        "category": "Travel",
        "placeName": "Melbourne"
      },
      {
        "title": "The Westin Melbourne",
        "url": "https://www.cntraveler.com/hotels/melbourne/the-westin-melbourne",
        "category": "Travel",
        "placeName": "Melbourne"
      },
      {
        "title": "Lancemore Mansion Hotel Werribee Park",
        "url": "https://www.cntraveler.com/hotels/australia/melbourne/mansion-hotel-spa-at-werribee-park",
        "category": "Travel",
        "placeName": "Melbourne"
      },
      {
        "title": "Grand Hyatt Melbourne",
        "url": "https://www.cntraveler.com/hotels/australia/melbourne/grand-hyatt-melbourne",
        "category": "Travel",
        "placeName": "Melbourne"
      },
      {
        "title": "13 Best Things to Do in Melbourne",
        "url": "https://www.cntraveler.com/gallery/best-things-to-do-in-melbourne",
        "category": "Things To Do",
        "placeName": "Melbourne"
      },
      {
        "title": "10 Best Museums in Melbourne",
        "url": "https://www.cntraveler.com/gallery/best-museums-in-melbourne",
        "category": "Things To Do",
        "placeName": "Melbourne"
      },
      {
        "title": "3 Best Day Trips from Melbourne",
        "url": "https://www.cntraveler.com/gallery/best-day-trips-from-melbourne",
        "category": "Things To Do",
        "placeName": "Melbourne"
      },
      {
        "title": "10 Best Coffee Shops in Melbourne",
        "url": "https://www.cntraveler.com/gallery/best-coffee-shops-in-melbourne",
        "category": "Food & Drink",
        "placeName": "Melbourne"
      },
      {
        "title": "10 Best Venues & Places for Live Music in Melbourne",
        "url": "https://www.cntraveler.com/gallery/best-places-for-live-music-in-melbourne",
        "category": "Music & Nightlife",
        "placeName": "Melbourne"
      },
      {
        "title": "20 Best Restaurants in Melbourne",
        "url": "https://www.cntraveler.com/gallery/best-restaurants-in-melbourne",
        "category": "Food & Drink",
        "placeName": "Melbourne"
      },
      {
        "title": "15 Best Bars in Melbourne",
        "url": "https://www.cntraveler.com/gallery/best-bars-in-melbourne",
        "category": "Food & Drink",
        "placeName": "Melbourne"
      },
      {
        "title": "11 Best Brunch Spots in Melbourne",
        "url": "https://www.cntraveler.com/gallery/best-brunch-spots-in-melbourne",
        "category": "Food & Drink",
        "placeName": "Melbourne"
      },
      {
        "title": "Melbourne Travel Guide",
        "url": "https://www.cntraveler.com/destinations/melbourne",
        "category": "Travel",
        "placeName": "Melbourne"
      },
      {
        "title": "Casa Seis Siete",
        "url": "https://www.cntraveler.com/hotels/mexico-city/casa-seis-siete",
        "category": "Travel",
        "placeName": "Mexico City"
      },
      {
        "title": "Hotel Dama",
        "url": "https://www.cntraveler.com/hotels/mexico-city/hotel-dama",
        "category": "Travel",
        "placeName": "Mexico City"
      },
      {
        "title": "Soho House Mexico City",
        "url": "https://www.cntraveler.com/hotels/cuauhtemoc/soho-house-mexico-city",
        "category": "Travel",
        "placeName": "Mexico City"
      },
      {
        "title": "Casa Cuenca",
        "url": "https://www.cntraveler.com/hotels/mexico-city/casa-cuenca",
        "category": "Travel",
        "placeName": "Mexico City"
      },
      {
        "title": "Casona Roma Norte",
        "url": "https://www.cntraveler.com/hotels/mexico-city/casona-roma-norte",
        "category": "Travel",
        "placeName": "Mexico City"
      },
      {
        "title": "Hotel San Fernando",
        "url": "https://www.cntraveler.com/hotels/mexico-city/hotel-san-fernando",
        "category": "Travel",
        "placeName": "Mexico City"
      },
      {
        "title": "Campos Polanco",
        "url": "https://www.cntraveler.com/hotels/mexico-city/campos-polanco",
        "category": "Travel",
        "placeName": "Mexico City"
      },
      {
        "title": "Las Alcobas, a Luxury Collection Hotel, Mexico City",
        "url": "https://www.cntraveler.com/hotels/mexico-city/las-alcobas-a-luxury-collection-hotel-mexico-city",
        "category": "Travel",
        "placeName": "Mexico City"
      },
      {
        "title": "The St. Regis Mexico City",
        "url": "https://www.cntraveler.com/hotels/mexico-city/the-st-regis-mexico-city",
        "category": "Travel",
        "placeName": "Mexico City"
      },
      {
        "title": "W Mexico City",
        "url": "https://www.cntraveler.com/hotels/mexico-city/w-mexico-city",
        "category": "Travel",
        "placeName": "Mexico City"
      },
      {
        "title": "Colima 71",
        "url": "https://www.cntraveler.com/hotels/mexico-city/colima-71",
        "category": "Travel",
        "placeName": "Mexico City"
      },
      {
        "title": "Volga",
        "url": "https://www.cntraveler.com/hotels/mexico-city/volga",
        "category": "Travel",
        "placeName": "Mexico City"
      },
      {
        "title": "Casa Polanco",
        "url": "https://www.cntraveler.com/hotels/mexico-city/casa-polanco",
        "category": "Travel",
        "placeName": "Mexico City"
      },
      {
        "title": "Mondrian Mexico City Condesa",
        "url": "https://www.cntraveler.com/hotels/mexico-city/mondrian-mexico-city-condesa",
        "category": "Travel",
        "placeName": "Mexico City"
      },
      {
        "title": "Umbral, Curio Collection by Hilton",
        "url": "https://www.cntraveler.com/hotels/mexico-city/umbral-curio-collection-by-hilton",
        "category": "Travel",
        "placeName": "Mexico City"
      },
      {
        "title": "25 Best Things to Do in Mexico City",
        "url": "https://www.cntraveler.com/gallery/best-things-to-do-in-mexico-city",
        "category": "Things To Do",
        "placeName": "Mexico City"
      },
      {
        "title": "20 Best Museums in Mexico City",
        "url": "https://www.cntraveler.com/gallery/best-museums-in-mexico-city",
        "category": "Things To Do",
        "placeName": "Mexico City"
      },
      {
        "title": "13 Best Markets in Mexico City",
        "url": "https://www.cntraveler.com/gallery/best-markets-in-mexico-city",
        "category": "Shopping",
        "placeName": "Mexico City"
      },
      {
        "title": "What To Do in Polanco, Mexico City: Our Guide",
        "url": "https://www.cntraveler.com/gallery/what-to-do-in-polanco-mexico-city-our-guide",
        "category": "Things To Do",
        "placeName": "Mexico City"
      },
      {
        "title": "5 Best Day Trips from Mexico City",
        "url": "https://www.cntraveler.com/gallery/best-day-trips-from-mexico-city",
        "category": "Things To Do",
        "placeName": "Mexico City"
      },
      {
        "title": "28 Best Restaurants in Mexico City",
        "url": "https://www.cntraveler.com/gallery/best-restaurants-in-mexico-city",
        "category": "Food & Drink",
        "placeName": "Mexico City"
      },
      {
        "title": "20 Best Bars in Mexico City",
        "url": "https://www.cntraveler.com/gallery/best-bars-in-mexico-city",
        "category": "Food & Drink",
        "placeName": "Mexico City"
      },
      {
        "title": "Mexico City Dance Halls in Photos",
        "url": "https://www.cntraveler.com/gallery/mexico-city-dance-halls-in-photos",
        "category": "Music & Nightlife",
        "placeName": "Mexico City"
      },
      {
        "title": "Mexico City Travel Guide",
        "url": "https://www.cntraveler.com/destinations/mexico-city",
        "category": "Travel",
        "placeName": "Mexico City"
      },
      {
        "title": "26 Best Hotels in Mexico City",
        "url": "https://www.cntraveler.com/gallery/best-hotels-in-mexico-city",
        "category": "Travel",
        "placeName": "Mexico City"
      },
      {
        "title": "What to Do in the Miami Design District: Our Guide",
        "url": "https://www.cntraveler.com/gallery/what-to-do-in-the-miami-design-district",
        "category": "Things To Do",
        "placeName": "Miami"
      },
      {
        "title": "The Best Miami Airbnbs in South Beach, Wynwood, Brickell, and More",
        "url": "https://www.cntraveler.com/gallery/the-best-airbnbs-in-miami",
        "category": "Travel",
        "placeName": "Miami"
      },
      {
        "title": "23 Best Things to Do in Miami",
        "url": "https://www.cntraveler.com/gallery/best-things-to-do-in-miami",
        "category": "Things To Do",
        "placeName": "Miami"
      },
      {
        "title": "3 Best Day Trips from Miami",
        "url": "https://www.cntraveler.com/gallery/best-day-trips-from-miami",
        "category": "Things To Do",
        "placeName": "Miami"
      },
      {
        "title": "11 Best Museums in Miami",
        "url": "https://www.cntraveler.com/gallery/best-museums-in-miami",
        "category": "Things To Do",
        "placeName": "Miami"
      },
      {
        "title": "10 Best Places for Cuban Food in Miami",
        "url": "https://www.cntraveler.com/gallery/best-cuban-food-in-miami",
        "category": "Food & Drink",
        "placeName": "Miami"
      },
      {
        "title": "12 Best Brunches in Miami",
        "url": "https://www.cntraveler.com/gallery/best-brunches-in-miami",
        "category": "Food & Drink",
        "placeName": "Miami"
      },
      {
        "title": "18 Best Bars in Miami",
        "url": "https://www.cntraveler.com/gallery/best-bars-in-miami",
        "category": "Food & Drink",
        "placeName": "Miami"
      },
      {
        "title": "23 Best Restaurants in Miami",
        "url": "https://www.cntraveler.com/gallery/best-restaurants-in-miami",
        "category": "Food & Drink",
        "placeName": "Miami"
      },
      {
        "title": "The 10 Best Rooftop Bars in Miami",
        "url": "https://www.cntraveler.com/galleries/2012-01-19/miami-rooftop-bars",
        "category": "Food & Drink",
        "placeName": "Miami"
      },
      {
        "title": "Miami Travel Guide",
        "url": "https://www.cntraveler.com/destinations/miami",
        "category": "Travel",
        "placeName": "Miami"
      },
      {
        "title": "Warwick Le Crystal",
        "url": "https://www.cntraveler.com/hotels/montreal/warwick-le-crystal",
        "category": "Travel",
        "placeName": "Montreal"
      },
      {
        "title": "Hotel Honeyrose Montréal, a Tribute Portfolio Hotel",
        "url": "https://www.cntraveler.com/hotels/montreal/hotel-honeyrose-montreal-a-tribute-portfolio-hotel",
        "category": "Travel",
        "placeName": "Montreal"
      },
      {
        "title": "Auberge du Vieux-Port",
        "url": "https://www.cntraveler.com/hotels/montreal/auberge-du-vieux-port",
        "category": "Travel",
        "placeName": "Montreal"
      },
      {
        "title": "Humaniti Hotel Montréal, Autograph Collection",
        "url": "https://www.cntraveler.com/hotels/montreal/humaniti-hotel-montreal-autograph-collection",
        "category": "Travel",
        "placeName": "Montreal"
      },
      {
        "title": "Le Germain Hotel Montréal",
        "url": "https://www.cntraveler.com/hotels/montreal/le-germain-hotel-montreal",
        "category": "Travel",
        "placeName": "Montreal"
      },
      {
        "title": "Hôtel William Gray",
        "url": "https://www.cntraveler.com/hotels/montreal/hotel-william-gray",
        "category": "Travel",
        "placeName": "Montreal"
      },
      {
        "title": "Four Seasons Hotel Montreal",
        "url": "https://www.cntraveler.com/hotels/montreal/four-seasons-hotel-montreal",
        "category": "Travel",
        "placeName": "Montreal"
      },
      {
        "title": "Hôtel Place d'Armes",
        "url": "https://www.cntraveler.com/hotels/canada/montreal/le-place-d-armes-hotel-suites-montreal",
        "category": "Travel",
        "placeName": "Montreal"
      },
      {
        "title": "Hôtel Nelligan",
        "url": "https://www.cntraveler.com/hotels/canada/montreal/hotel-nelligan-montreal",
        "category": "Travel",
        "placeName": "Montreal"
      },
      {
        "title": "Vogue Hotel Montreal Downtown, Curio Collection by Hilton",
        "url": "https://www.cntraveler.com/hotels/montreal/vogue-hotel-montreal-downtown-curio-collection-by-hilton",
        "category": "Travel",
        "placeName": "Montreal"
      },
      {
        "title": "W Montréal",
        "url": "https://www.cntraveler.com/hotels/canada/montreal/w-montreal-montreal",
        "category": "Travel",
        "placeName": "Montreal"
      },
      {
        "title": "The Ritz-Carlton, Montréal",
        "url": "https://www.cntraveler.com/hotels/canada/montreal/ritz-carlton-montreal",
        "category": "Travel",
        "placeName": "Montreal"
      },
      {
        "title": "Fairmont The Queen Elizabeth",
        "url": "https://www.cntraveler.com/hotels/canada/montreal/fairmont-the-queen-elizabeth",
        "category": "Travel",
        "placeName": "Montreal"
      },
      {
        "title": "16 Best Things to Do in Montreal",
        "url": "https://www.cntraveler.com/gallery/best-things-to-do-in-montreal",
        "category": "Things To Do",
        "placeName": "Montreal"
      },
      {
        "title": "3 Best Day Trips From Montreal",
        "url": "https://www.cntraveler.com/gallery/best-day-trips-from-montreal",
        "category": "Things To Do",
        "placeName": "Montreal"
      },
      {
        "title": "10 Best Museums in Montreal",
        "url": "https://www.cntraveler.com/gallery/best-museums-in-montreal",
        "category": "Things To Do",
        "placeName": "Montreal"
      },
      {
        "title": "Shopping in Montreal Is Better than Ever",
        "url": "https://www.cntraveler.com/galleries/2014-10-07/shopping-in-montreal-is-better-than-ever",
        "category": "Shopping",
        "placeName": "Montreal"
      },
      {
        "title": "22 Best Restaurants in Montreal",
        "url": "https://www.cntraveler.com/gallery/best-restaurants-in-montreal",
        "category": "Food & Drink",
        "placeName": "Montreal"
      },
      {
        "title": "15 Best Bars in Montreal",
        "url": "https://www.cntraveler.com/gallery/best-bars-in-montreal",
        "category": "Food & Drink",
        "placeName": "Montreal"
      },
      {
        "title": "10 Places for the Best Poutine in Montréal",
        "url": "https://www.cntraveler.com/gallery/the-best-poutine-in-montreal",
        "category": "Food & Drink",
        "placeName": "Montreal"
      },
      {
        "title": "10 Best Coffee Spots in Montreal",
        "url": "https://www.cntraveler.com/gallery/best-coffee-spots-in-montreal",
        "category": "Food & Drink",
        "placeName": "Montreal"
      },
      {
        "title": "10 Best Brunches in Montreal",
        "url": "https://www.cntraveler.com/gallery/best-brunches-in-montreal",
        "category": "Food & Drink",
        "placeName": "Montreal"
      },
      {
        "title": "Montreal Travel Guide",
        "url": "https://www.cntraveler.com/destinations/montreal",
        "category": "Travel",
        "placeName": "Montreal"
      },
      {
        "title": "The Westin Nashville",
        "url": "https://www.cntraveler.com/hotels/nashville/the-westin-nashville",
        "category": "Travel",
        "placeName": "Nashville"
      },
      {
        "title": "The Hermitage Hotel",
        "url": "https://www.cntraveler.com/hotels/nashville/the-hermitage-hotel",
        "category": "Travel",
        "placeName": "Nashville"
      },
      {
        "title": "W Nashville",
        "url": "https://www.cntraveler.com/hotels/nashville/w-nashville",
        "category": "Travel",
        "placeName": "Nashville"
      },
      {
        "title": "Virgin Hotels Nashville",
        "url": "https://www.cntraveler.com/hotels/nashville/virgin-hotels-nashville",
        "category": "Travel",
        "placeName": "Nashville"
      },
      {
        "title": "Bobby Hotel",
        "url": "https://www.cntraveler.com/hotels/nashville/bobby-hotel",
        "category": "Travel",
        "placeName": "Nashville"
      },
      {
        "title": "Hutton Hotel",
        "url": "https://www.cntraveler.com/hotels/nashville/hutton-hotel",
        "category": "Travel",
        "placeName": "Nashville"
      },
      {
        "title": "Kimpton Aertson Hotel",
        "url": "https://www.cntraveler.com/hotels/nashville/kimpton-aertson-hotel",
        "category": "Travel",
        "placeName": "Nashville"
      },
      {
        "title": "Conrad Nashville",
        "url": "https://www.cntraveler.com/hotels/nashville/conrad-nashville",
        "category": "Travel",
        "placeName": "Nashville"
      },
      {
        "title": "Thompson Nashville",
        "url": "https://www.cntraveler.com/hotels/nashville/thompson-nashville",
        "category": "Travel",
        "placeName": "Nashville"
      },
      {
        "title": "Holston House Nashville, The Unbound Collection by Hyatt",
        "url": "https://www.cntraveler.com/hotels/nashville/holston-house-nashville-the-unbound-collection-by-hyatt",
        "category": "Travel",
        "placeName": "Nashville"
      },
      {
        "title": "The Joseph, a Luxury Collection Hotel, Nashville",
        "url": "https://www.cntraveler.com/hotels/nashville/the-joseph-a-luxury-collection-hotel",
        "category": "Travel",
        "placeName": "Nashville"
      },
      {
        "title": "The Union Station Nashville Yards, Autograph Collection",
        "url": "https://www.cntraveler.com/hotels/nashville/union-station-hotel",
        "category": "Travel",
        "placeName": "Nashville"
      },
      {
        "title": "1 Hotel Nashville",
        "url": "https://www.cntraveler.com/hotels/nashville/1-hotel-nashville",
        "category": "Travel",
        "placeName": "Nashville"
      },
      {
        "title": "21c Museum Hotel Nashville",
        "url": "https://www.cntraveler.com/hotels/nashville/21c-museum-hotel-nashville",
        "category": "Travel",
        "placeName": "Nashville"
      },
      {
        "title": "Southall Farm & Inn",
        "url": "https://www.cntraveler.com/hotels/franklin/southall-farm-and-inn",
        "category": "Travel",
        "placeName": "Nashville"
      },
      {
        "title": "13 Best Things to Do in Nashville",
        "url": "https://www.cntraveler.com/gallery/best-things-to-do-in-nashville",
        "category": "Things To Do",
        "placeName": "Nashville"
      },
      {
        "title": "11 Best Shops in Nashville",
        "url": "https://www.cntraveler.com/gallery/best-shops-in-nashville",
        "category": "Shopping",
        "placeName": "Nashville"
      },
      {
        "title": "12 Best Places for Live Music in Nashville",
        "url": "https://www.cntraveler.com/gallery/best-live-music-venues-in-nashville",
        "category": "Music & Nightlife",
        "placeName": "Nashville"
      },
      {
        "title": "3 Best Day Trips from Nashville",
        "url": "https://www.cntraveler.com/gallery/best-day-trips-from-nashville",
        "category": "Things To Do",
        "placeName": "Nashville"
      },
      {
        "title": "21 Best Restaurants in Nashville",
        "url": "https://www.cntraveler.com/gallery/best-restaurants-in-nashville",
        "category": "Food & Drink",
        "placeName": "Nashville"
      },
      {
        "title": "9 Best BBQ Places in Nashville",
        "url": "https://www.cntraveler.com/gallery/best-bbq-places-in-nashville",
        "category": "Food & Drink",
        "placeName": "Nashville"
      },
      {
        "title": "14 Best Bars in Nashville",
        "url": "https://www.cntraveler.com/gallery/best-bars-in-nashville",
        "category": "Food & Drink",
        "placeName": "Nashville"
      },
      {
        "title": "10 Best Places for Brunch in Nashville",
        "url": "https://www.cntraveler.com/gallery/best-places-for-brunch-in-nashville",
        "category": "Food & Drink",
        "placeName": "Nashville"
      },
      {
        "title": "10 Best Places for Hot Chicken in Nashville",
        "url": "https://www.cntraveler.com/gallery/best-places-for-hot-chicken-in-nashville",
        "category": "Food & Drink",
        "placeName": "Nashville"
      },
      {
        "title": "The 19 Best Hotels in Nashville",
        "url": "https://www.cntraveler.com/gallery/best-hotels-in-nashville",
        "category": "Travel",
        "placeName": "Nashville"
      },
      {
        "title": "Nashville",
        "url": "https://www.cntraveler.com/destinations/nashville",
        "category": "Travel",
        "placeName": "Nashville"
      },
      {
        "title": "Hyatt Regency Grand Cypress",
        "url": "https://www.cntraveler.com/hotels/united-states/orlando/hyatt-regency-grand-cypress-orlando",
        "category": "Travel",
        "placeName": "Orlando"
      },
      {
        "title": "The Ritz-Carlton, Orlando Grande Lakes",
        "url": "https://www.cntraveler.com/hotels/united-states/orlando/ritz-carlton-orlando-grande-lakes",
        "category": "Travel",
        "placeName": "Orlando"
      },
      {
        "title": "Four Seasons Resort Orlando at Walt Disney World Resort",
        "url": "https://www.cntraveler.com/hotels/orlando/four-seasons-orlando-at-walt-disney-world-resort",
        "category": "Travel",
        "placeName": "Orlando"
      },
      {
        "title": "JW Marriott Orlando, Grande Lakes",
        "url": "https://www.cntraveler.com/hotels/orlando/jw-marriott-orlando-grande-lakes",
        "category": "Travel",
        "placeName": "Orlando"
      },
      {
        "title": "Waldorf Astoria Orlando",
        "url": "https://www.cntraveler.com/hotels/united-states/united-states/orlando/waldorf-astoria-orlando",
        "category": "Travel",
        "placeName": "Orlando"
      },
      {
        "title": "Conrad Orlando",
        "url": "https://www.cntraveler.com/hotels/orlando/conrad-orlando",
        "category": "Travel",
        "placeName": "Orlando"
      },
      {
        "title": "Lake Nona Wave Hotel",
        "url": "https://www.cntraveler.com/hotels/orlando/lake-nona-wave-hotel",
        "category": "Travel",
        "placeName": "Orlando"
      },
      {
        "title": "Disney's Beach Club Resort",
        "url": "https://www.cntraveler.com/hotels/orlando/orlando/disneys-beach-club-resort",
        "category": "Travel",
        "placeName": "Orlando"
      },
      {
        "title": "Disney's Wilderness Lodge",
        "url": "https://www.cntraveler.com/hotels/united-states/united-states/orlando/disney-s-wilderness-lodge-lake-buena-vista",
        "category": "Travel",
        "placeName": "Orlando"
      },
      {
        "title": "Disney's Contemporary Resort",
        "url": "https://www.cntraveler.com/hotels/united-states/lake-buena-vista/disney-s-contemporary-resort",
        "category": "Travel",
        "placeName": "Orlando"
      },
      {
        "title": "Wyndham Bonnet Creek Resort",
        "url": "https://www.cntraveler.com/hotels/orlando/wyndham-bonnet-creek-resort",
        "category": "Travel",
        "placeName": "Orlando"
      },
      {
        "title": "Walt Disney World Swan and Dolphin Resort",
        "url": "https://www.cntraveler.com/hotels/united-states/united-states/lake-buena-vista/walt-disney-world-swan-and-dolphin-resort",
        "category": "Travel",
        "placeName": "Orlando"
      },
      {
        "title": "Grand Bohemian Hotel Orlando, Autograph Collection",
        "url": "https://www.cntraveler.com/hotels/united-states/orlando/grand-bohemian-orlando",
        "category": "Travel",
        "placeName": "Orlando"
      },
      {
        "title": "Loews Royal Pacific Resort at Universal Orlando",
        "url": "https://www.cntraveler.com/hotels/united-states/orlando/loews-royal-pacific-resort-at-universal-orlando",
        "category": "Travel",
        "placeName": "Orlando"
      },
      {
        "title": "Disney’s Animal Kingdom Lodge",
        "url": "https://www.cntraveler.com/hotels/united-states/united-states/kissimmee/disney-s-animal-kingdom-lodge-buena-vista",
        "category": "Travel",
        "placeName": "Orlando"
      },
      {
        "title": "The Best Things to Do at Disney World",
        "url": "https://www.cntraveler.com/gallery/the-best-things-to-do-at-disney-world",
        "category": "Things To Do",
        "placeName": "Orlando"
      },
      {
        "title": "15 Best Things to Do in Orlando (Beyond The Theme Parks)",
        "url": "https://www.cntraveler.com/gallery/best-things-to-do-in-orlando",
        "category": "Things To Do",
        "placeName": "Orlando"
      },
      {
        "title": "3 Best Day Trips from Orlando",
        "url": "https://www.cntraveler.com/gallery/best-day-trips-from-orlando-florida",
        "category": "Things To Do",
        "placeName": "Orlando"
      },
      {
        "title": "9 Things Everyone Should Do at SeaWorld Orlando",
        "url": "https://www.cntraveler.com/story/how-to-plan-a-trip-to-seaworld-orlando",
        "category": "Things To Do",
        "placeName": "Orlando"
      },
      {
        "title": "10 Universal Orlando Resort Attractions You Can't Miss",
        "url": "https://www.cntraveler.com/gallery/best-universal-orlando-resort-attractions",
        "category": "Things To Do",
        "placeName": "Orlando"
      },
      {
        "title": "21 Best Restaurants in Orlando, Florida",
        "url": "https://www.cntraveler.com/gallery/best-restaurants-in-orlando-florida",
        "category": "Food & Drink",
        "placeName": "Orlando"
      },
      {
        "title": "15 Best Bars in Orlando, Florida",
        "url": "https://www.cntraveler.com/gallery/best-bars-in-orlando-florida",
        "category": "Food & Drink",
        "placeName": "Orlando"
      },
      {
        "title": "Orlando",
        "url": "https://www.cntraveler.com/destinations/orlando",
        "category": "Travel",
        "placeName": "Orlando"
      },
      {
        "title": "Yowie",
        "url": "https://www.cntraveler.com/hotels/philadelphia/yowie",
        "category": "Travel",
        "placeName": "Philadelphia"
      },
      {
        "title": "W Philadelphia",
        "url": "https://www.cntraveler.com/hotels/philadelphia/w-philadelphia",
        "category": "Travel",
        "placeName": "Philadelphia"
      },
      {
        "title": "The Bellevue Hotel",
        "url": "https://www.cntraveler.com/hotels/philadelphia/hyatt-at-the-bellevue",
        "category": "Travel",
        "placeName": "Philadelphia"
      },
      {
        "title": "Anna & Bel",
        "url": "https://www.cntraveler.com/hotels/philadelphia/anna-and-bel",
        "category": "Travel",
        "placeName": "Philadelphia"
      },
      {
        "title": "Sofitel Philadelphia at Rittenhouse Square",
        "url": "https://www.cntraveler.com/hotels/philadelphia/sofitel-philadelphia-at-rittenhouse-square",
        "category": "Travel",
        "placeName": "Philadelphia"
      },
      {
        "title": "The Rittenhouse",
        "url": "https://www.cntraveler.com/hotels/philadelphia/the-rittenhouse",
        "category": "Travel",
        "placeName": "Philadelphia"
      },
      {
        "title": "The Logan Philadelphia, Curio Collection by Hilton",
        "url": "https://www.cntraveler.com/hotels/philadelphia/the-logan-philadelphia-curio-collection-by-hilton",
        "category": "Travel",
        "placeName": "Philadelphia"
      },
      {
        "title": "Kimpton Hotel Monaco Philadelphia",
        "url": "https://www.cntraveler.com/hotels/philadelphia/kimpton-hotel-monaco-philadelphia",
        "category": "Travel",
        "placeName": "Philadelphia"
      },
      {
        "title": "The Warwick Hotel Rittenhouse Square",
        "url": "https://www.cntraveler.com/hotels/united-states/philadelphia/radisson-blu-warwick-hotel",
        "category": "Travel",
        "placeName": "Philadelphia"
      },
      {
        "title": "Four Seasons Hotel Philadelphia at Comcast Center",
        "url": "https://www.cntraveler.com/hotels/philadelphia/four-seasons-hotel-philadelphia-at-comcast-center",
        "category": "Travel",
        "placeName": "Philadelphia"
      },
      {
        "title": "Guild House Hotel",
        "url": "https://www.cntraveler.com/hotels/philadelphia/guild-house-hotel",
        "category": "Travel",
        "placeName": "Philadelphia"
      },
      {
        "title": "The Study at University City",
        "url": "https://www.cntraveler.com/hotels/philadelphia/the-study-at-university-city",
        "category": "Travel",
        "placeName": "Philadelphia"
      },
      {
        "title": "21 Best Things to Do in Philadelphia",
        "url": "https://www.cntraveler.com/gallery/best-things-to-do-in-philadelphia",
        "category": "Things To Do",
        "placeName": "Philadelphia"
      },
      {
        "title": "15 Best Museums in Philadelphia",
        "url": "https://www.cntraveler.com/gallery/best-museums-in-philadelphia",
        "category": "Things To Do",
        "placeName": "Philadelphia"
      },
      {
        "title": "10 Best Tours in Philadelphia",
        "url": "https://www.cntraveler.com/gallery/best-tours-in-philadelphia",
        "category": "Things To Do",
        "placeName": "Philadelphia"
      },
      {
        "title": "4 Best Day Trips from Philadelphia",
        "url": "https://www.cntraveler.com/gallery/best-day-trips-from-philadelphia",
        "category": "Things To Do",
        "placeName": "Philadelphia"
      },
      {
        "title": "19 Best Restaurants in Philadelphia",
        "url": "https://www.cntraveler.com/gallery/best-restaurants-in-philadelphia",
        "category": "Food & Drink",
        "placeName": "Philadelphia"
      },
      {
        "title": "15 Best Bars in Philadelphia",
        "url": "https://www.cntraveler.com/gallery/best-bars-in-philadelphia",
        "category": "Food & Drink",
        "placeName": "Philadelphia"
      },
      {
        "title": "11 Best Philly Cheesesteak Spots in Philadelphia",
        "url": "https://www.cntraveler.com/gallery/best-philly-cheesesteak-spots-in-philadelphia",
        "category": "Food & Drink",
        "placeName": "Philadelphia"
      },
      {
        "title": "13 Best Brunch Places in Philadelphia",
        "url": "https://www.cntraveler.com/gallery/best-brunch-places-in-philadelphia",
        "category": "Food & Drink",
        "placeName": "Philadelphia"
      },
      {
        "title": "14 Best Hotels in Philadelphia",
        "url": "https://www.cntraveler.com/gallery/best-hotels-in-philadelphia",
        "category": "Travel",
        "placeName": "Philadelphia"
      },
      {
        "title": "Philadelphia",
        "url": "https://www.cntraveler.com/destinations/philadelphia",
        "category": "Travel",
        "placeName": "Philadelphia"
      },
      {
        "title": "Grand Hyatt Scottsdale Resort",
        "url": "https://www.cntraveler.com/hotels/scottsdale/grand-hyatt-scottsdale-resort",
        "category": "Travel",
        "placeName": "Phoenix"
      },
      {
        "title": "Fairmont Scottsdale Princess",
        "url": "https://www.cntraveler.com/hotels/united-states/scottsdale/fairmont-scottsdale-princess",
        "category": "Travel",
        "placeName": "Phoenix"
      },
      {
        "title": "The Global Ambassador",
        "url": "https://www.cntraveler.com/hotels/phoenix/the-global-ambassador",
        "category": "Travel",
        "placeName": "Phoenix"
      },
      {
        "title": "W Scottsdale",
        "url": "https://www.cntraveler.com/hotels/scottsdale/w-scottsdale",
        "category": "Travel",
        "placeName": "Phoenix"
      },
      {
        "title": "Arizona Biltmore, LXR Hotels & Resorts",
        "url": "https://www.cntraveler.com/hotels/phoenix/arizona-biltmore-lxr-hotels-and-resorts",
        "category": "Travel",
        "placeName": "Phoenix"
      },
      {
        "title": "The Phoenician, a Luxury Collection Resort, Scottsdale",
        "url": "https://www.cntraveler.com/hotels/united-states/scottsdale/the-phoenician-luxury-collection-scottsdale",
        "category": "Travel",
        "placeName": "Phoenix"
      },
      {
        "title": "Hotel Valley Ho",
        "url": "https://www.cntraveler.com/hotels/scottsdale/hotel-valley-ho",
        "category": "Travel",
        "placeName": "Phoenix"
      },
      {
        "title": "Andaz Scottsdale Resort & Bungalows",
        "url": "https://www.cntraveler.com/hotels/scottsdale/andaz-scottsdale-resort-and-spa",
        "category": "Travel",
        "placeName": "Phoenix"
      },
      {
        "title": "JW Marriott Phoenix Desert Ridge Resort & Spa",
        "url": "https://www.cntraveler.com/hotels/united-states/phoenix/jw-marriott-desert-ridge-resort-spa-phoenix",
        "category": "Travel",
        "placeName": "Phoenix"
      },
      {
        "title": "Senna House Scottsdale, Curio Collection by Hilton",
        "url": "https://www.cntraveler.com/hotels/scottsdale/senna-house-scottsdale-curio-collection-by-hilton",
        "category": "Travel",
        "placeName": "Phoenix"
      },
      {
        "title": "Rise Uptown Hotel",
        "url": "https://www.cntraveler.com/hotels/phoenix/rise-uptown-hotel",
        "category": "Travel",
        "placeName": "Phoenix"
      },
      {
        "title": "Sheraton Grand at Wild Horse Pass",
        "url": "https://www.cntraveler.com/hotels/united-states/chandler/sheraton-wild-horse-pass-resort-spa",
        "category": "Travel",
        "placeName": "Phoenix"
      },
      {
        "title": "Adero Scottsdale",
        "url": "https://www.cntraveler.com/hotels/scottsdale/adero-scottsdale",
        "category": "Travel",
        "placeName": "Phoenix"
      },
      {
        "title": "Camby Hotel, Autograph Collection",
        "url": "https://www.cntraveler.com/hotels/phoenix/the-camby-hotel",
        "category": "Travel",
        "placeName": "Phoenix"
      },
      {
        "title": "JW Marriott Scottsdale Camelback Inn Resort & Spa",
        "url": "https://www.cntraveler.com/hotels/united-states/paradise-valley/jw-marriott-camelback-inn-resort-spa-scottsdale",
        "category": "Travel",
        "placeName": "Phoenix"
      },
      {
        "title": "Phoenix Travel Guide",
        "url": "https://www.cntraveler.com/destinations/phoenix",
        "category": "Travel",
        "placeName": "Phoenix"
      },
      {
        "title": "Westin Portland Harborview",
        "url": "https://www.cntraveler.com/hotels/portland/westin-portland-harborview",
        "category": "Travel",
        "placeName": "Portland, Maine"
      },
      {
        "title": "Longfellow Hotel: First In",
        "url": "https://www.cntraveler.com/hotels/portland/longfellow-portland",
        "category": "Travel",
        "placeName": "Portland, Maine"
      },
      {
        "title": "Aloft Portland Downtown Waterfront ME",
        "url": "https://www.cntraveler.com/hotels/portland/aloft-portland-downtown-waterfront-me",
        "category": "Travel",
        "placeName": "Portland, Maine"
      },
      {
        "title": "The Docent’s Collection",
        "url": "https://www.cntraveler.com/hotels/portland/121-middle-an-urban-inn",
        "category": "Travel",
        "placeName": "Portland, Maine"
      },
      {
        "title": "The Inn on Peaks Island",
        "url": "https://www.cntraveler.com/hotels/peaks-island/the-inn-on-peaks-island",
        "category": "Travel",
        "placeName": "Portland, Maine"
      },
      {
        "title": "Portland Harbor Hotel",
        "url": "https://www.cntraveler.com/hotels/united-states/portland/portland-harbor-hotel",
        "category": "Travel",
        "placeName": "Portland, Maine"
      },
      {
        "title": "The Francis",
        "url": "https://www.cntraveler.com/hotels/portland/the-francis",
        "category": "Travel",
        "placeName": "Portland, Maine"
      },
      {
        "title": "Best Bower",
        "url": "https://www.cntraveler.com/hotels/portland/best-bower",
        "category": "Travel",
        "placeName": "Portland, Maine"
      },
      {
        "title": "The Press Hotel, Autograph Collection",
        "url": "https://www.cntraveler.com/hotels/portland/the-press-hotel",
        "category": "Travel",
        "placeName": "Portland, Maine"
      },
      {
        "title": "Pomegranate Inn",
        "url": "https://www.cntraveler.com/hotels/united-states/portland/pomegranate-inn",
        "category": "Travel",
        "placeName": "Portland, Maine"
      },
      {
        "title": "Portland Regency Hotel & Spa",
        "url": "https://www.cntraveler.com/hotels/united-states/portland/portland-regency-hotel-spa",
        "category": "Travel",
        "placeName": "Portland, Maine"
      },
      {
        "title": "Canopy by Hilton Portland Waterfront",
        "url": "https://www.cntraveler.com/hotels/portland/canopy-by-hilton-portland-waterfront",
        "category": "Travel",
        "placeName": "Portland, Maine"
      },
      {
        "title": "Blind Tiger",
        "url": "https://www.cntraveler.com/hotels/portland/blind-tiger",
        "category": "Travel",
        "placeName": "Portland, Maine"
      },
      {
        "title": "Hyatt Place Portland-Old Port",
        "url": "https://www.cntraveler.com/hotels/portland/hyatt-place-portland-old-port",
        "category": "Travel",
        "placeName": "Portland, Maine"
      },
      {
        "title": "14 Best Things to Do in Portland, Maine",
        "url": "https://www.cntraveler.com/gallery/best-things-to-do-in-portland-maine",
        "category": "Things To Do",
        "placeName": "Portland, Maine"
      },
      {
        "title": "3 Best Day Trips from Portland, Maine",
        "url": "https://www.cntraveler.com/gallery/best-day-trips-from-portland-maine",
        "category": "Things To Do",
        "placeName": "Portland, Maine"
      },
      {
        "title": "15 Best Restaurants in Portland, Maine",
        "url": "https://www.cntraveler.com/gallery/best-restaurants-in-portland-maine",
        "category": "Food & Drink",
        "placeName": "Portland, Maine"
      },
      {
        "title": "10 Best Places for Lobster Rolls in Portland, Maine",
        "url": "https://www.cntraveler.com/gallery/best-lobster-roll-in-portland-maine",
        "category": "Food & Drink",
        "placeName": "Portland, Maine"
      },
      {
        "title": "15 Best Bars in Portland, Maine",
        "url": "https://www.cntraveler.com/gallery/best-bars-in-portland-maine",
        "category": "Food & Drink",
        "placeName": "Portland, Maine"
      },
      {
        "title": "9 Best Breweries in Portland, Maine",
        "url": "https://www.cntraveler.com/gallery/best-breweries-in-portland-maine",
        "category": "Food & Drink",
        "placeName": "Portland, Maine"
      },
      {
        "title": "10 Best Places for Brunch in Portland, Maine",
        "url": "https://www.cntraveler.com/gallery/best-brunch-places-in-portland-maine",
        "category": "Food & Drink",
        "placeName": "Portland, Maine"
      },
      {
        "title": "10 Best Coffee Shops in Portland, Maine",
        "url": "https://www.cntraveler.com/gallery/best-coffee-shops-in-portland-maine",
        "category": "Food & Drink",
        "placeName": "Portland, Maine"
      },
      {
        "title": "Portland, Maine Travel Guide",
        "url": "https://www.cntraveler.com/destinations/portland-maine",
        "category": "Travel",
        "placeName": "Portland, Maine"
      },
      {
        "title": "Embassy Suites by Hilton Downtown",
        "url": "https://www.cntraveler.com/hotels/portland/embassy-suites-by-hilton-downtown",
        "category": "Travel",
        "placeName": "Portland, Oregon"
      },
      {
        "title": "Cascada Thermal Springs and Hotel",
        "url": "https://www.cntraveler.com/hotels/portland/cascada-thermal-springs-and-hotel",
        "category": "Travel",
        "placeName": "Portland, Oregon"
      },
      {
        "title": "Benson Hotel",
        "url": "https://www.cntraveler.com/hotels/united-states/portland/benson-hotel",
        "category": "Travel",
        "placeName": "Portland, Oregon"
      },
      {
        "title": "The Clyde Hotel Portland by Kasa",
        "url": "https://www.cntraveler.com/hotels/portland/the-clyde-hotel-portland-by-kasa",
        "category": "Travel",
        "placeName": "Portland, Oregon"
      },
      {
        "title": "Sentinel",
        "url": "https://www.cntraveler.com/hotels/portland/portland/sentinel-hotel-formerly-governor",
        "category": "Travel",
        "placeName": "Portland, Oregon"
      },
      {
        "title": "The Heathman Hotel",
        "url": "https://www.cntraveler.com/hotels/united-states/portland/heathman-hotel-portland",
        "category": "Travel",
        "placeName": "Portland, Oregon"
      },
      {
        "title": "The Nines, a Luxury Collection Hotel, Portland",
        "url": "https://www.cntraveler.com/hotels/portland/the-nines-a-luxury-collection-hotel-portland",
        "category": "Travel",
        "placeName": "Portland, Oregon"
      },
      {
        "title": "Canopy by Hilton Portland Pearl District",
        "url": "https://www.cntraveler.com/hotels/portland/canopy-by-hilton-portland-pearl-district",
        "category": "Travel",
        "placeName": "Portland, Oregon"
      },
      {
        "title": "The Hotel Zags Portland",
        "url": "https://www.cntraveler.com/hotels/united-states/portland/hotel-modera--portland",
        "category": "Travel",
        "placeName": "Portland, Oregon"
      },
      {
        "title": "Jupiter Next",
        "url": "https://www.cntraveler.com/hotels/portland/portland/jupiter-next",
        "category": "Travel",
        "placeName": "Portland, Oregon"
      },
      {
        "title": "Woodlark",
        "url": "https://www.cntraveler.com/hotels/portland/portland/woodlark",
        "category": "Travel",
        "placeName": "Portland, Oregon"
      },
      {
        "title": "Hotel deLuxe",
        "url": "https://www.cntraveler.com/hotels/united-states/united-states/portland/hotel-deluxe-portland",
        "category": "Travel",
        "placeName": "Portland, Oregon"
      },
      {
        "title": "Kimpton Hotel Vintage Portland",
        "url": "https://www.cntraveler.com/hotels/portland/hotel-vintage-plaza",
        "category": "Travel",
        "placeName": "Portland, Oregon"
      },
      {
        "title": "Ritz-Carlton, Portland: First In",
        "url": "https://www.cntraveler.com/hotels/portland/ritz-carlton-portland-first-in",
        "category": "Travel",
        "placeName": "Portland, Oregon"
      },
      {
        "title": "Ace Hotel Portland",
        "url": "https://www.cntraveler.com/hotels/portland/portland/ace-hotel-portland",
        "category": "Travel",
        "placeName": "Portland, Oregon"
      },
      {
        "title": "16 Best Things to Do in Portland, Oregon",
        "url": "https://www.cntraveler.com/gallery/best-things-to-do-in-portland-oregon",
        "category": "Things To Do",
        "placeName": "Portland, Oregon"
      },
      {
        "title": "10 Best Museums in Portland, OR",
        "url": "https://www.cntraveler.com/gallery/best-museums-in-portland-oregon",
        "category": "Things To Do",
        "placeName": "Portland, Oregon"
      },
      {
        "title": "3 Best Day Trips from Portland, OR",
        "url": "https://www.cntraveler.com/gallery/best-day-trips-from-portland-oregon",
        "category": "Things To Do",
        "placeName": "Portland, Oregon"
      },
      {
        "title": "Portland, Oregon: Great Day Trips for Nature-Lovers",
        "url": "https://www.cntraveler.com/galleries/2014-12-21/portland-oregon-great-day-trips-for-nature-lovers",
        "category": "Things To Do",
        "placeName": "Portland, Oregon"
      },
      {
        "title": "21 Best Restaurants in Portland, OR",
        "url": "https://www.cntraveler.com/gallery/best-restaurants-in-portland-oregon",
        "category": "Food & Drink",
        "placeName": "Portland, Oregon"
      },
      {
        "title": "13 Best Bars in Portland, OR",
        "url": "https://www.cntraveler.com/gallery/best-bars-in-portland-oregon",
        "category": "Food & Drink",
        "placeName": "Portland, Oregon"
      },
      {
        "title": "8 Best Breweries in Portland, OR",
        "url": "https://www.cntraveler.com/gallery/best-breweries-and-brewery-tours-in-portland-oregon",
        "category": "Food & Drink",
        "placeName": "Portland, Oregon"
      },
      {
        "title": "10 Best Food Trucks in Portland, OR",
        "url": "https://www.cntraveler.com/gallery/best-food-trucks-in-portland-oregon",
        "category": "Food & Drink",
        "placeName": "Portland, Oregon"
      },
      {
        "title": "14 Best Coffee Shops in Portland, OR",
        "url": "https://www.cntraveler.com/gallery/best-coffee-shops-in-portland-oregon",
        "category": "Food & Drink",
        "placeName": "Portland, Oregon"
      },
      {
        "title": "Portland, Oregon Travel Guide",
        "url": "https://www.cntraveler.com/destinations/portland-oregon",
        "category": "Travel",
        "placeName": "Portland, Oregon"
      },
      {
        "title": "Municipal Grand Savannah: First In",
        "url": "https://www.cntraveler.com/hotels/savannah/municipal-grand-savannah",
        "category": "Travel",
        "placeName": "Savannah"
      },
      {
        "title": "Hotel Bardo Savannah",
        "url": "https://www.cntraveler.com/hotels/savannah/hotel-bardo-savannah",
        "category": "Travel",
        "placeName": "Savannah"
      },
      {
        "title": "The Alida, Savannah, A Tribute Portfolio Hotel",
        "url": "https://www.cntraveler.com/hotels/savannah/the-alida-hotel",
        "category": "Travel",
        "placeName": "Savannah"
      },
      {
        "title": "Perry Lane Hotel, a Luxury Collection Hotel, Savannah",
        "url": "https://www.cntraveler.com/hotels/savannah/perry-lane-a-luxury-collection-hotel",
        "category": "Travel",
        "placeName": "Savannah"
      },
      {
        "title": "Thompson Savannah",
        "url": "https://www.cntraveler.com/hotels/savannah/undefined",
        "category": "Travel",
        "placeName": "Savannah"
      },
      {
        "title": "The Westin Savannah Harbor Golf Resort & Spa",
        "url": "https://www.cntraveler.com/hotels/united-states/savannah/westin-savannah-harbor-golf-resort-spa",
        "category": "Travel",
        "placeName": "Savannah"
      },
      {
        "title": "Bohemian Hotel Savannah Riverfront, Autograph Collection",
        "url": "https://www.cntraveler.com/hotels/united-states/savannah/bohemian-hotel-savannah-riverfront",
        "category": "Travel",
        "placeName": "Savannah"
      },
      {
        "title": "JW Marriott Savannah Plant Riverside District",
        "url": "https://www.cntraveler.com/hotels/savannah/jw-marriott-savannah-plant-riverside-district",
        "category": "Travel",
        "placeName": "Savannah"
      },
      {
        "title": "Mansion on Forsyth Park",
        "url": "https://www.cntraveler.com/hotels/united-states/savannah/mansion-on-forsyth-park-savannah",
        "category": "Travel",
        "placeName": "Savannah"
      },
      {
        "title": "Foley House Inn",
        "url": "https://www.cntraveler.com/hotels/united-states/savannah/foley-house-inn--savannah",
        "category": "Travel",
        "placeName": "Savannah"
      },
      {
        "title": "River Street Inn",
        "url": "https://www.cntraveler.com/hotels/united-states/savannah/river-street-inn",
        "category": "Travel",
        "placeName": "Savannah"
      },
      {
        "title": "Hyatt Regency Savannah",
        "url": "https://www.cntraveler.com/hotels/united-states/savannah/hyatt-regency-savannah",
        "category": "Travel",
        "placeName": "Savannah"
      },
      {
        "title": "Andaz Savannah",
        "url": "https://www.cntraveler.com/hotels/united-states/savannah/andaz-savannah",
        "category": "Travel",
        "placeName": "Savannah"
      },
      {
        "title": "Hamilton-Turner Inn",
        "url": "https://www.cntraveler.com/hotels/united-states/savannah/hamilton-turner-inn",
        "category": "Travel",
        "placeName": "Savannah"
      },
      {
        "title": "Ballastone, A Luxury Inn",
        "url": "https://www.cntraveler.com/hotels/united-states/savannah/ballastone-inn-savannah",
        "category": "Travel",
        "placeName": "Savannah"
      },
      {
        "title": "12 Best Things to Do in Savannah, Georgia",
        "url": "https://www.cntraveler.com/gallery/best-things-to-do-in-savannah-georgia",
        "category": "Things To Do",
        "placeName": "Savannah"
      },
      {
        "title": "10 Best Tours in Savannah",
        "url": "https://www.cntraveler.com/gallery/best-tours-in-savannah",
        "category": "Things To Do",
        "placeName": "Savannah"
      },
      {
        "title": "10 Best Shops in Savannah",
        "url": "https://www.cntraveler.com/gallery/best-shops-in-savannah",
        "category": "Shopping",
        "placeName": "Savannah"
      },
      {
        "title": "3 Best Day Trips from Savannah",
        "url": "https://www.cntraveler.com/gallery/3-best-day-trips-from-savannah",
        "category": "Things To Do",
        "placeName": "Savannah"
      },
      {
        "title": "13 Best Restaurants in Savannah",
        "url": "https://www.cntraveler.com/gallery/best-restaurants-in-savannah",
        "category": "Food & Drink",
        "placeName": "Savannah"
      },
      {
        "title": "14 Best Bars in Savannah",
        "url": "https://www.cntraveler.com/gallery/best-bars-in-savannah",
        "category": "Food & Drink",
        "placeName": "Savannah"
      },
      {
        "title": "9 Best Brunch Places in Savannah",
        "url": "https://www.cntraveler.com/gallery/best-brunch-places-in-savannah",
        "category": "Food & Drink",
        "placeName": "Savannah"
      },
      {
        "title": "8 Best Seafood Restaurants in Savannah",
        "url": "https://www.cntraveler.com/gallery/best-seafood-restaurants-in-savannah",
        "category": "Food & Drink",
        "placeName": "Savannah"
      },
      {
        "title": "Savannah Travel Guide",
        "url": "https://www.cntraveler.com/destinations/savannah",
        "category": "Travel",
        "placeName": "Savannah"
      },
      {
        "title": "15 Best Hotels in Savannah",
        "url": "https://www.cntraveler.com/gallery/best-hotels-in-savannah",
        "category": "Travel",
        "placeName": "Savannah"
      },
      {
        "title": "The Standard, Singapore",
        "url": "https://www.cntraveler.com/hotels/the-standard-singapore",
        "category": "Travel",
        "placeName": "Singapore"
      },
      {
        "title": "The Clan Hotel by Far East Hospitality",
        "url": "https://www.cntraveler.com/hotels/singapore/the-clan",
        "category": "Travel",
        "placeName": "Singapore"
      },
      {
        "title": "Artyzen Singapore",
        "url": "https://www.cntraveler.com/hotels/singapore/artyzen-singapore",
        "category": "Travel",
        "placeName": "Singapore"
      },
      {
        "title": "Grand Hyatt Singapore",
        "url": "https://www.cntraveler.com/hotels/singapore/grand-hyatt-singapore",
        "category": "Travel",
        "placeName": "Singapore"
      },
      {
        "title": "Amara Singapore",
        "url": "https://www.cntraveler.com/hotels/singapore/amara-singapore",
        "category": "Travel",
        "placeName": "Singapore"
      },
      {
        "title": "Pan Pacific Orchard",
        "url": "https://www.cntraveler.com/hotels/singapore/pan-pacific-orchard",
        "category": "Travel",
        "placeName": "Singapore"
      },
      {
        "title": "The Singapore Edition",
        "url": "https://www.cntraveler.com/hotels/singapore/the-singapore-edition",
        "category": "Travel",
        "placeName": "Singapore"
      },
      {
        "title": "Fairmont Singapore",
        "url": "https://www.cntraveler.com/hotels/singapore/fairmont-singapore",
        "category": "Travel",
        "placeName": "Singapore"
      },
      {
        "title": "Shangri-La Singapore",
        "url": "https://www.cntraveler.com/hotels/singapore/shangri-la-singapore",
        "category": "Travel",
        "placeName": "Singapore"
      },
      {
        "title": "The Fullerton Bay Hotel Singapore",
        "url": "https://www.cntraveler.com/hotels/singapore/the-fullerton-bay-hotel-singapore",
        "category": "Travel",
        "placeName": "Singapore"
      },
      {
        "title": "Raffles Singapore",
        "url": "https://www.cntraveler.com/hotels/singapore/raffles-singapore",
        "category": "Travel",
        "placeName": "Singapore"
      },
      {
        "title": "Andaz Singapore",
        "url": "https://www.cntraveler.com/hotels/singapore/andaz-singapore",
        "category": "Travel",
        "placeName": "Singapore"
      },
      {
        "title": "Capella Singapore",
        "url": "https://www.cntraveler.com/hotels/singapore/capella-singapore",
        "category": "Travel",
        "placeName": "Singapore"
      },
      {
        "title": "23 Best Things to Do in Singapore",
        "url": "https://www.cntraveler.com/gallery/best-things-to-do-in-singapore",
        "category": "Things To Do",
        "placeName": "Singapore"
      },
      {
        "title": "14 Best Museums in Singapore",
        "url": "https://www.cntraveler.com/gallery/best-museums-in-singapore",
        "category": "Things To Do",
        "placeName": "Singapore"
      },
      {
        "title": "6 Best Hawker Centers in Singapore",
        "url": "https://www.cntraveler.com/gallery/best-hawker-centers-in-singapore",
        "category": "Food & Drink",
        "placeName": "Singapore"
      },
      {
        "title": "14 Best Boutique Shops in Singapore",
        "url": "https://www.cntraveler.com/gallery/best-shops-in-singapore",
        "category": "Shopping",
        "placeName": "Singapore"
      },
      {
        "title": "5 Best Day Trips from Singapore",
        "url": "https://www.cntraveler.com/gallery/best-day-trips-from-singapore",
        "category": "Things To Do",
        "placeName": "Singapore"
      },
      {
        "title": "28 Best Restaurants in Singapore",
        "url": "https://www.cntraveler.com/gallery/best-restaurants-in-singapore",
        "category": "Food & Drink",
        "placeName": "Singapore"
      },
      {
        "title": "12 Best Bars in Singapore",
        "url": "https://www.cntraveler.com/gallery/best-bars-in-singapore",
        "category": "Food & Drink",
        "placeName": "Singapore"
      },
      {
        "title": "9 Best Local Eats in Singapore",
        "url": "https://www.cntraveler.com/gallery/best-local-eats-in-singapore",
        "category": "Food & Drink",
        "placeName": "Singapore"
      },
      {
        "title": "16 Best Cafes in Singapore",
        "url": "https://www.cntraveler.com/gallery/best-cafes-in-singapore",
        "category": "Food & Drink",
        "placeName": "Singapore"
      },
      {
        "title": "Singapore Travel Guide",
        "url": "https://www.cntraveler.com/destinations/singapore",
        "category": "Travel",
        "placeName": "Singapore"
      },
      {
        "title": "The Eve Hotel",
        "url": "https://www.cntraveler.com/hotels/sydney/the-eve-hotel",
        "category": "Travel",
        "placeName": "Sydney"
      },
      {
        "title": "Four Seasons Hotel Sydney",
        "url": "https://www.cntraveler.com/hotels/sydney/four-seasons-hotel-sydney",
        "category": "Travel",
        "placeName": "Sydney"
      },
      {
        "title": "W Sydney",
        "url": "https://www.cntraveler.com/hotels/sydney/w-sydney",
        "category": "Travel",
        "placeName": "Sydney"
      },
      {
        "title": "Ace Hotel Sydney",
        "url": "https://www.cntraveler.com/hotels/sydney/ace-hotel-sydney",
        "category": "Travel",
        "placeName": "Sydney"
      },
      {
        "title": "The Fullerton Hotel Sydney",
        "url": "https://www.cntraveler.com/hotels/sydney/the-fullerton-hotel-sydney",
        "category": "Travel",
        "placeName": "Sydney"
      },
      {
        "title": "The Langham, Sydney",
        "url": "https://www.cntraveler.com/hotels/australia/sydney/the-langham-sydney",
        "category": "Travel",
        "placeName": "Sydney"
      },
      {
        "title": "Park Hyatt Sydney",
        "url": "https://www.cntraveler.com/hotels/australia/sydney/park-hyatt-sydney",
        "category": "Travel",
        "placeName": "Sydney"
      },
      {
        "title": "Larmont Sydney by Lancemore",
        "url": "https://www.cntraveler.com/hotels/sydney/larmont-sydney-by-lancemore",
        "category": "Travel",
        "placeName": "Sydney"
      },
      {
        "title": "Spicers Sangoma Retreat",
        "url": "https://www.cntraveler.com/hotels/sydney/spicers-sangoma-retreat",
        "category": "Travel",
        "placeName": "Sydney"
      },
      {
        "title": "InterContinental Sydney Double Bay",
        "url": "https://www.cntraveler.com/hotels/australia/sydney/intercontinental-sydney-double-bay",
        "category": "Travel",
        "placeName": "Sydney"
      },
      {
        "title": "Shangri-La Hotel, Sydney",
        "url": "https://www.cntraveler.com/hotels/australia/sydney/shangri-la-hotel--sydney",
        "category": "Travel",
        "placeName": "Sydney"
      },
      {
        "title": "Sofitel Sydney Darling Harbor",
        "url": "https://www.cntraveler.com/hotels/sydney/sofitel-sydney-darling-harbor",
        "category": "Travel",
        "placeName": "Sydney"
      },
      {
        "title": "Medusa Hotel",
        "url": "https://www.cntraveler.com/hotels/sydney/medusa-hotel",
        "category": "Travel",
        "placeName": "Sydney"
      },
      {
        "title": "22 Best Things to Do in Sydney",
        "url": "https://www.cntraveler.com/gallery/best-things-to-do-in-sydney",
        "category": "Things To Do",
        "placeName": "Sydney"
      },
      {
        "title": "15 Best Beaches in Sydney",
        "url": "https://www.cntraveler.com/gallery/best-beaches-in-sydney",
        "category": "Things To Do",
        "placeName": "Sydney"
      },
      {
        "title": "15 Best Museums in Sydney",
        "url": "https://www.cntraveler.com/gallery/best-museums-in-sydney",
        "category": "Things To Do",
        "placeName": "Sydney"
      },
      {
        "title": "16 Best Parks in Sydney",
        "url": "https://www.cntraveler.com/gallery/best-parks-in-sydney",
        "category": "Things To Do",
        "placeName": "Sydney"
      },
      {
        "title": "3 Best Day Trips from Sydney",
        "url": "https://www.cntraveler.com/gallery/best-day-trips-from-sydney",
        "category": "Things To Do",
        "placeName": "Sydney"
      },
      {
        "title": "29 Best Restaurants in Sydney",
        "url": "https://www.cntraveler.com/gallery/best-restaurants-in-sydney",
        "category": "Food & Drink",
        "placeName": "Sydney"
      },
      {
        "title": "21 Best Bars in Sydney",
        "url": "https://www.cntraveler.com/gallery/best-bars-in-sydney",
        "category": "Food & Drink",
        "placeName": "Sydney"
      },
      {
        "title": "15 Best Coffee Shops in Sydney",
        "url": "https://www.cntraveler.com/gallery/best-coffee-shops-in-sydney",
        "category": "Food & Drink",
        "placeName": "Sydney"
      },
      {
        "title": "15 Best Breakfasts in Sydney",
        "url": "https://www.cntraveler.com/gallery/best-breakfasts-in-sydney",
        "category": "Food & Drink",
        "placeName": "Sydney"
      },
      {
        "title": "Your Ultimate Guide to Sydney Dining",
        "url": "https://www.cntraveler.com/galleries/2014-08-20/your-ultimate-guide-to-sydney-dining",
        "category": "Food & Drink",
        "placeName": "Sydney"
      },
      {
        "title": "Sydney Travel Guide",
        "url": "https://www.cntraveler.com/destinations/sydney",
        "category": "Travel",
        "placeName": "Sydney"
      },
      {
        "title": "The Anndore House",
        "url": "https://www.cntraveler.com/hotels/toronto/anndore-house",
        "category": "Travel",
        "placeName": "Toronto"
      },
      {
        "title": "The Hazelton Hotel Toronto",
        "url": "https://www.cntraveler.com/hotels/toronto/the-hazelton-hotel-toronto",
        "category": "Travel",
        "placeName": "Toronto"
      },
      {
        "title": "Four Seasons Hotel Toronto",
        "url": "https://www.cntraveler.com/hotels/toronto/four-seasons-hotel-toronto",
        "category": "Travel",
        "placeName": "Toronto"
      },
      {
        "title": "Park Hyatt Toronto",
        "url": "https://www.cntraveler.com/hotels/toronto/park-hyatt-toronto",
        "category": "Travel",
        "placeName": "Toronto"
      },
      {
        "title": "The Sutton Place Hotel Toronto",
        "url": "https://www.cntraveler.com/hotels/toronto/sutton-place-hotel-toronto",
        "category": "Travel",
        "placeName": "Toronto"
      },
      {
        "title": "The Ritz-Carlton, Toronto",
        "url": "https://www.cntraveler.com/hotels/toronto/the-ritz-carlton-toronto",
        "category": "Travel",
        "placeName": "Toronto"
      },
      {
        "title": "The Drake Hotel",
        "url": "https://www.cntraveler.com/hotels/toronto/the-drake-hotel",
        "category": "Travel",
        "placeName": "Toronto"
      },
      {
        "title": "Ace Hotel Toronto",
        "url": "https://www.cntraveler.com/hotels/toronto/ace-hotel-toronto",
        "category": "Travel",
        "placeName": "Toronto"
      },
      {
        "title": "Shangri-La Hotel, Toronto",
        "url": "https://www.cntraveler.com/hotels/canada/toronto/shangri-la-hotel--toronto",
        "category": "Travel",
        "placeName": "Toronto"
      },
      {
        "title": "Windsor Arms Hotel",
        "url": "https://www.cntraveler.com/hotels/canada/toronto/windsor-arms-hotel--toronto",
        "category": "Travel",
        "placeName": "Toronto"
      },
      {
        "title": "The Ivy at Verity",
        "url": "https://www.cntraveler.com/hotels/toronto/the-ivy-at-verity",
        "category": "Travel",
        "placeName": "Toronto"
      },
      {
        "title": "Le Germain Hotel Toronto Maple Leaf Square",
        "url": "https://www.cntraveler.com/hotels/canada/toronto/hotel-le-germain--toronto",
        "category": "Travel",
        "placeName": "Toronto"
      },
      {
        "title": "19 Best Things to Do in Toronto",
        "url": "https://www.cntraveler.com/gallery/best-things-to-do-in-toronto",
        "category": "Things To Do",
        "placeName": "Toronto"
      },
      {
        "title": "3 Best Day Trips from Toronto",
        "url": "https://www.cntraveler.com/gallery/best-day-trips-from-toronto",
        "category": "Things To Do",
        "placeName": "Toronto"
      },
      {
        "title": "10 Best Museums in Toronto",
        "url": "https://www.cntraveler.com/gallery/best-museums-in-toronto",
        "category": "Things To Do",
        "placeName": "Toronto"
      },
      {
        "title": "What to Do in Toronto: The Coveteur's Guide",
        "url": "https://www.cntraveler.com/galleries/2014-09-22/what-to-do-in-toronto-the-coveteur-s-guide",
        "category": "Things To Do",
        "placeName": "Toronto"
      },
      {
        "title": "23 Best Restaurants in Toronto",
        "url": "https://www.cntraveler.com/gallery/best-restaurants-in-toronto",
        "category": "Food & Drink",
        "placeName": "Toronto"
      },
      {
        "title": "16 Best Bars in Toronto",
        "url": "https://www.cntraveler.com/gallery/best-bars-in-toronto",
        "category": "Food & Drink",
        "placeName": "Toronto"
      },
      {
        "title": "11 Best Local Food Spots in Toronto",
        "url": "https://www.cntraveler.com/gallery/best-local-eats-in-toronto",
        "category": "Food & Drink",
        "placeName": "Toronto"
      },
      {
        "title": "11 Best Brunch Places in Toronto",
        "url": "https://www.cntraveler.com/gallery/best-brunch-places-in-toronto",
        "category": "Food & Drink",
        "placeName": "Toronto"
      },
      {
        "title": "10 Best Coffee Shops in Toronto",
        "url": "https://www.cntraveler.com/gallery/best-coffee-shops-in-toronto",
        "category": "Food & Drink",
        "placeName": "Toronto"
      },
      {
        "title": "Toronto Travel Guide",
        "url": "https://www.cntraveler.com/destinations/toronto",
        "category": "Travel",
        "placeName": "Toronto"
      },
      {
        "title": "15 Best Hotels in Toronto",
        "url": "https://www.cntraveler.com/gallery/best-hotels-in-toronto",
        "category": "Travel",
        "placeName": "Toronto"
      },
      {
        "title": "Loden Hotel",
        "url": "https://www.cntraveler.com/hotels/vancouver/loden-hotel",
        "category": "Travel",
        "placeName": "Vancouver"
      },
      {
        "title": "Rosewood Hotel Georgia",
        "url": "https://www.cntraveler.com/hotels/vancouver/rosewood-hotel-georgia",
        "category": "Travel",
        "placeName": "Vancouver"
      },
      {
        "title": "Fairmont Hotel Vancouver",
        "url": "https://www.cntraveler.com/hotels/vancouver/fairmont-hotel-vancouver",
        "category": "Travel",
        "placeName": "Vancouver"
      },
      {
        "title": "Granville Island Hotel",
        "url": "https://www.cntraveler.com/hotels/vancouver/granville-island-hotel",
        "category": "Travel",
        "placeName": "Vancouver"
      },
      {
        "title": "Fairmont Waterfront",
        "url": "https://www.cntraveler.com/hotels/vancouver/fairmont-waterfront",
        "category": "Travel",
        "placeName": "Vancouver"
      },
      {
        "title": "Fairmont Pacific Rim",
        "url": "https://www.cntraveler.com/hotels/vancouver/fairmont-pacific-rim",
        "category": "Travel",
        "placeName": "Vancouver"
      },
      {
        "title": "Wedgewood Hotel & Spa",
        "url": "https://www.cntraveler.com/hotels/vancouver/wedgewood-hotel-and-spa",
        "category": "Travel",
        "placeName": "Vancouver"
      },
      {
        "title": "JW Marriott Parq Vancouver",
        "url": "https://www.cntraveler.com/hotels/vancouver/jw-marriott-parq-vancouver",
        "category": "Travel",
        "placeName": "Vancouver"
      },
      {
        "title": "Opus Vancouver",
        "url": "https://www.cntraveler.com/hotels/canada/vancouver/opus-hotel--vancouver",
        "category": "Travel",
        "placeName": "Vancouver"
      },
      {
        "title": "Shangri-La Vancouver",
        "url": "https://www.cntraveler.com/hotels/canada/vancouver/shangri-la-hotel-vancouver",
        "category": "Travel",
        "placeName": "Vancouver"
      },
      {
        "title": "Pan Pacific Vancouver",
        "url": "https://www.cntraveler.com/hotels/canada/whistler/pan-pacific-vancouver",
        "category": "Travel",
        "placeName": "Vancouver"
      },
      {
        "title": "Metropolitan Hotel Vancouver",
        "url": "https://www.cntraveler.com/hotels/canada/vancouver/metropolitan-hotel--vancouver",
        "category": "Travel",
        "placeName": "Vancouver"
      },
      {
        "title": "The Sutton Place Hotel Vancouver",
        "url": "https://www.cntraveler.com/hotels/vancouver/the-sutton-place-hotel-vancouver",
        "category": "Travel",
        "placeName": "Vancouver"
      },
      {
        "title": "13 Best Things to Do in Vancouver",
        "url": "https://www.cntraveler.com/gallery/best-things-to-do-in-vancouver",
        "category": "Things To Do",
        "placeName": "Vancouver"
      },
      {
        "title": "10 Best Museums in Vancouver",
        "url": "https://www.cntraveler.com/gallery/best-museums-in-vancouver",
        "category": "Things To Do",
        "placeName": "Vancouver"
      },
      {
        "title": "11 Best Parks in Vancouver",
        "url": "https://www.cntraveler.com/gallery/best-parks-in-vancouver",
        "category": "Things To Do",
        "placeName": "Vancouver"
      },
      {
        "title": "3 Best Day Trips From Vancouver",
        "url": "https://www.cntraveler.com/gallery/best-day-trips-from-vancouver",
        "category": "Things To Do",
        "placeName": "Vancouver"
      },
      {
        "title": "Vancouver Chinatown",
        "url": "https://www.cntraveler.com/gallery/vancouver-chinatown-photos",
        "category": "Things To Do",
        "placeName": "Vancouver"
      },
      {
        "title": "19 Best Restaurants in Vancouver",
        "url": "https://www.cntraveler.com/gallery/best-restaurants-in-vancouver",
        "category": "Food & Drink",
        "placeName": "Vancouver"
      },
      {
        "title": "14 Best Bars in Vancouver",
        "url": "https://www.cntraveler.com/gallery/best-bars-in-vancouver",
        "category": "Food & Drink",
        "placeName": "Vancouver"
      },
      {
        "title": "11 Best Coffee Shops in Vancouver",
        "url": "https://www.cntraveler.com/gallery/best-coffee-shops-in-vancouver",
        "category": "Food & Drink",
        "placeName": "Vancouver"
      },
      {
        "title": "10 Best Craft Beer Spots in Vancouver",
        "url": "https://www.cntraveler.com/gallery/best-craft-beer-spots-in-vancouver",
        "category": "Food & Drink",
        "placeName": "Vancouver"
      },
      {
        "title": "Vancouver Travel Guide",
        "url": "https://www.cntraveler.com/destinations/vancouver",
        "category": "Travel",
        "placeName": "Vancouver"
      },
      {
        "title": "15 Best Hotels in Vancouver",
        "url": "https://www.cntraveler.com/gallery/best-hotels-in-vancouver",
        "category": "Travel",
        "placeName": "Vancouver"
      },
      {
        "title": "The Dupont Circle Hotel",
        "url": "https://www.cntraveler.com/hotels/united-states/washington-d-c/the-dupont-circle-hotel",
        "category": "Travel",
        "placeName": "Washington, D.C."
      },
      {
        "title": "The Watergate Hotel",
        "url": "https://www.cntraveler.com/hotels/washington/watergate-hotel",
        "category": "Travel",
        "placeName": "Washington, D.C."
      },
      {
        "title": "Hotel Zena Washington DC",
        "url": "https://www.cntraveler.com/hotels/washington-dc/hotel-zena-washington-dc",
        "category": "Travel",
        "placeName": "Washington, D.C."
      },
      {
        "title": "The Ritz-Carlton Georgetown, Washington D.C.",
        "url": "https://www.cntraveler.com/hotels/united-states/washington/ritz-carlton-georgetown--washington-d-c-",
        "category": "Travel",
        "placeName": "Washington, D.C."
      },
      {
        "title": "Viceroy Washington D.C.",
        "url": "https://www.cntraveler.com/hotels/washington/kimpton-mason-and-rook-hotel",
        "category": "Travel",
        "placeName": "Washington, D.C."
      },
      {
        "title": "Rosewood Washington, D.C.",
        "url": "https://www.cntraveler.com/hotels/united-states/washington-d-c/rosewood-washington-dc",
        "category": "Travel",
        "placeName": "Washington, D.C."
      },
      {
        "title": "InterContinental Washington D.C. - The Wharf, an IHG Hotel",
        "url": "https://www.cntraveler.com/hotels/washington/intercontinental-washington-dc-the-wharf",
        "category": "Travel",
        "placeName": "Washington, D.C."
      },
      {
        "title": "Fairmont Washington D.C., Georgetown",
        "url": "https://www.cntraveler.com/hotels/washington/fairmont-washington-dc-georgetown",
        "category": "Travel",
        "placeName": "Washington, D.C."
      },
      {
        "title": "The Ritz-Carlton, Washington D.C.",
        "url": "https://www.cntraveler.com/hotels/washington/the-ritz-carlton-washington-dc",
        "category": "Travel",
        "placeName": "Washington, D.C."
      },
      {
        "title": "The Ven Embassy Row Hotel",
        "url": "https://www.cntraveler.com/hotels/united-states/washington-d-c/the-embassy-row-hotel",
        "category": "Travel",
        "placeName": "Washington, D.C."
      },
      {
        "title": "Park Hyatt Washington D.C.",
        "url": "https://www.cntraveler.com/hotels/united-states/washington/park-hyatt-washington-d-c",
        "category": "Travel",
        "placeName": "Washington, D.C."
      },
      {
        "title": "The Jefferson",
        "url": "https://www.cntraveler.com/hotels/united-states/washington/the-jefferson-washington-d-c",
        "category": "Travel",
        "placeName": "Washington, D.C."
      },
      {
        "title": "Conrad Washington, DC",
        "url": "https://www.cntraveler.com/hotels/washington/conrad-washington-dc",
        "category": "Travel",
        "placeName": "Washington, D.C."
      },
      {
        "title": "InterContinental The Willard Washington D.C., an IHG Hotel",
        "url": "https://www.cntraveler.com/hotels/united-states/washington/willard-intercontinental",
        "category": "Travel",
        "placeName": "Washington, D.C."
      },
      {
        "title": "14 Best Things to Do in Washington, D.C.",
        "url": "https://www.cntraveler.com/gallery/best-things-to-do-in-washington-dc",
        "category": "Things To Do",
        "placeName": "Washington, D.C."
      },
      {
        "title": "10 Best Museums in D.C. You'll Want to Visit",
        "url": "https://www.cntraveler.com/gallery/best-museums-in-washington-dc",
        "category": "Things To Do",
        "placeName": "Washington, D.C."
      },
      {
        "title": "3 Best Day Trips from Washington, D.C.",
        "url": "https://www.cntraveler.com/gallery/best-day-trips-from-washington-dc",
        "category": "Things To Do",
        "placeName": "Washington, D.C."
      },
      {
        "title": "19 Best Restaurants in Washington, D.C.",
        "url": "https://www.cntraveler.com/gallery/best-restaurants-in-washington-dc",
        "category": "Food & Drink",
        "placeName": "Washington, D.C."
      },
      {
        "title": "15 Best Bars in Washington, D.C.",
        "url": "https://www.cntraveler.com/gallery/best-bars-in-washington-dc",
        "category": "Food & Drink",
        "placeName": "Washington, D.C."
      },
      {
        "title": "The 9 Best Rooftop Bars in Washington, D.C.",
        "url": "https://www.cntraveler.com/gallery/best-rooftop-bars-in-washington-dc",
        "category": "Food & Drink",
        "placeName": "Washington, D.C."
      },
      {
        "title": "12 Best Brunch Places in Washington, D.C.",
        "url": "https://www.cntraveler.com/gallery/best-places-for-brunch-in-washington-d-c",
        "category": "Food & Drink",
        "placeName": "Washington, D.C."
      },
      {
        "title": "The 10 Best Coffee Shops in Washington, D.C.",
        "url": "https://www.cntraveler.com/gallery/best-coffee-shops-in-washington-dc",
        "category": "Food & Drink",
        "placeName": "Washington, D.C."
      },
      {
        "title": "Washington, D.C. Travel Guide",
        "url": "https://www.cntraveler.com/destinations/washington-dc",
        "category": "Travel",
        "placeName": "Washington, D.C."
      }
]
