[
    {
      "title": "Best Places for Honeymoon in Europe",
      "url": "https://www.holidify.com/collections/places-for-honeymoon-in-europe",
      "placeName": "Europe",
      "category": "Travel"
    },
    {
      "title": "Honeymoon in Switzerland: Best Destinations, Activities, and Travel Tips",
      "url": "https://www.holidify.com/pages/honeymoon-in-switzerland-7086.html",
      "placeName": "Switzerland",
      "category": "Travel"
    },
    {
      "title": "Indonesia Vs Thailand: Which is Better?",
      "url": "https://www.holidify.com/pages/indonesia-vs-thailand-7082.html",
      "placeName": "Indonesia & Thailand",
      "category": "Travel"
    },
    {
      "title": "Honeymoon Places in North India",
      "url": "https://www.holidify.com/collections/honeymoon-places-in-north-india",
      "placeName": "North India",
      "category": "Travel"
    },
    {
      "title": "Best Honeymoon Places in South India",
      "url": "https://www.holidify.com/collections/honeymoon-places-in-south-india",
      "placeName": "South India",
      "category": "Travel"
    },
    {
      "title": "Manali for Honeymoon Couples - The Most Romantic Spots in Manali",
      "url": "https://www.holidify.com/collections/manali-for-honeymoon",
      "placeName": "Manali",
      "category": "Travel"
    },
    {
      "title": "Best Honeymoon Destinations in December Around the World",
      "url": "https://www.holidify.com/collections/honeymoon-destinations-in-december",
      "placeName": "World",
      "category": "Travel"
    },
    {
      "title": "Places to Visit near Kochi for the Perfect Weekend Getaway",
      "url": "https://www.holidify.com/collections/places-to-visit-near-kochi",
      "placeName": "Kochi",
      "category": "Travel"
    },
    {
      "title": "Honeymoon Places in Kerala For A Romantic Getaway",
      "url": "https://www.holidify.com/collections/honeymoon-places-in-kerala",
      "placeName": "Kerala",
      "category": "Travel"
    },
    {
      "title": "Magnificent Palaces in India to Redefine Royalty",
      "url": "https://www.holidify.com/collections/palaces-in-india",
      "placeName": "India",
      "category": "Travel"
    },
    {
      "title": "Best Honeymoon Destinations in India in October",
      "url": "https://www.holidify.com/collections/best-honeymoon-destinations-in-india-in-october",
      "placeName": "India",
      "category": "Travel"
    },
    {
      "title": "Honeymoon Destinations in India in May",
      "url": "https://www.holidify.com/collections/honeymoon-destinations-in-india-in-may",
      "placeName": "India",
      "category": "Travel"
    },
    {
      "title": "Best Honeymoon Destinations in India in November",
      "url": "https://www.holidify.com/collections/best-honeymoon-destinations-in-india-in-november",
      "placeName": "India",
      "category": "Travel"
    },
    {
      "title": "Best Honeymoon Destinations in India in September",
      "url": "https://www.holidify.com/collections/best-honeymoon-destinations-in-india-in-september",
      "placeName": "India",
      "category": "Travel"
    },
    {
      "title": "Honeymoon Destinations in India in April",
      "url": "https://www.holidify.com/collections/honeymoon-destinations-in-india-in-april",
      "placeName": "India",
      "category": "Travel"
    },
    {
      "title": "Honeymoon Destinations in India in August",
      "url": "https://www.holidify.com/collections/honeymoon-destinations-in-india-in-august",
      "placeName": "India",
      "category": "Travel"
    },
    {
      "title": "Honeymoon Destinations in India in March",
      "url": "https://www.holidify.com/collections/honeymoon-destinations-in-india-in-march",
      "placeName": "India",
      "category": "Travel"
    },
    {
      "title": "Honeymoon Destinations in India in January",
      "url": "https://www.holidify.com/collections/honeymoon-destinations-in-india-in-january",
      "placeName": "India",
      "category": "Travel"
    },
    {
      "title": "Winter Honeymoon Destinations in India",
      "url": "https://www.holidify.com/collections/winter-honeymoon-destinations-in-india",
      "placeName": "India",
      "category": "Travel"
    },
    {
      "title": "June Honeymoon Destinations in India",
      "url": "https://www.holidify.com/collections/june-honeymoon-destinations-in-india",
      "placeName": "India",
      "category": "Travel"
    },
    {
      "title": "Luxury Honeymoon Destinations in India",
      "url": "https://www.holidify.com/collections/luxury-honeymoon-destinations-in-india",
      "placeName": "India",
      "category": "Travel"
    },
    {
      "title": "Honeymoon Destinations in Gujarat",
      "url": "https://www.holidify.com/collections/honeymoon-destinations-gujarat",
      "placeName": "Gujarat",
      "category": "Travel"
    },
    {
      "title": "Hill Stations in India For a Perfect Holiday",
      "url": "https://www.holidify.com/collections/hill-stations-of-india",
      "placeName": "India",
      "category": "Travel"
    },
    {
      "title": "Best Honeymoon Places in India For a Perfect Romantic Trip",
      "url": "https://www.holidify.com/collections/best-honeymoon-places-in-india",
      "placeName": "India",
      "category": "Travel"
    },
    {
      "title": "Honeymoon in Turkey: 5 Perfectly Romantic Destinations in Turkey For Honeymoon",
      "url": "https://www.holidify.com/pages/honeymoon-in-turkey-6879.html",
      "placeName": "Turkey",
      "category": "Travel"
    },
    {
      "title": "Romantic Places in Georgia for a Couple's Getaway",
      "url": "https://www.holidify.com/collections/romantic-places-in-georgia",
      "placeName": "Georgia",
      "category": "Travel"
    },
    {
      "title": "Honeymoon in Georgia: A Complete Guide",
      "url": "https://www.holidify.com/pages/honeymoon-in-georgia-6866.html",
      "placeName": "Georgia",
      "category": "Travel"
    },
    {
      "title": "Honeymoon In Azerbaijan: Top Destinations And Things To Do",
      "url": "https://www.holidify.com/pages/honeymoon-in-azerbaijan-6740.html",
      "placeName": "Azerbaijan",
      "category": "Travel"
    },
    {
      "title": "Honeymoon in Baku: A Comprehensive Guide",
      "url": "https://www.holidify.com/pages/honeymoon-in-baku-6736.html",
      "placeName": "Baku",
      "category": "Travel"
    },
    {
      "title": "Best Honeymoon Places in the World",
      "url": "https://www.holidify.com/collections/best-honeymoon-places-in-the-world",
      "placeName": "World",
      "category": "Travel"
    },
    {
      "title": "Places To Visit In Andaman For Honeymoon",
      "url": "https://www.holidify.com/collections/places-to-visit-in-andaman-for-honeymoon",
      "placeName": "Andaman",
      "category": "Travel"
    },
    {
      "title": "Honeymoon in Bhutan",
      "url": "https://www.holidify.com/collections/honeymoon-in-bhutan",
      "placeName": "Bhutan",
      "category": "Travel"
    },
    {
      "title": "Honeymoon Places in Maldives",
      "url": "https://www.holidify.com/collections/honeymoon-places-in-maldives",
      "placeName": "Maldives",
      "category": "Travel"
    },
    {
      "title": "Romantic Getaways From Bangalore For A Perfect Honeymoon",
      "url": "https://www.holidify.com/collections/romantic-getaways-from-bangalore",
      "placeName": "Bangalore",
      "category": "Travel"
    },
    {
      "title": "Romantic Getaways From Delhi: Places Near Delhi To Visit With Your Loved One!",
      "url": "https://www.holidify.com/collections/romantic-places-near-delhi",
      "placeName": "Delhi",
      "category": "Travel"
    },
    {
      "title": "Offbeat Honeymoon Destinations In India | Less Crowded Honeymoon Destinations in India",
      "url": "https://www.holidify.com/collections/offbeat-honeymoon-destinations-in-India",
      "placeName": "India",
      "category": "Travel"
    },
    {
      "title": "Places To Visit in December in India",
      "url": "https://www.holidify.com/collections/places-to-visit-in-india-in-december",
      "placeName": "India",
      "category": "Travel"
    },
    {
      "title": "Holidify's Most Romantic Hill Stations for Honeymoon",
      "url": "https://www.holidify.com/collections/best-hill-stations-in-india-for-honeymoon",
      "placeName": "India",
      "category": "Travel"
    },
    {
      "title": "25 Best Honeymoon Places in India in July To Visit With Your Partner",
      "url": "https://www.holidify.com/collections/best-honeymoon-places-in-india-in-july",
      "placeName": "India",
      "category": "Travel"
    },
    {
      "title": "Best Places in Maharashtra for Honeymoon and Romantic Getaways",
      "url": "https://www.holidify.com/collections/places-in-maharashtra-for-honeymoon",
      "placeName": "Maharashtra",
      "category": "Travel"
    },
    {
      "title": "Honeymoon in Italy: 9 Destinations for A Memorable Romantic Getaway",
      "url": "https://www.holidify.com/pages/honeymoon-in-italy-6637.html",
      "placeName": "Italy",
      "category": "Travel"
    },
    {
      "title": "Honeymoon in Greece - 8 Best Honeymoon Destinations",
      "url": "https://www.holidify.com/pages/honeymoon-in-greece-6628.html",
      "placeName": "Greece",
      "category": "Travel"
    },
    {
      "title": "Honeymoon in France: A Guide to the Perfect Romantic Getaway",
      "url": "https://www.holidify.com/pages/honeymoon-in-france-6621.html",
      "placeName": "France",
      "category": "Travel"
    },
    {
      "title": "Honeymoon in Croatia - 5 Croatian Destinations For A Romantic Getaway",
      "url": "https://www.holidify.com/pages/honeymoon-in-croatia-6607.html",
      "placeName": "Croatia",
      "category": "Travel"
    },
    {
      "title": "Honeymoon Places in Uttarakhand",
      "url": "https://www.holidify.com/collections/honeymoon-places-in-uttarakhand",
      "placeName": "Uttarakhand",
      "category": "Travel"
    },
    {
      "title": "Valentine?s Day Places: Romantic Places to Celebrate V-Day in India",
      "url": "https://www.holidify.com/collections/romantic-places-for-valentines-day",
      "placeName": "India",
      "category": "Travel"
    },
    {
      "title": "Romantic Places in Bangalore To Go With Your Loved One",
      "url": "https://www.holidify.com/collections/romantic-places-in-bangalore",
      "placeName": "Bangalore",
      "category": "Travel"
    },
    {
      "title": "Thailand Honeymoon Destinations",
      "url": "https://www.holidify.com/collections/thailand-honeymoon-destinations",
      "placeName": "Thailand",
      "category": "Travel"
    },
    {
      "title": "Honeymoon Places in Sri Lanka",
      "url": "https://www.holidify.com/collections/honeymoon-places-in-sri-lanka",
      "placeName": "Sri Lanka",
      "category": "Travel"
    },
    {
      "title": "Best Islands In Seychelles to Visit",
      "url": "https://www.holidify.com/collections/islands-in-seychelles",
      "placeName": "Seychelles",
      "category": "Travel"
    },
    {
      "title": "Best Places To Propose To Your Girlfriend In India!",
      "url": "https://www.holidify.com/collections/places-to-propose-in-india",
      "placeName": "India",
      "category": "Travel"
    },
    {
      "title": "Romantic Places Near Kolkata To Visit This Valentines Day",
      "url": "https://www.holidify.com/collections/romantic-places-near-kolkata",
      "placeName": "Kolkata",
      "category": "Travel"
    },
    {
      "title": "Romantic Places Near Mumbai For The Perfect Date Night With Your Partner",
      "url": "https://www.holidify.com/collections/romantic-places-near-mumbai",
      "placeName": "Mumbai",
      "category": "Travel"
    },
    {
        "title": "Trekking in North East India For Adventure Lovers",
        "url": "https://www.holidify.com/collections/trekking-in-north-east-india",
        "placeName": "North East India",
        "category": "Things To Do"
      },
      {
        "title": "Hill Stations in North East India For An Exciting Getaway",
        "url": "https://www.holidify.com/collections/hill-stations-in-north-east-india",
        "placeName": "North East India",
        "category": "Travel"
      },
      {
        "title": "Hill Stations in South India For A Cozy Vacation",
        "url": "https://www.holidify.com/collections/hill-stations-in-south-india",
        "placeName": "South India",
        "category": "Travel"
      },
      {
        "title": "Hill Stations in West India That Are Sure To Blow Your Mind",
        "url": "https://www.holidify.com/collections/hill-stations-in-west-india",
        "placeName": "West India",
        "category": "Travel"
      },
      {
        "title": "Hill Stations In East India For A Weekend Getaway",
        "url": "https://www.holidify.com/collections/hill-stations-in-east-india",
        "placeName": "East India",
        "category": "Travel"
      },
      {
        "title": "Trekking in North India For A High-Altitude Himalayan Escape",
        "url": "https://www.holidify.com/collections/trekking-in-north-india",
        "placeName": "North India",
        "category": "Things To Do"
      },
      {
        "title": "Trekking Destinations in East India",
        "url": "https://www.holidify.com/collections/trekking-in-east-india",
        "placeName": "East India",
        "category": "Things To Do"
      },
      {
        "title": "Top Trekking Destinations in West India",
        "url": "https://www.holidify.com/collections/trekking-in-west-india",
        "placeName": "West India",
        "category": "Things To Do"
      },
      {
        "title": "Hill Stations In North India To Escape The Summer Heat",
        "url": "https://www.holidify.com/collections/hill-stations-in-north-india",
        "placeName": "North India",
        "category": "Travel"
      },
      {
        "title": "Best Places to Visit in Spiti Valley in Summer",
        "url": "https://www.holidify.com/pages/spiti-valley-in-summer-7065.html",
        "placeName": "Spiti Valley",
        "category": "Travel"
      },
      {
        "title": "Weather in Sonmarg in Summer",
        "url": "https://www.holidify.com/pages/sonmarg-in-summer-7064.html",
        "placeName": "Sonmarg",
        "category": "Travel"
      },
      {
        "title": "Best Places to Visit in Pahalgam in Summer",
        "url": "https://www.holidify.com/pages/pahalgam-in-summer-7058.html",
        "placeName": "Pahalgam",
        "category": "Travel"
      },
      {
        "title": "Best Places to Visit in Summer in North India",
        "url": "https://www.holidify.com/collections/best-places-to-visit-in-summer-in-north-india",
        "placeName": "North India",
        "category": "Travel"
      },
      {
        "title": "Here's Why You Should Visit Ladakh in Summer",
        "url": "https://www.holidify.com/pages/ladakh-in-summer-7056.html",
        "placeName": "Ladakh",
        "category": "Travel"
      },
      {
        "title": "Patnitop in Summer: Weather, Best Time, Things to Do",
        "url": "https://www.holidify.com/pages/patnitop-in-summer-7055.html",
        "placeName": "Patnitop",
        "category": "Things To Do"
      },
      {
        "title": "Kufri in Summer: Weather, Best Time to Visit & Things to Do",
        "url": "https://www.holidify.com/pages/kufri-in-summer-7054.html",
        "placeName": "Kufri",
        "category": "Things To Do"
      },
      {
        "title": "Best Summer Tourist Places in South India",
        "url": "https://www.holidify.com/collections/summer-tourist-places-in-south-india",
        "placeName": "South India",
        "category": "Travel"
      },
      {
        "title": "Best Places to Visit in June in India with Family",
        "url": "https://www.holidify.com/collections/best-places-to-visit-in-june-in-india-with-family",
        "placeName": "India",
        "category": "Travel"
      },
      {
        "title": "Manali in Summer: Weather, Best Places to Visit & Things to Do",
        "url": "https://www.holidify.com/pages/manali-in-summer-7051.html",
        "placeName": "Manali",
        "category": "Things To Do"
      },
      {
        "title": "Places To Visit Near Mumbai In Summer",
        "url": "https://www.holidify.com/collections/places-to-visit-near-mumbai-in-summer",
        "placeName": "Mumbai",
        "category": "Travel"
      },
      {
        "title": "Places To Visit Near Delhi During Summer",
        "url": "https://www.holidify.com/collections/places-to-visit-in-summers-near-delhi",
        "placeName": "Delhi",
        "category": "Travel"
      },
      {
        "title": "Best Hill Stations Near Delhi",
        "url": "https://www.holidify.com/collections/hill-stations-near-delhi",
        "placeName": "Delhi",
        "category": "Travel"
      },
      {
        "title": "Places to Visit Near Vaishno Devi",
        "url": "https://www.holidify.com/collections/places-to-visit-near-vaishno-devi",
        "placeName": "Vaishno Devi",
        "category": "Travel"
      },
      {
        "title": "Best Places To Visit In Summer In India",
        "url": "https://www.holidify.com/collections/places-to-visit-in-summer-in-india",
        "placeName": "India",
        "category": "Travel"
      },
      {
        "title": "Planning a Trip During Kashmir Spring Season",
        "url": "https://www.holidify.com/pages/kashmir-in-spring-7045.html",
        "placeName": "Kashmir",
        "category": "Travel"
      },
      {
        "title": "Is it a Good Time to Visit Kashmir in June?",
        "url": "https://www.holidify.com/pages/kashmir-in-june-7041.html",
        "placeName": "Kashmir",
        "category": "Travel"
      },
      {
        "title": "Hill Stations Near Nainital for a Revitalizing Vacay",
        "url": "https://www.holidify.com/collections/hill-stations-near-nainital",
        "placeName": "Nainital",
        "category": "Travel"
      },
      {
        "title": "Must Visit Cold Places in South India",
        "url": "https://www.holidify.com/collections/cold-places-in-south-india",
        "placeName": "South India",
        "category": "Travel"
      },
      {
        "title": "Hill Stations in Arunachal Pradesh",
        "url": "https://www.holidify.com/collections/hill-stations-in-arunachal-pradesh",
        "placeName": "Arunachal Pradesh",
        "category": "Travel"
      },
      {
        "title": "Places to Visit near Kochi for the Perfect Weekend Getaway",
        "url": "https://www.holidify.com/collections/places-to-visit-near-kochi",
        "placeName": "Kochi",
        "category": "Travel"
      },
      {
        "title": "Most Beautiful Places In India",
        "url": "https://www.holidify.com/collections/most-beautiful-places-in-india",
        "placeName": "India",
        "category": "Travel"
      },
      {
        "title": "Hill Stations in India For a Perfect Holiday",
        "url": "https://www.holidify.com/collections/hill-stations-of-india",
        "placeName": "India",
        "category": "Travel"
      },
      {
        "title": "Top Hill Stations in Mizoram",
        "url": "https://www.holidify.com/collections/hill-stations-in-mizoram",
        "placeName": "Mizoram",
        "category": "Travel"
      },
      {
        "title": "Top Places for Trekking in Kashmir",
        "url": "https://www.holidify.com/collections/trekking-in-jammu-kashmir",
        "placeName": "Kashmir",
        "category": "Things To Do"
      },
      {
        "title": "Day Trips From Kathmandu",
        "url": "https://www.holidify.com/collections/day-trips-from-kathmandu",
        "placeName": "Kathmandu",
        "category": "Things To Do"
      },
      {
        "title": "Trekking in Sikkim For A Quaint Himalayan Activity",
        "url": "https://www.holidify.com/collections/trekking-in-sikkim",
        "placeName": "Sikkim",
        "category": "Things To Do"
      },
      {
        "title": "Stunning Hill Stations near Munnar for a Laid-back Vacay in the Hills",
        "url": "https://www.holidify.com/collections/hill-stations-near-munnar",
        "placeName": "Munnar",
        "category": "Travel"
      },
      {
        "title": "Gorgeous Hill Stations near Mahabaleshwar for a Soothing Getaway",
        "url": "https://www.holidify.com/collections/hill-stations-near-mahabaleshwar",
        "placeName": "Mahabaleshwar",
        "category": "Travel"
      },
      {
        "title": "Hill Stations Near Mangalore For A Western Ghats Getaway",
        "url": "https://www.holidify.com/collections/hill-stations-near-mangalore",
        "placeName": "Mangalore",
        "category": "Travel"
      },
      {
        "title": "Hill Stations Near Gwalior for a Quick Getaway",
        "url": "https://www.holidify.com/collections/hill-stations-near-gwalior",
        "placeName": "Gwalior",
        "category": "Travel"
      },
      {
        "title": "Hill Stations Near Chandigarh For An Exhilarating Vacation",
        "url": "https://www.holidify.com/collections/hill-stations-near-chandigarh",
        "placeName": "Chandigarh",
        "category": "Travel"
      },
      {
        "title": "Hill Stations In and Near Gujarat To Beat The Blistering Heat",
        "url": "https://www.holidify.com/collections/hill-stations-in-gujarat",
        "placeName": "Gujarat",
        "category": "Travel"
      },
      {
        "title": "Hill Stations near Vadodara You Didn't Know About",
        "url": "https://www.holidify.com/collections/hill-stations-near-vadodara",
        "placeName": "Vadodara",
        "category": "Travel"
      },
      {
        "title": "Gorgeous Hill Stations near Darjeeling for a Cosy Vacay",
        "url": "https://www.holidify.com/collections/hill-stations-near-darjeeling",
        "placeName": "Darjeeling",
        "category": "Travel"
      },
      {
        "title": "Hill Stations Near Dehradun to Escape the Scorching Summer!",
        "url": "https://www.holidify.com/collections/hill-stations-near-dehradun",
        "placeName": "Dehradun",
        "category": "Travel"
      },
      {
        "title": "Hill Stations in Jammu and Kashmir For A Himalayan Getaway",
        "url": "https://www.holidify.com/collections/hill-stations-in-jammu-kashmir",
        "placeName": "Jammu and Kashmir",
        "category": "Travel"
      },
      {
        "title": "Top Hill Stations in Meghalaya",
        "url": "https://www.holidify.com/collections/hill-stations-in-meghalaya",
        "placeName": "Meghalaya",
        "category": "Travel"
      },
      {
        "title": "Hill stations in Sri Lanka",
        "url": "https://www.holidify.com/collections/hill-stations-in-sri-lanka",
        "placeName": "Sri Lanka",
        "category": "Travel"
      },
      {
        "title": "Beautiful Hill Stations In Nagaland",
        "url": "https://www.holidify.com/collections/hill-stations-in-nagaland",
        "placeName": "Nagaland",
        "category": "Travel"
      },
      {
        "title": "Hill Stations Near Surat",
        "url": "https://www.holidify.com/collections/hill-stations-near-surat",
        "placeName": "Surat",
        "category": "Travel"
      },
      {
        "title": "Amazing Hill Stations near Coimbatore",
        "url": "https://www.holidify.com/collections/hill-stations-near-coimbatore",
        "placeName": "Coimbatore",
        "category": "Travel"
      },
      {
        "title": "Best Day Treks Near Shimla",
        "url": "https://www.holidify.com/collections/one-day-shimla-trek",
        "placeName": "Shimla",
        "category": "Things To Do"
      },
      {
        "title": "Beautiful Hill Stations Near Pune To Beat The Summer Heat",
        "url": "https://www.holidify.com/collections/hill-stations-near-pune",
        "placeName": "Pune",
        "category": "Travel"
      },
      {
        "title": "Hill Stations near Lucknow for the Perfect Summer Getaway",
        "url": "https://www.holidify.com/collections/hill-stations-near-lucknow",
        "placeName": "Lucknow",
        "category": "Travel"
      },
      {
        "title": "Hill Stations in Assam For A Beautiful North East India Adventure",
        "url": "https://www.holidify.com/collections/hill-stations-in-assam",
        "placeName": "Assam",
        "category": "Travel"
      },
      {
        "title": "Trekking in Arunachal Pradesh For A Weekend Escape",
        "url": "https://www.holidify.com/collections/trekking-in-arunachal-pradesh",
        "placeName": "Arunachal Pradesh",
        "category": "Things To Do"
      },
      {
        "title": "Hill Stations Near Bangalore For That Perfect Weekend Escape",
        "url": "https://www.holidify.com/collections/hill-stations-near-bangalore",
        "placeName": "Bangalore",
        "category": "Travel"
      },
      {
        "title": "Places To Visit Near Mumbai In December | Winter Holiday Destinations Near Mumbai",
        "url": "https://www.holidify.com/collections/places-to-visit-near-mumbai-in-december",
        "placeName": "Mumbai",
        "category": "Travel"
      },
      {
        "title": "Hill Stations Near Mumbai For A Relaxing Escape",
        "url": "https://www.holidify.com/collections/hill-stations-near-mumbai",
        "placeName": "Mumbai",
        "category": "Travel"
      },
      {
        "title": "Serene Hill Stations Where Snow Fall is Predicted for New Year",
        "url": "https://www.holidify.com/collections/hill-stations-where-snow-fall-is-predicted-for-new-year",
        "placeName": "India",
        "category": "Travel"
      },
      {
        "title": "Best Places To Visit In November In India",
        "url": "https://www.holidify.com/collections/best-places-to-visit-in-november-in-india",
        "placeName": "India",
        "category": "Travel"
      },
      {
        "title": "Beautiful Valleys in India",
        "url": "https://www.holidify.com/collections/valleys-in-india",
        "placeName": "India",
        "category": "Travel"
      },
      {
        "title": "Treks in India For The Rugged Adventure Lovers",
        "url": "https://www.holidify.com/collections/treks-in-india",
        "placeName": "India",
        "category": "Things To Do"
      },
      {
        "title": "Holidify's Most Romantic Hill Stations for Honeymoon",
        "url": "https://www.holidify.com/collections/best-hill-stations-in-india-for-honeymoon",
        "placeName": "India",
        "category": "Travel"
      },
      {
        "title": "Offbeat Places in Himachal That Are Waiting to Be Explored",
        "url": "https://www.holidify.com/collections/offbeat-places-in-himachal",
        "placeName": "Himachal",
        "category": "Travel"
      },
      {
        "title": "Top Historical Places in Himachal Pradesh",
        "url": "https://www.holidify.com/collections/historical-places-in-himachal-pradesh",
        "placeName": "Himachal Pradesh",
        "category": "Travel"
      },
      {
        "title": "Trekking in Himachal Pradesh For A Magical Getaway",
        "url": "https://www.holidify.com/collections/trekking-in-himachal-pradesh",
        "placeName": "Himachal Pradesh",
        "category": "Things To Do"
      },
      {
        "title": "Best Hill Stations in Kerala to Visit in Summer",
        "url": "https://www.holidify.com/collections/hill-stations-in-kerala",
        "placeName": "Kerala",
        "category": "Travel"
      },
      {
        "title": "Hill Stations in Uttarakhand Perfect to Beat the Summer Heat",
        "url": "https://www.holidify.com/collections/hill-stations-in-uttarakhand",
        "placeName": "Uttarakhand",
        "category": "Travel"
      },
      {
        "title": "Top Places for Trekking In Karnataka for the Adventure Junkie in You",
        "url": "https://www.holidify.com/collections/trekking-in-karnataka",
        "placeName": "Karnataka",
        "category": "Things To Do"
      },
      {
        "title": "Hill Stations in Karnataka For A Summer Weekend Getaway",
        "url": "https://www.holidify.com/collections/hill-stations-in-karnataka",
        "placeName": "Karnataka",
        "category": "Travel"
      },
      {
        "title": "Trekking In Tamil Nadu For An Adventurous Getaway",
        "url": "https://www.holidify.com/collections/trekking-in-tamil-nadu",
        "placeName": "Tamil Nadu",
        "category": "Things To Do"
      },
      {
        "title": "Hill Stations in Tamil Nadu To Beat The Heat",
        "url": "https://www.holidify.com/collections/hill-stations-in-tamil-nadu",
        "placeName": "Tamil Nadu",
        "category": "Travel"
      },
      {
        "title": "Hill Stations in Andhra Pradesh To Beat The Summer Heat",
        "url": "https://www.holidify.com/collections/hill-stations-in-andhra-pradesh",
        "placeName": "Andhra Pradesh",
        "category": "Travel"
      },
      {
        "title": "Trekking in West Bengal For A Thrilling Bengal Adventure",
        "url": "https://www.holidify.com/collections/trekking-in-west-bengal",
        "placeName": "West Bengal",
        "category": "Things To Do"
      },
      {
        "title": "Beautiful Hill Stations In West Bengal For A Summer Getaway",
        "url": "https://www.holidify.com/collections/hill-stations-in-west-bengal",
        "placeName": "West Bengal",
        "category": "Travel"
      },
      {
        "title": "Best Places To Visit In India In October",
        "url": "https://www.holidify.com/collections/best-places-to-visit-in-India-in-October",
        "placeName": "India",
        "category": "Travel"
      },
      {
        "title": "Best Hill Stations in Nepal",
        "url": "https://www.holidify.com/collections/hill-stations-in-nepal",
        "placeName": "Nepal",
        "category": "Travel"
      },
      {
        "title": "Alluring Hill Stations near Ooty for a Blissful Getaway",
        "url": "https://www.holidify.com/collections/hill-stations-near-ooty",
        "placeName": "Ooty",
        "category": "Travel"
      },
      {
        "title": "Hill Stations Near Mysore For An Extended Holiday",
        "url": "https://www.holidify.com/collections/hill-stations-near-mysore",
        "placeName": "Mysore",
        "category": "Travel"
      },
      {
        "title": "Hill Stations Near Punjab For A Cozy Getaway",
        "url": "https://www.holidify.com/collections/hill-stations-near-punjab",
        "placeName": "Punjab",
        "category": "Travel"
      },
      {
        "title": "Hill Stations In Sikkim For A Perfect Getaway",
        "url": "https://www.holidify.com/collections/hill-stations-in-sikkim",
        "placeName": "Sikkim",
        "category": "Travel"
      },
      {
        "title": "Hill Stations near Shimla for an Extended Vacation",
        "url": "https://www.holidify.com/collections/hill-stations-near-shimla",
        "placeName": "Shimla",
        "category": "Travel"
      },
      {
        "title": "Beautiful Hill Stations in Rajasthan",
        "url": "https://www.holidify.com/collections/hill-stations-in-rajasthan",
        "placeName": "Rajasthan",
        "category": "Travel"
      },
      {
        "title": "Hill Stations in Himachal Pradesh For A Cool Himalayan Getaway",
        "url": "https://www.holidify.com/collections/hill-stations-in-himachal-pradesh",
        "placeName": "Himachal Pradesh",
        "category": "Travel"
      },
      {
        "title": "Hill Stations Near Haridwar To Escape The Summer Heat",
        "url": "https://www.holidify.com/collections/hill-stations-near-haridwar",
        "placeName": "Haridwar",
        "category": "Travel"
      },
      {
        "title": "Hill Stations near Kanpur",
        "url": "https://www.holidify.com/collections/hill-stations-near-kanpur",
        "placeName": "Kanpur",
        "category": "Travel"
      },
      {
        "title": "Things to Do in Cherrapunji",
        "url": "https://www.holidify.com/collections/things-to-do-in-cherrapunji",
        "placeName": "Cherrapunji",
        "category": "Things To Do"
      },
      {
        "title": "Things to Do in Palakkad",
        "url": "https://www.holidify.com/collections/things-to-do-in-palakkad",
        "placeName": "Palakkad",
        "category": "Things To Do"
      },
      {
        "title": "Things to Do in Patnitop",
        "url": "https://www.holidify.com/collections/things-to-do-in-patnitop",
        "placeName": "Patnitop",
        "category": "Things To Do"
      },
      {
        "title": "Things to Do in Solan",
        "url": "https://www.holidify.com/collections/things-to-do-in-solan",
        "placeName": "Solan",
        "category": "Things To Do"
      },
      {
        "title": "Things to Do in Saputara",
        "url": "https://www.holidify.com/collections/things-to-do-in-saputara",
        "placeName": "Saputara",
        "category": "Things To Do"
      },
      {
        "title": "Things to Do in Mashobra",
        "url": "https://www.holidify.com/collections/things-to-do-in-mashobra",
        "placeName": "Mashobra",
        "category": "Things To Do"
      },
      {
        "title": "Things to Do in Bhimtal",
        "url": "https://www.holidify.com/collections/things-to-do-in-bhimtal",
        "placeName": "Bhimtal",
        "category": "Things To Do"
      },
      {
        "title": "Things to Do in Lavasa",
        "url": "https://www.holidify.com/collections/things-to-do-in-lavasa",
        "placeName": "Lavasa",
        "category": "Things To Do"
      },
      {
        "title": "Things to Do in Vagamon",
        "url": "https://www.holidify.com/collections/things-to-do-in-vagamon",
        "placeName": "Vagamon",
        "category": "Things To Do"
      },
      {
        "title": "Things to Do in Sakleshpur",
        "url": "https://www.holidify.com/collections/things-to-do-in-sakleshpur",
        "placeName": "Sakleshpur",
        "category": "Things To Do"
      },
      {
        "title": "Things to Do in Coonoor",
        "url": "https://www.holidify.com/collections/things-to-do-in-coonoor",
        "placeName": "Coonoor",
        "category": "Things To Do"
      },
      {
        "title": "Things to Do in Yercaud",
        "url": "https://www.holidify.com/collections/things-to-do-in-yercaud",
        "placeName": "Yercaud",
        "category": "Things To Do"
      },
      {
        "title": "Things to Do in Kufri",
        "url": "https://www.holidify.com/collections/things-to-do-in-kufri",
        "placeName": "Kufri",
        "category": "Things To Do"
      },
      {
        "title": "Things to Do in Mount Abu",
        "url": "https://www.holidify.com/collections/things-to-do-in-mount-abu",
        "placeName": "Mount Abu",
        "category": "Things To Do"
      },
      {
        "title": "Places to Visit in Western Ghats for the Perfect Weekend Escape",
        "url": "https://www.holidify.com/collections/places-to-visit-in-western-ghats",
        "placeName": "Western Ghats",
        "category": "Travel"
      },
      {
        "title": "Best Places for Trekking in Bangalore To Work Up A Sweat!",
        "url": "https://www.holidify.com/collections/trekking-in-bangalore",
        "placeName": "Bangalore",
        "category": "Things To Do"
      },
      {
        "title": "Mountains in Mauritius to Explore",
        "url": "https://www.holidify.com/collections/mountains-in-mauritius",
        "placeName": "Mauritius",
        "category": "Travel"
      },
      {
        "title": "Hill stations near Kathmandu",
        "url": "https://www.holidify.com/collections/hill-stations-near-kathmandu",
        "placeName": "Kathmandu",
        "category": "Travel"
      },
      {
        "title": "Treks in Western Ghat",
        "url": "https://www.holidify.com/collections/treks-in-western-ghat",
        "placeName": "Western Ghat",
        "category": "Things To Do"
      },
      {
        "title": "Toughest Treks In India For The Ultimate Challenge",
        "url": "https://www.holidify.com/collections/toughest-treks-in-india",
        "placeName": "India",
        "category": "Things To Do"
      },
      {
        "title": "Hill Stations near Ahmedabad to Cool Off During This Summer",
        "url": "https://www.holidify.com/collections/hill-stations-near-ahmedabad",
        "placeName": "Ahmedabad",
        "category": "Travel"
      },
      {
        "title": "Hill Stations Near Nagpur",
        "url": "https://www.holidify.com/collections/hill-stations-near-nagpur",
        "placeName": "Nagpur",
        "category": "Travel"
      },
      {
        "title": "A Hippie?s Guide To The Parvati Valley Trek",
        "url": "https://www.holidify.com/collections/parvati-valley-trek",
        "placeName": "Parvati Valley",
        "category": "Things To Do"
      },
      {
        "title": "Places To Visit Near Delhi In December | Short Winter Trips From Delhi",
        "url": "https://www.holidify.com/collections/places-to-visit-near-delhi-in-december",
        "placeName": "Delhi",
        "category": "Travel"
      },
      {
        "title": "Best Hill Stations in India with Snowfall",
        "url": "https://www.holidify.com/collections/hill-stations-in-india-with-snowfall",
        "placeName": "India",
        "category": "Travel"
      },
      {
        "title": "Hill Stations near Patna",
        "url": "https://www.holidify.com/collections/hill-stations-near-patna",
        "placeName": "Patna",
        "category": "Travel"
      },
      {
        "title": "Hill Stations Near Jalandhar To Escape The Summer Heat",
        "url": "https://www.holidify.com/collections/hill-stations-near-jalandhar",
        "placeName": "Jalandhar",
        "category": "Travel"
      },
      {
        "title": "Hill Stations near Jaipur",
        "url": "https://www.holidify.com/collections/hill-stations-near-jaipur",
        "placeName": "Jaipur",
        "category": "Travel"
      },
      {
        "title": "Hill Stations Near Madhya Pradesh",
        "url": "https://www.holidify.com/collections/hill-stations-near-madhya-pradesh",
        "placeName": "Madhya Pradesh",
        "category": "Travel"
      },
      {
        "title": "Hill Stations Near Indore For A Misty Getaway",
        "url": "https://www.holidify.com/collections/hill-stations-near-indore",
        "placeName": "Indore",
        "category": "Travel"
      },
      {
        "title": "Hill Stations Near Kolkata For A Quick Summer Getaway",
        "url": "https://www.holidify.com/collections/hill-stations-near-kolkata",
        "placeName": "Kolkata",
        "category": "Travel"
      },
      {
        "title": "Hill Stations Near Hyderabad For A Perfect Break",
        "url": "https://www.holidify.com/collections/hill-stations-near-hyderabad",
        "placeName": "Hyderabad",
        "category": "Travel"
      },
      {
        "title": "Treks in Maharashtra To Explore The Forests Of Western Ghats",
        "url": "https://www.holidify.com/collections/treks-in-maharashtra",
        "placeName": "Maharashtra",
        "category": "Things To Do"
      },
      {
        "title": "Amazing Places For Trekking in Kerala Through The Western Ghats",
        "url": "https://www.holidify.com/collections/trekking-in-kerala",
        "placeName": "Kerala",
        "category": "Things To Do"
      },
      {
        "title": "Places for Trekking in Uttarakhand For A Mesmerising Himalayan Adventure",
        "url": "https://www.holidify.com/collections/trekking-in-uttarakhand",
        "placeName": "Uttarakhand",
        "category": "Things To Do"
      },
      {
        "title": "Top Hill Stations in Maharashtra",
        "url": "https://www.holidify.com/collections/hill-stations-in-maharashtra",
        "placeName": "Maharashtra",
        "category": "Travel"
      },
      {
        "title": "Manali in Winters - The Complete Guide",
        "url": "https://www.holidify.com/pages/manali-in-winters-6262.html",
        "placeName": "Manali",
        "category": "Travel"
      },
      {
        "title": "Best Beaches in Varkala",
        "url": "https://www.holidify.com/collections/beaches-in-varkala",
        "placeName": "Varkala",
        "category": "Travel"
      },
      {
        "title": "Beaches in Kovalam ? Complete Guide to Lighthouse, Samudra, and Hidden Shores",
        "url": "https://www.holidify.com/collections/beaches-in-kovalam",
        "placeName": "Kovalam",
        "category": "Travel"
      },
      {
        "title": "Beaches in Iceland",
        "url": "https://www.holidify.com/collections/beaches-in-iceland",
        "placeName": "Iceland",
        "category": "Travel"
      },
      {
        "title": "Black Beaches in Iceland",
        "url": "https://www.holidify.com/collections/black-beaches-in-iceland",
        "placeName": "Iceland",
        "category": "Travel"
      },
      {
        "title": "Best Beaches in Malta",
        "url": "https://www.holidify.com/collections/beaches-in-malta",
        "placeName": "Malta",
        "category": "Travel"
      },
      {
        "title": "Best Islands in Spain to Visit This Summer",
        "url": "https://www.holidify.com/collections/islands-in-Switzerland",
        "placeName": "Spain",
        "category": "Travel"
      },
      {
        "title": "Beaches in Europe ? Stunning Coastal Destinations to Visit",
        "url": "https://www.holidify.com/collections/beaches-in-europe",
        "placeName": "Europe",
        "category": "Travel"
      },
      {
        "title": "Bluest Beaches in Europe You Need to See to Believe",
        "url": "https://www.holidify.com/collections/bluest-beaches-in-europe",
        "placeName": "Europe",
        "category": "Travel"
      },
      {
        "title": "Best Beaches in Portugal",
        "url": "https://www.holidify.com/collections/beaches-in-portugal",
        "placeName": "Portugal",
        "category": "Travel"
      },
      {
        "title": "Best Beaches in Germany to Visit This Summer",
        "url": "https://www.holidify.com/collections/beaches-in-germany",
        "placeName": "Germany",
        "category": "Travel"
      },
      {
        "title": "Top Beaches in West India",
        "url": "https://www.holidify.com/collections/best-beaches-in-west-india",
        "placeName": "West India",
        "category": "Travel"
      },
      {
        "title": "Top Beaches in South India For A Perfect Beachside Vacation",
        "url": "https://www.holidify.com/collections/best-beaches-in-south-india",
        "placeName": "South India",
        "category": "Travel"
      },
      {
        "title": "Top Beaches in East India For A Perfect Beachside Vacation",
        "url": "https://www.holidify.com/collections/best-beaches-in-east-india",
        "placeName": "East India",
        "category": "Travel"
      },
      {
        "title": "Islands near Bali",
        "url": "https://www.holidify.com/collections/islands-near-bali",
        "placeName": "Bali",
        "category": "Travel"
      },
      {
        "title": "Best Destinations for Winter Sun - Winter Holiday Trips",
        "url": "https://www.holidify.com/collections/best-destinations-for-winter-sun",
        "placeName": "World",
        "category": "Travel"
      },
      {
        "title": "Beaches In Vietnam",
        "url": "https://www.holidify.com/collections/beaches-in-vietnam",
        "placeName": "Vietnam",
        "category": "Travel"
      },
      {
        "title": "Beaches in Dubai",
        "url": "https://www.holidify.com/collections/beaches-in-dubai",
        "placeName": "Dubai",
        "category": "Travel"
      },
      {
        "title": "Best Beaches in Thailand",
        "url": "https://www.holidify.com/collections/beaches-in-thailand",
        "placeName": "Thailand",
        "category": "Travel"
      },
      {
        "title": "Most Beautiful Beaches In Phuket",
        "url": "https://www.holidify.com/collections/beaches-in-phuket",
        "placeName": "Phuket",
        "category": "Travel"
      },
      {
        "title": "Best Beaches Near Bangkok for a Perfect Beachside Getaway",
        "url": "https://www.holidify.com/collections/beaches-near-bangkok",
        "placeName": "Bangkok",
        "category": "Travel"
      },
      {
        "title": "Best Beaches In Mauritius For A Perfect Vacation",
        "url": "https://www.holidify.com/collections/beaches-in-mauritius",
        "placeName": "Mauritius",
        "category": "Travel"
      },
      {
        "title": "Islands In & Near Krabi to Visit on a Day Trip",
        "url": "https://www.holidify.com/collections/islands-in-krabi",
        "placeName": "Krabi",
        "category": "Travel"
      },
      {
        "title": "Mesmerizing Beaches in Kollam for a Perfect Beachside Vacation",
        "url": "https://www.holidify.com/collections/beaches-in-kollam",
        "placeName": "Kollam",
        "category": "Travel"
      },
      {
        "title": "Places to Visit near Kochi for the Perfect Weekend Getaway",
        "url": "https://www.holidify.com/collections/places-to-visit-near-kochi",
        "placeName": "Kochi",
        "category": "Travel"
      },
      {
        "title": "Most Beautiful Islands of India for a Perfect Vacay",
        "url": "https://www.holidify.com/collections/islands-of-india",
        "placeName": "India",
        "category": "Travel"
      },
      {
        "title": "Beaches in Georgia: Experience the Coastal Charm",
        "url": "https://www.holidify.com/collections/beaches-in-georgia",
        "placeName": "Georgia",
        "category": "Travel"
      },
      {
        "title": "Beaches in Kazakhstan for a Perfect Summer Getaway",
        "url": "https://www.holidify.com/collections/beaches-in-kazakhstan",
        "placeName": "Kazakhstan",
        "category": "Travel"
      },
      {
        "title": "Islands In & Near Mombasa",
        "url": "https://www.holidify.com/collections/islands-in-mombasa",
        "placeName": "Mombasa",
        "category": "Travel"
      },
      {
        "title": "Spectacular Beaches in Christchurch for a Fantastic Beachside Trip",
        "url": "https://www.holidify.com/collections/beaches-in-christchurch",
        "placeName": "Christchurch",
        "category": "Travel"
      },
      {
        "title": "Best Beaches in Netherlands",
        "url": "https://www.holidify.com/collections/beaches-in-netherlands",
        "placeName": "Netherlands",
        "category": "Travel"
      },
      {
        "title": "Best Beaches in Spain",
        "url": "https://www.holidify.com/collections/beaches-in-spain",
        "placeName": "Spain",
        "category": "Travel"
      },
      {
        "title": "Best Beaches in Switzerland",
        "url": "https://www.holidify.com/collections/beaches-in-switzerland",
        "placeName": "Switzerland",
        "category": "Travel"
      },
      {
        "title": "Best Islands in Netherlands",
        "url": "https://www.holidify.com/collections/island-in-netherlands",
        "placeName": "Netherlands",
        "category": "Travel"
      },
      {
        "title": "Best Beaches in Greece",
        "url": "https://www.holidify.com/collections/beaches-in-greece",
        "placeName": "Greece",
        "category": "Travel"
      },
      {
        "title": "Beaches In Baku: Relaxing Abodes In The City",
        "url": "https://www.holidify.com/collections/beaches-in-baku",
        "placeName": "Baku",
        "category": "Travel"
      },
      {
        "title": "Beaches In Azerbaijan For The Best Caspian Sea Experience",
        "url": "https://www.holidify.com/collections/beaches-in-azerbaijan",
        "placeName": "Azerbaijan",
        "category": "Travel"
      },
      {
        "title": "Best Islands in France",
        "url": "https://www.holidify.com/collections/islands-in-france",
        "placeName": "France",
        "category": "Travel"
      },
      {
        "title": "Islands in Italy For a Dreamy Holiday",
        "url": "https://www.holidify.com/collections/island-in-italy",
        "placeName": "Italy",
        "category": "Travel"
      },
      {
        "title": "Best Beaches in Italy to Visit This Summer",
        "url": "https://www.holidify.com/collections/beaches-in-italy",
        "placeName": "Italy",
        "category": "Travel"
      },
      {
        "title": "Best Beaches in France",
        "url": "https://www.holidify.com/collections/beaches-in-france",
        "placeName": "France",
        "category": "Travel"
      },
      {
        "title": "Beaches in Turkey",
        "url": "https://www.holidify.com/collections/beaches-in-turkey",
        "placeName": "Turkey",
        "category": "Travel"
      },
      {
        "title": "Beaches in Sharm El Sheikh",
        "url": "https://www.holidify.com/collections/beaches-in-sharm-el-sheikh",
        "placeName": "Sharm El Sheikh",
        "category": "Travel"
      },
      {
        "title": "Beaches in Hurghada",
        "url": "https://www.holidify.com/collections/beaches-in-hurghada",
        "placeName": "Hurghada",
        "category": "Travel"
      },
      {
        "title": "Beaches in Philippines",
        "url": "https://www.holidify.com/collections/beaches-in-philippines",
        "placeName": "Philippines",
        "category": "Travel"
      },
      {
        "title": "Islands in Kenya",
        "url": "https://www.holidify.com/collections/islands-in-kenya",
        "placeName": "Kenya",
        "category": "Travel"
      },
      {
        "title": "Beaches in Malindi",
        "url": "https://www.holidify.com/collections/beaches-in-malindi",
        "placeName": "Malindi",
        "category": "Travel"
      },
      {
        "title": "Blue Flag Beaches in India",
        "url": "https://www.holidify.com/collections/blue-flag-beaches-in-india",
        "placeName": "India",
        "category": "Travel"
      },
      {
        "title": "Beaches in Oman",
        "url": "https://www.holidify.com/collections/beaches-in-oman",
        "placeName": "Oman",
        "category": "Travel"
      },
      {
        "title": "Beaches in Bali for the Coastal Charm",
        "url": "https://www.holidify.com/collections/beaches-in-bali",
        "placeName": "Bali",
        "category": "Travel"
      },
      {
        "title": "Beaches Near Kuala Lumpur",
        "url": "https://www.holidify.com/collections/beaches-near-kuala-lumpur",
        "placeName": "Kuala Lumpur",
        "category": "Travel"
      },
      {
        "title": "Things to Do In Indonesia",
        "url": "https://www.holidify.com/collections/things-to-do-in-indonesia",
        "placeName": "Indonesia",
        "category": "Things To Do"
      },
      {
        "title": "Diu Beaches for a Relaxing Vacation",
        "url": "https://www.holidify.com/collections/beaches-in-diu",
        "placeName": "Diu",
        "category": "Travel"
      },
      {
        "title": "Beaches near Coimbatore for a Perfect Beachside Vacation",
        "url": "https://www.holidify.com/collections/beaches-near-coimbatore",
        "placeName": "Coimbatore",
        "category": "Travel"
      },
      {
        "title": "Best Beaches near Ahmedabad For the Perfect Coastal Escape",
        "url": "https://www.holidify.com/collections/beaches-near-ahmedabad",
        "placeName": "Ahmedabad",
        "category": "Travel"
      },
      {
        "title": "Breathtaking Beaches near Surat That Are a Must-visit",
        "url": "https://www.holidify.com/collections/beaches-near-surat",
        "placeName": "Surat",
        "category": "Travel"
      },
      {
        "title": "Beaches in Paihia Perfect for a Relaxing Getaway",
        "url": "https://www.holidify.com/collections/beaches-in-paihia",
        "placeName": "Paihia",
        "category": "Travel"
      },
      {
        "title": "Islands in Cambodia",
        "url": "https://www.holidify.com/collections/islands-in-cambodia",
        "placeName": "Cambodia",
        "category": "Travel"
      },
      {
        "title": "Best Beaches in Crete",
        "url": "https://www.holidify.com/collections/beaches-in-crete",
        "placeName": "Crete",
        "category": "Travel"
      },
      {
        "title": "Beaches Near Hanoi",
        "url": "https://www.holidify.com/collections/beaches-in-hanoi",
        "placeName": "Hanoi",
        "category": "Travel"
      },
      {
        "title": "Beaches in Hoi An",
        "url": "https://www.holidify.com/collections/beaches-in-hoi-an",
        "placeName": "Hoi An",
        "category": "Travel"
      },
      {
        "title": "Beaches in Da Nang",
        "url": "https://www.holidify.com/collections/beaches-in-danang",
        "placeName": "Da Nang",
        "category": "Travel"
      },
      {
        "title": "Best Beaches in Hua Hin To Visit",
        "url": "https://www.holidify.com/collections/beaches-in-hua-hin",
        "placeName": "Hua Hin",
        "category": "Travel"
      },
      {
        "title": "Amazing Beaches in Sihanoukville You Should Head To",
        "url": "https://www.holidify.com/collections/beaches-in-sihanoukville",
        "placeName": "Sihanoukville",
        "category": "Travel"
      },
      {
        "title": "Surreal Beaches near Kochi for a Perfect Getaway",
        "url": "https://www.holidify.com/collections/beaches-near-kochi",
        "placeName": "Kochi",
        "category": "Travel"
      },
      {
        "title": "Gorgeous Beaches in Malvan",
        "url": "https://www.holidify.com/collections/beaches-in-malvan",
        "placeName": "Malvan",
        "category": "Travel"
      },
      {
        "title": "Idyllic Beaches near Munnar for a Perfect Beachside Vacay",
        "url": "https://www.holidify.com/collections/beaches-near-munnar",
        "placeName": "Munnar",
        "category": "Travel"
      },
      {
        "title": "Beaches in Digha for a Leisurely Vacation",
        "url": "https://www.holidify.com/collections/beaches-in-digha",
        "placeName": "Digha",
        "category": "Travel"
      },
      {
        "title": "Beautiful Beaches in Krabi",
        "url": "https://www.holidify.com/collections/beaches-in-krabi",
        "placeName": "Krabi",
        "category": "Travel"
      },
      {
        "title": "Beaches in Trincomalee",
        "url": "https://www.holidify.com/collections/beaches-in-trincomalee",
        "placeName": "Trincomalee",
        "category": "Travel"
      },
      {
        "title": "Beaches in Andaman Islands For A Sun-Kissed Vacation",
        "url": "https://www.holidify.com/collections/beaches-in-andaman",
        "placeName": "Andaman Islands",
        "category": "Travel"
      },
      {
        "title": "Beaches in Bentota For A Sea, Sun and Surf",
        "url": "https://www.holidify.com/collections/beaches-in-bentota",
        "placeName": "Bentota",
        "category": "Travel"
      },
      {
        "title": "Beautiful Beaches in Puri",
        "url": "https://www.holidify.com/collections/beaches-in-puri",
        "placeName": "Puri",
        "category": "Travel"
      },
      {
        "title": "Amazing Beaches in Vizag",
        "url": "https://www.holidify.com/collections/beaches-in-vizag",
        "placeName": "Vizag",
        "category": "Travel"
      },
      {
        "title": "6 Amazing Beaches in Kanyakumari Worth Visiting",
        "url": "https://www.holidify.com/collections/beaches-in-kanyakumari",
        "placeName": "Kanyakumari",
        "category": "Travel"
      },
      {
        "title": "Beaches in Alibaug for the Ideal Beachside Vacation",
        "url": "https://www.holidify.com/collections/beaches-in-alibag",
        "placeName": "Alibaug",
        "category": "Travel"
      },
      {
        "title": "Amazing Beaches in Mangalore",
        "url": "https://www.holidify.com/collections/beaches-in-mangalore",
        "placeName": "Mangalore",
        "category": "Travel"
      },
      {
        "title": "Beaches in Koh Samui",
        "url": "https://www.holidify.com/collections/beaches-in-koh-samui",
        "placeName": "Koh Samui",
        "category": "Travel"
      },
      {
        "title": "Beaches in Indonesia",
        "url": "https://www.holidify.com/collections/beaches-in-indonesia",
        "placeName": "Indonesia",
        "category": "Travel"
      },
      {
        "title": "Islands of Indonesia",
        "url": "https://www.holidify.com/collections/islands-of-indonesia",
        "placeName": "Indonesia",
        "category": "Travel"
      },
      {
        "title": "Best Beaches in Alleppey",
        "url": "https://www.holidify.com/collections/beaches-in-alleppey",
        "placeName": "Alleppey",
        "category": "Travel"
      },
      {
        "title": "Islands in Vietnam",
        "url": "https://www.holidify.com/collections/islands-in-vietnam",
        "placeName": "Vietnam",
        "category": "Travel"
      },
      {
        "title": "Places to Visit in Asia #BeforeIDie",
        "url": "https://www.holidify.com/collections/places-to-visit-in-asia",
        "placeName": "Asia",
        "category": "Travel"
      },
      {
        "title": "Beaches in Colombo for a Fun Time",
        "url": "https://www.holidify.com/collections/beaches-in-colombo",
        "placeName": "Colombo",
        "category": "Travel"
      },
      {
        "title": "Amazing Beaches in Pondicherry",
        "url": "https://www.holidify.com/collections/beaches-in-pondicherry",
        "placeName": "Pondicherry",
        "category": "Travel"
      },
      {
        "title": "Beaches in Sri Lanka",
        "url": "https://www.holidify.com/collections/beaches-in-sri-lanka",
        "placeName": "Sri Lanka",
        "category": "Travel"
      },
      {
        "title": "Beautiful Beaches in Mahe",
        "url": "https://www.holidify.com/collections/beaches-in-mahe",
        "placeName": "Mahe",
        "category": "Travel"
      },
      {
        "title": "Beaches in Daman That You Should Visit On Your Next Trip",
        "url": "https://www.holidify.com/collections/beaches-in-daman",
        "placeName": "Daman",
        "category": "Travel"
      },
      {
        "title": "Beaches in Malaysia",
        "url": "https://www.holidify.com/collections/beaches-in-malaysia",
        "placeName": "Malaysia",
        "category": "Travel"
      },
      {
        "title": "Beaches in Trivandrum for a Sun-kissed Getaway",
        "url": "https://www.holidify.com/collections/beaches-in-trivandrum",
        "placeName": "Trivandrum",
        "category": "Travel"
      },
      {
        "title": "Best Beaches in Odisha That Travellers Should Know Of",
        "url": "https://www.holidify.com/collections/beaches-in-odisha",
        "placeName": "Odisha",
        "category": "Travel"
      },
      {
        "title": "Beaches in Galle",
        "url": "https://www.holidify.com/collections/beaches-in-galle",
        "placeName": "Galle",
        "category": "Travel"
      },
      {
        "title": "Best Beaches in Chennai",
        "url": "https://www.holidify.com/collections/beaches-in-chennai",
        "placeName": "Chennai",
        "category": "Travel"
      },
      {
        "title": "Islands of Maldives",
        "url": "https://www.holidify.com/collections/islands-of-maldives",
        "placeName": "Maldives",
        "category": "Travel"
      },
      {
        "title": "Beaches Near Bangalore for a Perfect Beach Escape",
        "url": "https://www.holidify.com/collections/beaches-near-bangalore",
        "placeName": "Bangalore",
        "category": "Travel"
      },
      {
        "title": "Best Beaches Near Mumbai That Every Tourist Must Visit",
        "url": "https://www.holidify.com/collections/beaches-near-mumbai",
        "placeName": "Mumbai",
        "category": "Travel"
      },
      {
        "title": "Best Beaches in Abu Dhabi",
        "url": "https://www.holidify.com/collections/beaches-in-abu-dhabi",
        "placeName": "Abu Dhabi",
        "category": "Travel"
      },
      {
        "title": "Best Beaches in India For A Perfect Beachside Vacation",
        "url": "https://www.holidify.com/collections/best-beaches-in-india",
        "placeName": "India",
        "category": "Travel"
      },
      {
        "title": "Water Sports in Bali",
        "url": "https://www.holidify.com/collections/water-sports-in-bali",
        "placeName": "Bali",
        "category": "Things To Do"
      },
      {
        "title": "Islands in Bali",
        "url": "https://www.holidify.com/collections/islands-in-bali",
        "placeName": "Bali",
        "category": "Travel"
      },
      {
        "title": "Best Gujarat Beaches For A Perfect Beachside Vacation",
        "url": "https://www.holidify.com/collections/best-beaches-in-gujarat",
        "placeName": "Gujarat",
        "category": "Travel"
      },
      {
        "title": "34 Best Beaches in Kerala That Every Traveller Must Visit",
        "url": "https://www.holidify.com/collections/best-beaches-in-kerala",
        "placeName": "Kerala",
        "category": "Travel"
      },
      {
        "title": "Beaches in Konkan For An Exciting Western India Getaway",
        "url": "https://www.holidify.com/collections/beaches-in-konkan",
        "placeName": "Konkan",
        "category": "Travel"
      },
      {
        "title": "Maharashtra Beaches For A Perfect Beachside Vacation",
        "url": "https://www.holidify.com/collections/best-beaches-in-maharashtra",
        "placeName": "Maharashtra",
        "category": "Travel"
      },
      {
        "title": "Best Beaches in Mumbai",
        "url": "https://www.holidify.com/collections/beaches-in-mumbai",
        "placeName": "Mumbai",
        "category": "Travel"
      },
      {
        "title": "Best Beaches in Karnataka",
        "url": "https://www.holidify.com/collections/beaches-in-karnataka",
        "placeName": "Karnataka",
        "category": "Travel"
      },
      {
        "title": "Casinos in Goa",
        "url": "https://www.holidify.com/collections/casinos-in-goa",
        "placeName": "Goa",
        "category": "Music & Nightlife"
      },
      {
        "title": "Best Beaches In Goa for a Great Time in the Sun",
        "url": "https://www.holidify.com/collections/beaches-in-goa",
        "placeName": "Goa",
        "category": "Travel"
      },
      {
        "title": "Best Beaches in North Goa",
        "url": "https://www.holidify.com/collections/beaches-in-north-goa",
        "placeName": "North Goa",
        "category": "Travel"
      },
      {
        "title": "Beaches in South Goa For A Perfect Beach Holiday",
        "url": "https://www.holidify.com/collections/beaches-in-south-goa",
        "placeName": "South Goa",
        "category": "Travel"
      },
      {
        "title": "Top Beaches in Andhra Pradesh For A Perfect Beachside Vacation",
        "url": "https://www.holidify.com/collections/best-beaches-in-andhra-pradesh",
        "placeName": "Andhra Pradesh",
        "category": "Travel"
      },
      {
        "title": "Best Beaches in West Bengal That Every Traveller Should Visit",
        "url": "https://www.holidify.com/collections/best-beaches-in-west-bengal",
        "placeName": "West Bengal",
        "category": "Travel"
      },
      {
        "title": "Best Beaches in Havelock Island",
        "url": "https://www.holidify.com/collections/best-beaches-in-havelock",
        "placeName": "Havelock Island",
        "category": "Travel"
      },
      {
        "title": "Things to Do in Andaman",
        "url": "https://www.holidify.com/collections/things-to-do-in-andaman",
        "placeName": "Andaman",
        "category": "Things To Do"
      },
      {
        "title": "Best Islands in Andaman & Nicobar Islands",
        "url": "https://www.holidify.com/collections/islands-of-andaman",
        "placeName": "Andaman & Nicobar Islands",
        "category": "Travel"
      },
      {
        "title": "Beautiful Places in Indonesia That Every Traveller Must Vsiit",
        "url": "https://www.holidify.com/collections/beautiful-places-in-indonesia",
        "placeName": "Indonesia",
        "category": "Travel"
      },
      {
        "title": "Best Beaches in Kenya",
        "url": "https://www.holidify.com/collections/beaches-in-kenya",
        "placeName": "Kenya",
        "category": "Travel"
      },
      {
        "title": "Beautiful Islands in Goa",
        "url": "https://www.holidify.com/collections/islands-in-goa",
        "placeName": "Goa",
        "category": "Travel"
      },
      {
        "title": "Islands in Tanzania",
        "url": "https://www.holidify.com/collections/islands-in-tanzania",
        "placeName": "Tanzania",
        "category": "Travel"
      },
      {
        "title": "Beaches in Tanzania",
        "url": "https://www.holidify.com/collections/beaches-in-tanzania",
        "placeName": "Tanzania",
        "category": "Travel"
      },
      {
        "title": "Beaches in Zanzibar",
        "url": "https://www.holidify.com/collections/beaches-in-zanzibar",
        "placeName": "Zanzibar",
        "category": "Travel"
      },
      {
        "title": "Beaches in Mombasa",
        "url": "https://www.holidify.com/collections/beaches-in-mombasa",
        "placeName": "Mombasa",
        "category": "Travel"
      },
      {
        "title": "Beaches in Nairobi",
        "url": "https://www.holidify.com/collections/beaches-in-nairobi",
        "placeName": "Nairobi",
        "category": "Travel"
      },
      {
        "title": "Top Beaches in Watamu",
        "url": "https://www.holidify.com/collections/beaches-in-watamu",
        "placeName": "Watamu",
        "category": "Travel"
      },
      {
        "title": "Best Beaches in Southeast Asia For An Exotic Holiday",
        "url": "https://www.holidify.com/collections/best-beaches-in-southeast-asia",
        "placeName": "Southeast Asia",
        "category": "Travel"
      },
      {
        "title": "Pristine Beaches in Thrissur for Vitamin Sea",
        "url": "https://www.holidify.com/collections/beaches-in-thrissur",
        "placeName": "Thrissur",
        "category": "Travel"
      },
      {
        "title": "Beautiful Islands near Bangkok",
        "url": "https://www.holidify.com/collections/islands-near-bangkok",
        "placeName": "Bangkok",
        "category": "Travel"
      },
      {
        "title": "Beautiful Beaches in Gokarna for a ScenicStay",
        "url": "https://www.holidify.com/collections/beaches-in-gokarna",
        "placeName": "Gokarna",
        "category": "Travel"
      },
      {
        "title": "Islands near Pattaya",
        "url": "https://www.holidify.com/collections/islands-near-pattaya",
        "placeName": "Pattaya",
        "category": "Travel"
      },
      {
        "title": "Beaches in Pattaya",
        "url": "https://www.holidify.com/collections/beaches-in-pattaya",
        "placeName": "Pattaya",
        "category": "Travel"
      },
      {
        "title": "Beautiful Islands in Dubai",
        "url": "https://www.holidify.com/collections/islands-in-dubai",
        "placeName": "Dubai",
        "category": "Travel"
      },
      {
        "title": "Beaches of Tamil Nadu For A Perfect Beachside Vacation",
        "url": "https://www.holidify.com/collections/beaches-of-tamil-nadu",
        "placeName": "Tamil Nadu",
        "category": "Travel"
      },
      {
        "title": "11 Surreal Beaches in Kochi for a Perfect Vacation",
        "url": "https://www.holidify.com/collections/beaches-in-kochi",
        "placeName": "Kochi",
        "category": "Travel"
      },
      {
        "title": "Beaches near Delhi for a Beachside Vacation",
        "url": "https://www.holidify.com/collections/beaches-near-delhi",
        "placeName": "Delhi",
        "category": "Travel"
      },
      {
        "title": "Most Beautiful Beaches in Maldives",
        "url": "https://www.holidify.com/collections/beaches-in-maldives",
        "placeName": "Maldives",
        "category": "Travel"
      },
      {
        "title": "Best Beaches in Adelaide",
        "url": "https://www.holidify.com/collections/beaches-in-adelaide",
        "placeName": "Adelaide",
        "category": "Travel"
      },
      {
        "title": "Beaches in Antalya",
        "url": "https://www.holidify.com/collections/beaches-in-antalya",
        "placeName": "Antalya",
        "category": "Travel"
      },
      {
        "title": "Best Beaches in Cape Town",
        "url": "https://www.holidify.com/collections/beaches-in-cape-town",
        "placeName": "Cape Town",
        "category": "Travel"
      },
      {
        "title": "Best Beaches in Mykonos",
        "url": "https://www.holidify.com/collections/beaches-in-mykonos",
        "placeName": "Mykonos",
        "category": "Travel"
      },
      {
        "title": "Best Beaches in Tel Aviv",
        "url": "https://www.holidify.com/collections/beaches-in-tel-aviv",
        "placeName": "Tel Aviv",
        "category": "Travel"
      },
      {
        "title": "Best Beaches in Santorini",
        "url": "https://www.holidify.com/collections/beaches-in-santorini",
        "placeName": "Santorini",
        "category": "Travel"
      },
      {
        "title": "Things to Do in Karwar",
        "url": "https://www.holidify.com/collections/things-to-do-in-karwar",
        "placeName": "Karwar",
        "category": "Things To Do"
      },
      {
        "title": "Things to Do in Dapoli",
        "url": "https://www.holidify.com/collections/things-to-do-in-dapoli",
        "placeName": "Dapoli",
        "category": "Things To Do"
      },
      {
        "title": "Things to Do in Malvan",
        "url": "https://www.holidify.com/collections/things-to-do-in-malvan",
        "placeName": "Malvan",
        "category": "Things To Do"
      },
      {
        "title": "Things to Do in Kannur",
        "url": "https://www.holidify.com/collections/things-to-do-in-kannur",
        "placeName": "Kannur",
        "category": "Things To Do"
      },
      {
        "title": "Things to Do in Ratnagiri",
        "url": "https://www.holidify.com/collections/things-to-do-in-ratnagiri",
        "placeName": "Ratnagiri",
        "category": "Things To Do"
      },
      {
        "title": "Things to Do in Diu",
        "url": "https://www.holidify.com/collections/things-to-do-in-diu",
        "placeName": "Diu",
        "category": "Things To Do"
      },
      {
        "title": "Things to Do in Puri",
        "url": "https://www.holidify.com/collections/things-to-do-in-puri",
        "placeName": "Puri",
        "category": "Things To Do"
      },
      {
        "title": "Things to Do in Kanyakumari",
        "url": "https://www.holidify.com/collections/things-to-do-in-kanyakumari",
        "placeName": "Kanyakumari",
        "category": "Things To Do"
      },
      {
        "title": "Things to Do in Mahabalipuram",
        "url": "https://www.holidify.com/collections/things-to-do-in-mahabalipuram",
        "placeName": "Mahabalipuram",
        "category": "Things To Do"
      },
      {
        "title": "Things to Do in Udupi",
        "url": "https://www.holidify.com/collections/things-to-do-in-udupi",
        "placeName": "Udupi",
        "category": "Things To Do"
      },
      {
        "title": "Things to Do in Daman",
        "url": "https://www.holidify.com/collections/things-to-do-in-daman",
        "placeName": "Daman",
        "category": "Things To Do"
      },
      {
        "title": "Things to Do in Mangalore",
        "url": "https://www.holidify.com/collections/things-to-do-in-mangalore",
        "placeName": "Mangalore",
        "category": "Things To Do"
      },
      {
        "title": "Beaches in Maui for the Perfect Beach Vacation",
        "url": "https://www.holidify.com/collections/beaches-in-maui",
        "placeName": "Maui",
        "category": "Travel"
      },
      {
        "title": "Islands of Miami",
        "url": "https://www.holidify.com/collections/islands-in-miami",
        "placeName": "Miami",
        "category": "Travel"
      },
      {
        "title": "Parks in Miami",
        "url": "https://www.holidify.com/collections/parks-in-miami",
        "placeName": "Miami",
        "category": "Travel"
      },
      {
        "title": "Islands in Maui: A Guide to Island Hopping in Maui",
        "url": "https://www.holidify.com/collections/islands-in-maui",
        "placeName": "Maui",
        "category": "Travel"
      },
      {
        "title": "Day trips from New York City",
        "url": "https://www.holidify.com/collections/day-trips-from-new-york-city",
        "placeName": "New York City",
        "category": "Things To Do"
      },
      {
        "title": "Road Trips From Seattle",
        "url": "https://www.holidify.com/collections/road-trips-from-seattle",
        "placeName": "Seattle",
        "category": "Things To Do"
      },
      {
        "title": "Free Things to Do in Seattle",
        "url": "https://www.holidify.com/collections/free-things-to-do-in-seattle",
        "placeName": "Seattle",
        "category": "Things To Do"
      },
      {
        "title": "Islands of Seattle",
        "url": "https://www.holidify.com/collections/islands-of-seattle",
        "placeName": "Seattle",
        "category": "Travel"
      },
      {
        "title": "Day Trips from Baltimore",
        "url": "https://www.holidify.com/collections/day-trips-from-baltimore",
        "placeName": "Baltimore",
        "category": "Things To Do"
      },
      {
        "title": "Weekend Getaways from Seattle",
        "url": "https://www.holidify.com/collections/weekend-getaways-from-seattle",
        "placeName": "Seattle",
        "category": "Things To Do"
      },
      {
        "title": "Beaches in Baltimore",
        "url": "https://www.holidify.com/collections/beaches-in-baltimore",
        "placeName": "Baltimore",
        "category": "Travel"
      },
      {
        "title": "Islands in Auckland",
        "url": "https://www.holidify.com/collections/islands-in-auckland",
        "placeName": "Auckland",
        "category": "Travel"
      },
      {
        "title": "Beaches in Coromandel",
        "url": "https://www.holidify.com/collections/beaches-in-coromandel",
        "placeName": "Coromandel",
        "category": "Travel"
      },
      {
        "title": "Beaches in Honolulu",
        "url": "https://www.holidify.com/collections/beaches-in-honolulu",
        "placeName": "Honolulu",
        "category": "Travel"
      },
      {
        "title": "Islands in Honolulu",
        "url": "https://www.holidify.com/collections/islands-in-honolulu",
        "placeName": "Honolulu",
        "category": "Travel"
      },
      {
        "title": "Best Islands in Puerto Rico for a Sun-Kissed Vacation",
        "url": "https://www.holidify.com/collections/islands-in-puerto-rico",
        "placeName": "Puerto Rico",
        "category": "Travel"
      },
      {
        "title": "Beaches in Puerto Rico",
        "url": "https://www.holidify.com/collections/beaches-in-puerto-rico",
        "placeName": "Puerto Rico",
        "category": "Travel"
      },
      {
        "title": "Beaches in Miami",
        "url": "https://www.holidify.com/collections/beaches-in-miami",
        "placeName": "Miami",
        "category": "Travel"
      },
      {
        "title": "Beaches in Orlando",
        "url": "https://www.holidify.com/collections/beaches-in-orlando",
        "placeName": "Orlando",
        "category": "Travel"
      },
      {
        "title": "Beautiful Beaches in Charleston",
        "url": "https://www.holidify.com/collections/beaches-in-charleston",
        "placeName": "Charleston",
        "category": "Travel"
      },
      {
        "title": "Best Beaches in Seattle",
        "url": "https://www.holidify.com/collections/beaches-in-seattle",
        "placeName": "Seattle",
        "category": "Travel"
      },
      {
        "title": "Top Beaches in Hamilton",
        "url": "https://www.holidify.com/collections/beaches-in-hamilton",
        "placeName": "Hamilton",
        "category": "Travel"
      },
      {
        "title": "Stunning Islands in San Francisco for a Refreshing Experience",
        "url": "https://www.holidify.com/collections/islands-in-san-francisco",
        "placeName": "San Francisco",
        "category": "Travel"
      },
      {
        "title": "Beautiful Lakes in Chicago",
        "url": "https://www.holidify.com/collections/lakes-in-chicago",
        "placeName": "Chicago",
        "category": "Travel"
      },
      {
        "title": "Beautiful Beaches in Koh Rong",
        "url": "https://www.holidify.com/collections/beaches-in-koh-rong",
        "placeName": "Koh Rong",
        "category": "Travel"
      },
      {
        "title": "Beaches in Cambodia",
        "url": "https://www.holidify.com/collections/beaches-in-cambodia",
        "placeName": "Cambodia",
        "category": "Travel"
      },
      {
        "title": "The Best Beaches Near New York City",
        "url": "https://www.holidify.com/collections/beaches-near-new-york-city",
        "placeName": "New York City",
        "category": "Travel"
      },
      {
        "title": "Best Beaches in San Diego | Sunny San Diego Beaches",
        "url": "https://www.holidify.com/collections/beaches-in-san-diego",
        "placeName": "San Diego",
        "category": "Travel"
      },
      {
        "title": "Beaches in Chicago",
        "url": "https://www.holidify.com/collections/beaches-in-chicago",
        "placeName": "Chicago",
        "category": "Travel"
      },
      {
        "title": "Beaches Near Dallas",
        "url": "https://www.holidify.com/collections/beaches-near-dallas",
        "placeName": "Dallas",
        "category": "Travel"
      },
      {
        "title": "The Best Beaches in New York City To Spend Time in The Sun",
        "url": "https://www.holidify.com/collections/beaches-in-new-york-city",
        "placeName": "New York City",
        "category": "Travel"
      },
      {
        "title": "Lakes in Houston",
        "url": "https://www.holidify.com/collections/lakes-in-houston",
        "placeName": "Houston",
        "category": "Travel"
      },
      {
        "title": "Top Rated Beaches in Houston",
        "url": "https://www.holidify.com/collections/beaches-in-houston",
        "placeName": "Houston",
        "category": "Travel"
      },
      {
        "title": "Beaches in Dallas",
        "url": "https://www.holidify.com/collections/beaches-in-dallas",
        "placeName": "Dallas",
        "category": "Travel"
      },
      {
        "title": "Lakes in Boston",
        "url": "https://www.holidify.com/collections/lakes-in-boston",
        "placeName": "Boston",
        "category": "Travel"
      },
      {
        "title": "Explore the Islands of Boston",
        "url": "https://www.holidify.com/collections/islands-of-boston",
        "placeName": "Boston",
        "category": "Travel"
      },
      {
        "title": "Top Rated Beaches Near Boston For Fun Day Out",
        "url": "https://www.holidify.com/collections/beaches-near-boston",
        "placeName": "Boston",
        "category": "Travel"
      },
      {
        "title": "Best Beaches in Boston for a Day Trip",
        "url": "https://www.holidify.com/collections/beaches-in-boston",
        "placeName": "Boston",
        "category": "Travel"
      },
      {
        "title": "Most Pristine White Sand Beaches in the World!",
        "url": "https://www.holidify.com/collections/white-sand-beaches",
        "placeName": "World",
        "category": "Travel"
      },
      {
        "title": "Islands Near Hong Kong",
        "url": "https://www.holidify.com/collections/islands-near-hong-kong",
        "placeName": "Hong Kong",
        "category": "Travel"
      },
      {
        "title": "Beautiful Beaches of Hong Kong",
        "url": "https://www.holidify.com/collections/beaches-in-hong-kong",
        "placeName": "Hong Kong",
        "category": "Travel"
      },
      {
        "title": "Islands in Hong Kong",
        "url": "https://www.holidify.com/collections/islands-in-hong-kong",
        "placeName": "Hong Kong",
        "category": "Travel"
      },
      {
        "title": "Spectacular Beaches in Wellington for Refreshing Getaway",
        "url": "https://www.holidify.com/collections/beaches-in-wellington",
        "placeName": "Wellington",
        "category": "Travel"
      },
      {
        "title": "Spectacular Islands in New Zealand for a Fantastic Holiday Vacay",
        "url": "https://www.holidify.com/collections/islands-in-new-zealand",
        "placeName": "New Zealand",
        "category": "Travel"
      },
      {
        "title": "Stunning Beaches in New Zealand for a Refreshing Short Trip",
        "url": "https://www.holidify.com/collections/beaches-in-new-zealand",
        "placeName": "New Zealand",
        "category": "Travel"
      },
      {
        "title": "Enticing Islands in Malaysia",
        "url": "https://www.holidify.com/collections/islands-in-malaysia",
        "placeName": "Malaysia",
        "category": "Travel"
      },
      {
        "title": "Most Fascinating Things to Do in Goa in December",
        "url": "https://www.holidify.com/collections/goa-in-december",
        "placeName": "Goa",
        "category": "Things To Do"
      },
      {
        "title": "Beaches in UAE",
        "url": "https://www.holidify.com/collections/beaches-in-uae",
        "placeName": "UAE",
        "category": "Travel"
      },
      {
        "title": "Ashrams In Goa For A Blissful Getaway!",
        "url": "https://www.holidify.com/collections/ashrams-in-goa",
        "placeName": "Goa",
        "category": "Travel"
      },
      {
        "title": "Beaches Near colombo",
        "url": "https://www.holidify.com/collections/beaches-near-colombo",
        "placeName": "Colombo",
        "category": "Travel"
      },
      {
        "title": "Beaches in Tangalle",
        "url": "https://www.holidify.com/collections/beaches-in-tangalle",
        "placeName": "Tangalle",
        "category": "Travel"
      },
      {
        "title": "Beaches in Negombo",
        "url": "https://www.holidify.com/collections/beaches-in-negombo",
        "placeName": "Negombo",
        "category": "Travel"
      },
      {
        "title": "Beaches in Hikkaduwa",
        "url": "https://www.holidify.com/collections/beaches-in-hikkaduwa",
        "placeName": "Hikkaduwa",
        "category": "Travel"
      },
      {
        "title": "Beaches in Jaffna",
        "url": "https://www.holidify.com/collections/beaches-in-jaffna",
        "placeName": "Jaffna",
        "category": "Travel"
      },
      {
        "title": "Beaches in Unawatuna",
        "url": "https://www.holidify.com/collections/beaches-in-unawatuna",
        "placeName": "Unawatuna",
        "category": "Travel"
      },
      {
        "title": "Beaches Near Ubud for the Perfect Beach Getaway",
        "url": "https://www.holidify.com/collections/beaches-in-ubud",
        "placeName": "Ubud",
        "category": "Travel"
      },
      {
        "title": "Best Beaches in Sanur to Get That Bali Tan",
        "url": "https://www.holidify.com/collections/beaches-in-sanur",
        "placeName": "Sanur",
        "category": "Travel"
      },
      {
        "title": "Beaches in Padang",
        "url": "https://www.holidify.com/collections/beaches-in-padang",
        "placeName": "Padang",
        "category": "Travel"
      },
      {
        "title": "Beaches in Lombok for a Sun-Kissed Escape",
        "url": "https://www.holidify.com/collections/beaches-in-lombok",
        "placeName": "Lombok",
        "category": "Travel"
      },
      {
        "title": "Beaches in Jakarta",
        "url": "https://www.holidify.com/collections/beaches-in-jakarta ",
        "placeName": "Jakarta",
        "category": "Travel"
      },
      {
        "title": "Beaches in Gili Trawangan",
        "url": "https://www.holidify.com/collections/beaches-in-gili-trawangan",
        "placeName": "Gili Trawangan",
        "category": "Travel"
      },
      {
        "title": "Beautiful Beaches In La Digue You'd Fall in Love With",
        "url": "https://www.holidify.com/collections/beaches-in-la-digue",
        "placeName": "La Digue",
        "category": "Travel"
      },
      {
        "title": "Islands In Mauritius For The Nature Lover In You",
        "url": "https://www.holidify.com/collections/islands-in-mauritius",
        "placeName": "Mauritius",
        "category": "Travel"
      },
      {
        "title": "Best Places for Solo Travelers",
        "url": "https://www.holidify.com/collections/destinations-fo-solo-travel-outside-india",
        "placeName": "World",
        "category": "Travel"
      },
      {
        "title": "Offbeat Things To Do in Goa",
        "url": "https://www.holidify.com/collections/offbeat-things-to-do-in-goa",
        "placeName": "Goa",
        "category": "Things To Do"
      },
      {
        "title": "Beaches in Mirissa For Spectacular Surfing And Sunsets",
        "url": "https://www.holidify.com/collections/beaches-in-mirissa",
        "placeName": "Mirissa",
        "category": "Travel"
      },
      {
        "title": "Beautiful Places in Sri Lanka For A Stunning Holiday",
        "url": "https://www.holidify.com/collections/beautiful-places-in-sri-lanka",
        "placeName": "Sri Lanka",
        "category": "Travel"
      },
      {
        "title": "Beaches in Ras Al Khaimah",
        "url": "https://www.holidify.com/collections/beaches-in-ras-al-khaimah",
        "placeName": "Ras Al Khaimah",
        "category": "Travel"
      },
      {
        "title": "Beaches in Sharjah",
        "url": "https://www.holidify.com/collections/beaches-in-sharjah",
        "placeName": "Sharjah",
        "category": "Travel"
      },
      {
        "title": "Beaches in Koh Lipe",
        "url": "https://www.holidify.com/collections/beaches-in-koh-lipe",
        "placeName": "Koh Lipe",
        "category": "Travel"
      },
      {
        "title": "Beaches in Ajman",
        "url": "https://www.holidify.com/collections/beaches-in-ajman",
        "placeName": "Ajman",
        "category": "Travel"
      },
      {
        "title": "Beaches in Khao Lak",
        "url": "https://www.holidify.com/collections/beaches-in-khao-lak",
        "placeName": "Khao Lak",
        "category": "Travel"
      },
      {
        "title": "Islands in UAE",
        "url": "https://www.holidify.com/collections/islands-in-uae",
        "placeName": "UAE",
        "category": "Travel"
      },
      {
        "title": "Beaches in Batam",
        "url": "https://www.holidify.com/collections/beaches-in-batam",
        "placeName": "Batam",
        "category": "Travel"
      },
      {
        "title": "Islands of Trang",
        "url": "https://www.holidify.com/collections/islands-of-trang",
        "placeName": "Trang",
        "category": "Travel"
      },
      {
        "title": "Beaches in Hue",
        "url": "https://www.holidify.com/collections/beaches-in-hue",
        "placeName": "Hue",
        "category": "Travel"
      },
      {
        "title": "Islands of Lombok",
        "url": "https://www.holidify.com/collections/islands-of-lombok",
        "placeName": "Lombok",
        "category": "Travel"
      },
      {
        "title": "Beaches in Koh Chang",
        "url": "https://www.holidify.com/collections/beaches-in-koh-chang",
        "placeName": "Koh Chang",
        "category": "Travel"
      },
      {
        "title": "Beaches in Koh Samet",
        "url": "https://www.holidify.com/collections/beaches-in-koh-samet",
        "placeName": "Koh Samet",
        "category": "Travel"
      },
      {
        "title": "Beaches in Koh Tao",
        "url": "https://www.holidify.com/collections/beaches-in-koh-tao",
        "placeName": "Koh Tao",
        "category": "Travel"
      },
      {
        "title": "Beaches in Fujairah",
        "url": "https://www.holidify.com/collections/beaches-in-fujairah",
        "placeName": "Fujairah",
        "category": "Travel"
      },
      {
        "title": "Beaches in Salalah For a Perfect Evening Under the Sun",
        "url": "https://www.holidify.com/collections/beaches-in-salalah",
        "placeName": "Salalah",
        "category": "Travel"
      },
      {
        "title": "Best Islands In Seychelles to Visit",
        "url": "https://www.holidify.com/collections/islands-in-seychelles",
        "placeName": "Seychelles",
        "category": "Travel"
      },
      {
        "title": "Beaches In Surabaya",
        "url": "https://www.holidify.com/collections/beaches-in-surabaya",
        "placeName": "Surabaya",
        "category": "Travel"
      },
      {
        "title": "Best Beaches in Seychelles",
        "url": "https://www.holidify.com/collections/beaches-in-seychelles",
        "placeName": "Seychelles",
        "category": "Travel"
      },
      {
        "title": "Hidden Beaches In Goa To Get Away From The Crowd",
        "url": "https://www.holidify.com/collections/hidden-beaches-in-Goa",
        "placeName": "Goa",
        "category": "Travel"
      },
      {
        "title": "Beaches near Madurai That You Ought to Visit",
        "url": "https://www.holidify.com/collections/beaches-near-madurai",
        "placeName": "Madurai",
        "category": "Travel"
      },
      {
        "title": "Beaches near Tirupati to Get Vitamin Sea",
        "url": "https://www.holidify.com/collections/beaches-near-tirupati",
        "placeName": "Tirupati",
        "category": "Travel"
      },
      {
        "title": "Beaches near Udupi for a Perfect Beachside Vacation",
        "url": "https://www.holidify.com/collections/beaches-near-udupi",
        "placeName": "Udupi",
        "category": "Travel"
      },
      {
        "title": "Surreal Beaches in Auroville That Redefine Peace and Tranquility",
        "url": "https://www.holidify.com/collections/beaches-in-auroville",
        "placeName": "Auroville",
        "category": "Travel"
      },
      {
        "title": "Beaches near Mangalore for an Idyllic Vacay",
        "url": "https://www.holidify.com/collections/beaches-near-mangalore",
        "placeName": "Mangalore",
        "category": "Travel"
      },
      {
        "title": "Best Beaches near Vijayawada to get Vitamin Sea",
        "url": "https://www.holidify.com/collections/beaches-near-vijayawada",
        "placeName": "Vijayawada",
        "category": "Travel"
      },
      {
        "title": "Beautiful Beaches near Alibag to Get Vitamin Sea",
        "url": "https://www.holidify.com/collections/beaches-near-alibag",
        "placeName": "Alibag",
        "category": "Travel"
      },
      {
        "title": "Best Beaches in Konark for a Peaceful Getaway",
        "url": "https://www.holidify.com/collections/beaches-in-konark",
        "placeName": "Konark",
        "category": "Travel"
      },
      {
        "title": "Pristine Beaches in Surat That Every Traveller Must Visit",
        "url": "https://www.holidify.com/collections/beaches-in-surat",
        "placeName": "Surat",
        "category": "Travel"
      },
      {
        "title": "Scenic Beaches in Udupi Nestled In The Western Ghats",
        "url": "https://www.holidify.com/collections/beaches-in-udupi",
        "placeName": "Udupi",
        "category": "Travel"
      },
      {
        "title": "Picturesque Beaches in Mahabalipuram for a Peaceful Getaway",
        "url": "https://www.holidify.com/collections/beaches-in-mahabalipuram",
        "placeName": "Mahabalipuram",
        "category": "Travel"
      },
      {
        "title": "Top Beaches in Kozhikode for a Laid-back Trip",
        "url": "https://www.holidify.com/collections/beaches-in-kozhikode",
        "placeName": "Kozhikode",
        "category": "Travel"
      },
      {
        "title": "Best Beaches in Tarkarli That Every Traveller Must Visit",
        "url": "https://www.holidify.com/collections/beaches-in-tarkarli",
        "placeName": "Tarkarli",
        "category": "Travel"
      },
      {
        "title": "Beaches near Bhubaneswar to Soak up the Coastal Beauty",
        "url": "https://www.holidify.com/collections/beaches-near-bhubaneswar",
        "placeName": "Bhubaneswar",
        "category": "Travel"
      },
      {
        "title": "Beaches Near Hyderabad For A Sandy Getaway",
        "url": "https://www.holidify.com/collections/beaches-near-hyderabad",
        "placeName": "Hyderabad",
        "category": "Travel"
      },
      {
        "title": "Beaches near Pune For A Perfect Weekend Getaway",
        "url": "https://www.holidify.com/collections/beaches-near-pune",
        "placeName": "Pune",
        "category": "Travel"
      },
      {
        "title": "Best Beaches Near Kolkata For A Quick Weekend Trip",
        "url": "https://www.holidify.com/collections/beaches-near-kolkata",
        "placeName": "Kolkata",
        "category": "Travel"
      },
      {
        "title": "Historical Places in Central India",
        "url": "https://www.holidify.com/collections/historical-places-in-central-india",
        "placeName": "Central India",
        "category": "Travel"
      },
      {
        "title": "Historical Places in South India For A Heritage Tour",
        "url": "https://www.holidify.com/collections/historical-places-in-south-india",
        "placeName": "South India",
        "category": "Travel"
      },
      {
        "title": "Historical Places in North India For A Beautiful Heritage Tour",
        "url": "https://www.holidify.com/collections/historical-places-in-north-india",
        "placeName": "North India",
        "category": "Travel"
      },
      {
        "title": "Historical Places in West India For A Stunning Heritage Tour",
        "url": "https://www.holidify.com/collections/historical-places-in-west-india",
        "placeName": "West India",
        "category": "Travel"
      },
      {
        "title": "Festivals in Puerto Rico to Experience the Authentic Local Culture",
        "url": "https://www.holidify.com/collections/festivals-in-puerto-rico",
        "placeName": "Puerto Rico",
        "category": "Things To Do"
      },
      {
        "title": "Archaeological Sites in India For A Quick History Recap",
        "url": "https://www.holidify.com/collections/archaeological-sites-in-india",
        "placeName": "India",
        "category": "Travel"
      },
      {
        "title": "Museums in Kazakhstan to Explore the Kazakh History",
        "url": "https://www.holidify.com/collections/museums-in-kazakhstan",
        "placeName": "Kazakhstan",
        "category": "Travel"
      },
      {
        "title": "New Year in Kazakhstan: 5 Things To Do",
        "url": "https://www.holidify.com/pages/new-year-in-kazakhstan-6907.html",
        "placeName": "Kazakhstan",
        "category": "Things To Do"
      },
      {
        "title": "Fascinating Art Galleries in Christchurch for an Artistic Holiday Vacay",
        "url": "https://www.holidify.com/collections/art-galleries-in-christchurch",
        "placeName": "Christchurch",
        "category": "Travel"
      },
      {
        "title": "Coolest Museums in Auckland for an Unforgettable Trip",
        "url": "https://www.holidify.com/collections/museums-in-auckland",
        "placeName": "Auckland",
        "category": "Travel"
      },
      {
        "title": "Art Galleries in Bali",
        "url": "https://www.holidify.com/collections/art-galleries-in-bali",
        "placeName": "Bali",
        "category": "Travel"
      },
      {
        "title": "Museums in Baku: Windows Into Azerbaijan's Past",
        "url": "https://www.holidify.com/collections/museums-in-baku",
        "placeName": "Baku",
        "category": "Travel"
      },
      {
        "title": "Best Museums in France",
        "url": "https://www.holidify.com/collections/museums-in-france",
        "placeName": "France",
        "category": "Travel"
      },
      {
        "title": "Historical Sites in Golden Triangle",
        "url": "https://www.holidify.com/collections/historical-sites-in-golden-triangle",
        "placeName": "Golden Triangle",
        "category": "Travel"
      },
      {
        "title": "Museums in Oman",
        "url": "https://www.holidify.com/collections/museums-in-oman",
        "placeName": "Oman",
        "category": "Travel"
      },
      {
        "title": "Must-Visit Museums in Wellington",
        "url": "https://www.holidify.com/collections/museums-in-wellington",
        "placeName": "Wellington",
        "category": "Travel"
      },
      {
        "title": "Must-Visit Beautiful Museums in Christchurch",
        "url": "https://www.holidify.com/collections/museums-in-christchurch",
        "placeName": "Christchurch",
        "category": "Travel"
      },
      {
        "title": "Temples in Ubud For a Spiritual Reawakening",
        "url": "https://www.holidify.com/collections/temples-in-ubud",
        "placeName": "Ubud",
        "category": "Travel"
      },
      {
        "title": "Things to Do In Indonesia",
        "url": "https://www.holidify.com/collections/things-to-do-in-indonesia",
        "placeName": "Indonesia",
        "category": "Things To Do"
      },
      {
        "title": "Famous Churches of India That Are Architectural Masterpieces",
        "url": "https://www.holidify.com/collections/churches-in-india",
        "placeName": "India",
        "category": "Travel"
      },
      {
        "title": "Historical Places in Bijapur for a Peek into the Past",
        "url": "https://www.holidify.com/collections/historical-places-in-bijapur",
        "placeName": "Bijapur",
        "category": "Travel"
      },
      {
        "title": "Historical Places in Madhya Pradesh For A Heritage Vacation",
        "url": "https://www.holidify.com/collections/historical-places-in-madhya-pradesh",
        "placeName": "Madhya Pradesh",
        "category": "Travel"
      },
      {
        "title": "Museums in Washington DC",
        "url": "https://www.holidify.com/collections/museums-in-washington-dc",
        "placeName": "Washington DC",
        "category": "Travel"
      },
      {
        "title": "Forts in Puerto Rico to Immerse Yourself in the History and Culture of the Island",
        "url": "https://www.holidify.com/collections/forts-in-puerto-rico",
        "placeName": "Puerto Rico",
        "category": "Travel"
      },
      {
        "title": "Museums in Las Vegas: Where to Go See Sin City's Best Art",
        "url": "https://www.holidify.com/collections/museums-in-las-vegas",
        "placeName": "Las Vegas",
        "category": "Travel"
      },
      {
        "title": "Museums in Ho Chi Minh",
        "url": "https://www.holidify.com/collections/museums-in-ho-chi-minh-city",
        "placeName": "Ho Chi Minh",
        "category": "Travel"
      },
      {
        "title": "The Best Parks in New York to Explore Local Activities.",
        "url": "https://www.holidify.com/collections/parks-in-new-york-city",
        "placeName": "New York",
        "category": "Travel"
      },
      {
        "title": "Museums in Dubai to Get a Glimpse of Emirati Culture",
        "url": "https://www.holidify.com/collections/museums-in-dubai",
        "placeName": "Dubai",
        "category": "Travel"
      },
      {
        "title": "13  Museums in Siem Reap You Should Visit",
        "url": "https://www.holidify.com/collections/museums-in-siem-reap",
        "placeName": "Siem Reap",
        "category": "Travel"
      },
      {
        "title": "Best Museums in Bali",
        "url": "https://www.holidify.com/collections/museums-in-bali",
        "placeName": "Bali",
        "category": "Travel"
      },
      {
        "title": "New Seven Wonder of the World",
        "url": "https://www.holidify.com/collections/seven-wonders-of-the-world",
        "placeName": "World",
        "category": "Travel"
      },
      {
        "title": "Historical Places in Aurangabad for a Peak into the Past",
        "url": "https://www.holidify.com/collections/historical-places-in-aurangabad",
        "placeName": "Aurangabad",
        "category": "Travel"
      },
      {
        "title": "Art Galleries in Boston",
        "url": "https://www.holidify.com/collections/art-galleries-in-boston",
        "placeName": "Boston",
        "category": "Travel"
      },
      {
        "title": "Historical Places in Amritsar for a Peek into the Past",
        "url": "https://www.holidify.com/collections/historical-places-in-amritsar",
        "placeName": "Amritsar",
        "category": "Travel"
      },
      {
        "title": "Museums in Phnom Penh You Should Visit",
        "url": "https://www.holidify.com/collections/museums-in-phnom-penh",
        "placeName": "Phnom Penh",
        "category": "Travel"
      },
      {
        "title": "Palaces in Mysore For A Historic and Regal Experience",
        "url": "https://www.holidify.com/collections/palaces-in-Mysore",
        "placeName": "Mysore",
        "category": "Travel"
      },
      {
        "title": "Best Museums in Colombo",
        "url": "https://www.holidify.com/collections/museums-in-colombo",
        "placeName": "Colombo",
        "category": "Travel"
      },
      {
        "title": "Ashrams in Pondicherry For A Blissful Escape",
        "url": "https://www.holidify.com/collections/ashrams-in-pondicherry",
        "placeName": "Pondicherry",
        "category": "Travel"
      },
      {
        "title": "Historical Places in Sri Lanka",
        "url": "https://www.holidify.com/collections/historical-places-in-sri-lanka",
        "placeName": "Sri Lanka",
        "category": "Travel"
      },
      {
        "title": "Stunning Art Galleries in Bangalore for Art Connoisseurs & Enthusiasts",
        "url": "https://www.holidify.com/collections/art-galleries-in-bangalore",
        "placeName": "Bangalore",
        "category": "Travel"
      },
      {
        "title": "Historical Places in Bangalore For A Vintage Tour",
        "url": "https://www.holidify.com/collections/historical-places-in-bangalore",
        "placeName": "Bangalore",
        "category": "Travel"
      },
      {
        "title": "Museums in Jakarta",
        "url": "https://www.holidify.com/collections/museums-in-jakarta",
        "placeName": "Jakarta",
        "category": "Travel"
      },
      {
        "title": "Museums in Trivandrum",
        "url": "https://www.holidify.com/collections/museums-in-trivandrum",
        "placeName": "Trivandrum",
        "category": "Travel"
      },
      {
        "title": "Historical Places In Telangana For Every History Enthusiast",
        "url": "https://www.holidify.com/collections/historical-places-in-telangana",
        "placeName": "Telangana",
        "category": "Travel"
      },
      {
        "title": "Amazing Art Galleries in Chennai for Every Art Lover",
        "url": "https://www.holidify.com/collections/art-galleries-in-chennai",
        "placeName": "Chennai",
        "category": "Travel"
      },
      {
        "title": "Best Historical Places in Chennai for a Peek into History",
        "url": "https://www.holidify.com/collections/historical-places-in-chennai",
        "placeName": "Chennai",
        "category": "Travel"
      },
      {
        "title": "Top Historical Places In Jaipur & Best Monuments In The City",
        "url": "https://www.holidify.com/collections/historical-places-in-jaipur",
        "placeName": "Jaipur",
        "category": "Travel"
      },
      {
        "title": "Best Megacities Of The World",
        "url": "https://www.holidify.com/collections/megacities-of-the-world",
        "placeName": "World",
        "category": "Travel"
      },
      {
        "title": "Ruins Of India : Most Exotic Historical Places In India",
        "url": "https://www.holidify.com/collections/historical-ruins-of-india",
        "placeName": "India",
        "category": "Travel"
      },
      {
        "title": "Colossal Statues in India That You Should Definitely Visit",
        "url": "https://www.holidify.com/collections/statues-in-india",
        "placeName": "India",
        "category": "Travel"
      },
      {
        "title": "42 Most Famous Historical Places in India",
        "url": "https://www.holidify.com/collections/historical-places-in-india",
        "placeName": "India",
        "category": "Travel"
      },
      {
        "title": "Historical Places In Gujarat & Best Heritage Monuments",
        "url": "https://www.holidify.com/collections/historical-places-in-gujarat",
        "placeName": "Gujarat",
        "category": "Travel"
      },
      {
        "title": "Top Historical Places in Himachal Pradesh",
        "url": "https://www.holidify.com/collections/historical-places-in-himachal-pradesh",
        "placeName": "Himachal Pradesh",
        "category": "Travel"
      },
      {
        "title": "Art Galleries in Pune for All You Art Connoisseurs",
        "url": "https://www.holidify.com/collections/art-galleries-in-pune",
        "placeName": "Pune",
        "category": "Travel"
      },
      {
        "title": "Majestic Forts of Rajasthan That Will Take You Back In Time",
        "url": "https://www.holidify.com/collections/forts-of-rajasthan",
        "placeName": "Rajasthan",
        "category": "Travel"
      },
      {
        "title": "Historical Places in Kerala",
        "url": "https://www.holidify.com/collections/historical-places-in-kerala",
        "placeName": "Kerala",
        "category": "Travel"
      },
      {
        "title": "Historical Places in Rajasthan For A Glorious Tour of History",
        "url": "https://www.holidify.com/collections/historical-places-in-rajasthan",
        "placeName": "Rajasthan",
        "category": "Travel"
      },
      {
        "title": "Historical Places in Maharashtra For A Time-Travelling Experience",
        "url": "https://www.holidify.com/collections/historical-places-in-maharashtra",
        "placeName": "Maharashtra",
        "category": "Travel"
      },
      {
        "title": "Historical Places in Uttarakhand For A Heritage Tour",
        "url": "https://www.holidify.com/collections/historical-places-in-uttarakhand",
        "placeName": "Uttarakhand",
        "category": "Travel"
      },
      {
        "title": "Museums in Goa",
        "url": "https://www.holidify.com/collections/museums-in-goa",
        "placeName": "Goa",
        "category": "Travel"
      },
      {
        "title": "Historical Places in Tamilnadu For A Truly Heritage Circuit",
        "url": "https://www.holidify.com/collections/historical-places-in-tamilnadu",
        "placeName": "Tamil Nadu",
        "category": "Travel"
      },
      {
        "title": "Art Galleries in Kolkata for All You Art Connoisseurs",
        "url": "https://www.holidify.com/collections/art-galleries-in-kolkata",
        "placeName": "Kolkata",
        "category": "Travel"
      },
      {
        "title": "Historical Places in Kolkata To Explore its Rich Heritage",
        "url": "https://www.holidify.com/collections/historical-places-in-kolkata",
        "placeName": "Kolkata",
        "category": "Travel"
      },
      {
        "title": "Art Galleries in Hyderabad for All You Art Connoisseurs",
        "url": "https://www.holidify.com/collections/art-galleries-in-hyderabad",
        "placeName": "Hyderabad",
        "category": "Travel"
      },
      {
        "title": "Top Historical Places in Hyderabad to Redefine History",
        "url": "https://www.holidify.com/collections/historical-places-in-hyderabad",
        "placeName": "Hyderabad",
        "category": "Travel"
      },
      {
        "title": "Enticing Art Galleries in Auckland",
        "url": "https://www.holidify.com/collections/art-galleries-in-auckland",
        "placeName": "Auckland",
        "category": "Travel"
      },
      {
        "title": "12 Best Wineries in New Zealand to Explore the Country's Finest",
        "url": "https://www.holidify.com/pages/wineries-in-new-zealand-6582.html",
        "placeName": "New Zealand",
        "category": "Food & Drink"
      },
      {
        "title": "12 Magnificent Museums in Bangalore for History Enthusiasts",
        "url": "https://www.holidify.com/collections/museums-in-bangalore",
        "placeName": "Bangalore",
        "category": "Travel"
      },
      {
        "title": "Must Visit Museums in Delhi",
        "url": "https://www.holidify.com/collections/museums-in-delhi",
        "placeName": "Delhi",
        "category": "Travel"
      },
      {
        "title": "Things To Do in Sri Lanka & Must Have Experiences",
        "url": "https://www.holidify.com/collections/things-to-do-in-sri-lanka",
        "placeName": "Sri Lanka",
        "category": "Things To Do"
      },
      {
        "title": "Monuments & Historical Places in Agra",
        "url": "https://www.holidify.com/collections/historical-places-in-agra",
        "placeName": "Agra",
        "category": "Travel"
      },
      {
        "title": "Magnificent Forts in Jodhpur for a Royal Retreat",
        "url": "https://www.holidify.com/collections/forts-in-jodhpur",
        "placeName": "Jodhpur",
        "category": "Travel"
      },
      {
        "title": "Ashrams for Yoga In India For A Holistic Wellbeing",
        "url": "https://www.holidify.com/collections/yoga-in-india",
        "placeName": "India",
        "category": "Travel"
      },
      {
        "title": "51 Historical Monuments of India That Should Be In Your Bucket List",
        "url": "https://www.holidify.com/collections/monuments-of-india",
        "placeName": "India",
        "category": "Travel"
      },
      {
        "title": "Best Countries For Tourism in the World",
        "url": "https://www.holidify.com/collections/best-countries-for-tourism",
        "placeName": "World",
        "category": "Travel"
      },
      {
        "title": "Things to Do in Georgetown Penang",
        "url": "https://www.holidify.com/collections/things-to-do-in-georgetown-penang",
        "placeName": "Georgetown Penang",
        "category": "Things To Do"
      },
      {
        "title": "Cities in Puerto Rico to Get an Understanding of the Island",
        "url": "https://www.holidify.com/collections/cities-in-puerto-rico",
        "placeName": "Puerto Rico",
        "category": "Travel"
      },
      {
        "title": "Art Galleries in Las Vegas to Showcase the Artistic Side of Sin City",
        "url": "https://www.holidify.com/collections/art-galleries-in-las-vegas",
        "placeName": "Las Vegas",
        "category": "Travel"
      },
      {
        "title": "Museums in Orlando",
        "url": "https://www.holidify.com/collections/museums-in-orlando",
        "placeName": "Orlando",
        "category": "Travel"
      },
      {
        "title": "Art Galleries in Charleston",
        "url": "https://www.holidify.com/collections/art-galleries-in-charleston",
        "placeName": "Charleston",
        "category": "Travel"
      },
      {
        "title": "Free Things to Do in Seattle",
        "url": "https://www.holidify.com/collections/free-things-to-do-in-seattle",
        "placeName": "Seattle",
        "category": "Things To Do"
      },
      {
        "title": "Museums in Newark",
        "url": "https://www.holidify.com/collections/museums-in-newark",
        "placeName": "Newark",
        "category": "Travel"
      },
      {
        "title": "Art Galleries in Seattle",
        "url": "https://www.holidify.com/collections/art-galleries-in-seattle",
        "placeName": "Seattle",
        "category": "Travel"
      },
      {
        "title": "Museums in Charleston",
        "url": "https://www.holidify.com/collections/museums-in-charleston",
        "placeName": "Charleston",
        "category": "Travel"
      },
      {
        "title": "Museums in Seattle",
        "url": "https://www.holidify.com/collections/museums-in-seattle",
        "placeName": "Seattle",
        "category": "Travel"
      },
      {
        "title": "Best Museums in Puerto Rico to Immerse Yourself in Local Culture",
        "url": "https://www.holidify.com/collections/museums-in-puerto-rico",
        "placeName": "Puerto Rico",
        "category": "Travel"
      },
      {
        "title": "Best Art Galleries in Washington Dc to Get in Touch with Your Artistic Side",
        "url": "https://www.holidify.com/collections/art-galleries-washington-dc",
        "placeName": "Washington DC",
        "category": "Travel"
      },
      {
        "title": "Art Galleries in Miami",
        "url": "https://www.holidify.com/collections/art-galleries-in-miami",
        "placeName": "Miami",
        "category": "Travel"
      },
      {
        "title": "Monuments in Washington DC to Dive into the History of DC",
        "url": "https://www.holidify.com/collections/monuments-in-washington-dc",
        "placeName": "Washington DC",
        "category": "Travel"
      },
      {
        "title": "Museums in Miami",
        "url": "https://www.holidify.com/collections/museums-in-miami",
        "placeName": "Miami",
        "category": "Travel"
      },
      {
        "title": "Best Art Galleries in Los Angeles",
        "url": "https://www.holidify.com/collections/art-galleries-in-los-angeles",
        "placeName": "Los Angeles",
        "category": "Travel"
      },
      {
        "title": "Spend a Day at These Top Museums in Los Angeles",
        "url": "https://www.holidify.com/collections/museums-in-los-angeles",
        "placeName": "Los Angeles",
        "category": "Travel"
      },
      {
        "title": "Museums in Chicago",
        "url": "https://www.holidify.com/collections/museums-in-chicago",
        "placeName": "Chicago",
        "category": "Travel"
      },
      {
        "title": "Best Art Galleries in San Francisco",
        "url": "https://www.holidify.com/collections/galleries-in-san-francisco",
        "placeName": "San Francisco",
        "category": "Travel"
      },
      {
        "title": "Art Galleries in Houston",
        "url": "https://www.holidify.com/collections/art-galleries-in-houston",
        "placeName": "Houston",
        "category": "Travel"
      },
      {
        "title": "Art Galleries In Dallas",
        "url": "https://www.holidify.com/collections/art-galleries-in-dallas",
        "placeName": "Dallas",
        "category": "Travel"
      },
      {
        "title": "Museums In Dallas",
        "url": "https://www.holidify.com/collections/museums-in-dallas",
        "placeName": "Dallas",
        "category": "Travel"
      },
      {
        "title": "Historical Sites in Boston",
        "url": "https://www.holidify.com/collections/historical-sites-in-boston",
        "placeName": "Boston",
        "category": "Travel"
      },
      {
        "title": "Art Galleries in Hong Kong That Elaborate Its Oriental Artistry",
        "url": "https://www.holidify.com/collections/art-galleries-in-hong-kong",
        "placeName": "Hong Kong",
        "category": "Travel"
      },
      {
        "title": "Awesome Art Galleries in Wellington for Art Enthusiasts",
        "url": "https://www.holidify.com/collections/art-galleries-in-wellington",
        "placeName": "Wellington",
        "category": "Travel"
      },
      {
        "title": "Astonishing Art Galleries in Malaysia for a Perfect Artsy Holiday Vacation",
        "url": "https://www.holidify.com/collections/art-galleries-in-malaysia",
        "placeName": "Malaysia",
        "category": "Travel"
      },
      {
        "title": "Magnificent Museums in Malaysia",
        "url": "https://www.holidify.com/collections/museums-in-malaysia",
        "placeName": "Malaysia",
        "category": "Travel"
      },
      {
        "title": "Magnificent Museums in Kuala Lumpur",
        "url": "https://www.holidify.com/collections/museums-in-kuala-lumpur",
        "placeName": "Kuala Lumpur",
        "category": "Travel"
      },
      {
        "title": "Must-Visit Historical Places In Mauritius",
        "url": "https://www.holidify.com/collections/historical-places-in-mauritius",
        "placeName": "Mauritius",
        "category": "Travel"
      },
      {
        "title": "Magnificent Museums in Kerala",
        "url": "https://www.holidify.com/collections/museums-in-kerala",
        "placeName": "Kerala",
        "category": "Travel"
      },
      {
        "title": "Forts in Muscat",
        "url": "https://www.holidify.com/collections/forts-in-muscat",
        "placeName": "Muscat",
        "category": "Travel"
      },
      {
        "title": "Amazing Museums in Indonesia You Must Visit",
        "url": "https://www.holidify.com/collections/museums-in-indonesia",
        "placeName": "Indonesia",
        "category": "Travel"
      },
      {
        "title": "Richest Temples in India That are a Class Apart",
        "url": "https://www.holidify.com/collections/richest-temples-in-india",
        "placeName": "India",
        "category": "Travel"
      },
      {
        "title": "Museums in Mauritius for a Fun Day Outing",
        "url": "https://www.holidify.com/collections/museums-in-mauritius",
        "placeName": "Mauritius",
        "category": "Travel"
      },
      {
        "title": "Museums in Sri Lanka Every History Buff Should Visit",
        "url": "https://www.holidify.com/collections/museums-in-sri-lanka",
        "placeName": "Sri Lanka",
        "category": "Travel"
      },
      {
        "title": "Museums in Hanoi",
        "url": "https://www.holidify.com/collections/museums-in-hanoi",
        "placeName": "Hanoi",
        "category": "Travel"
      },
      {
        "title": "Museums in Al Ain",
        "url": "https://www.holidify.com/collections/museums-in-al-ain",
        "placeName": "Al Ain",
        "category": "Travel"
      },
      {
        "title": "Palaces in Vadodara",
        "url": "https://www.holidify.com/collections/palaces-in-vadodara",
        "placeName": "Vadodara",
        "category": "Travel"
      },
      {
        "title": "Art Galleries in Bangkok",
        "url": "https://www.holidify.com/collections/art-galleries-in-bangkok",
        "placeName": "Bangkok",
        "category": "Travel"
      },
      {
        "title": "Monasteries in Nepal",
        "url": "https://www.holidify.com/collections/monasteries-in-nepal",
        "placeName": "Nepal",
        "category": "Travel"
      },
      {
        "title": "Churches in Bangkok",
        "url": "https://www.holidify.com/collections/churches-in-bangkok",
        "placeName": "Bangkok",
        "category": "Travel"
      },
      {
        "title": "Museums in Abu Dhabi",
        "url": "https://www.holidify.com/collections/museums-in-abu-dhabi",
        "placeName": "Abu Dhabi",
        "category": "Travel"
      },
      {
        "title": "Palaces in Jodhpur",
        "url": "https://www.holidify.com/collections/palaces-in-jodhpur",
        "placeName": "Jodhpur",
        "category": "Travel"
      },
      {
        "title": "Flea Markets In India Every Shopaholic Must Shop At",
        "url": "https://www.holidify.com/collections/flea-markets-in-india",
        "placeName": "India",
        "category": "Shopping"
      },
      {
        "title": "Stepwells of India | Baolis In India That You Must See",
        "url": "https://www.holidify.com/collections/baolis-of-india",
        "placeName": "India",
        "category": "Travel"
      },
      {
        "title": "Historical Places in Hampi That You Must Visit",
        "url": "https://www.holidify.com/collections/historical-places-in-hampi",
        "placeName": "Hampi",
        "category": "Travel"
      },
      {
        "title": "Historical Places in Mysore for a Peek into the Past",
        "url": "https://www.holidify.com/collections/historical-places-in-mysore",
        "placeName": "Mysore",
        "category": "Travel"
      },
      {
        "title": "Historical Places in Lucknow for a Glimpse into History",
        "url": "https://www.holidify.com/collections/historical-places-in-lucknow",
        "placeName": "Lucknow",
        "category": "Travel"
      },
      {
        "title": "Must-visit Forts in Alwar for a Peek into the Glorious History",
        "url": "https://www.holidify.com/collections/forts-in-alwar",
        "placeName": "Alwar",
        "category": "Travel"
      },
      {
        "title": "Ashoka Pillars in India",
        "url": "https://www.holidify.com/collections/ashoka-pillars-in-india",
        "placeName": "India",
        "category": "Travel"
      },
      {
        "title": "Historical Places in Goa : Beautiful Heritage Sites in Goa You Must Visit",
        "url": "https://www.holidify.com/collections/historical-places-in-goa",
        "placeName": "Goa",
        "category": "Travel"
      },
      {
        "title": "Pathaan Shooting Locations That Are Doubtlessly Spellbinding",
        "url": "https://www.holidify.com/pages/pathaan-shooting-locations-6296.html",
        "placeName": "World",
        "category": "Travel"
      },
      {
        "title": "Top National Parks in East India",
        "url": "https://www.holidify.com/collections/national-parks-in-east-india",
        "placeName": "East India",
        "category": "Travel"
      },
      {
        "title": "National Parks in North East India",
        "url": "https://www.holidify.com/collections/national-parks-in-north-east-india",
        "placeName": "North East India",
        "category": "Travel"
      },
      {
        "title": "Top National Parks in North India",
        "url": "https://www.holidify.com/collections/national-parks-in-north-india",
        "placeName": "North India",
        "category": "Travel"
      },
      {
        "title": "Exciting National Parks in Central India For A Wild Adventure",
        "url": "https://www.holidify.com/collections/national-parks-in-central-india",
        "placeName": "Central India",
        "category": "Travel"
      },
      {
        "title": "Top National Parks in South India",
        "url": "https://www.holidify.com/collections/national-parks-in-south-india",
        "placeName": "South India",
        "category": "Travel"
      },
      {
        "title": "Top National Parks in West India",
        "url": "https://www.holidify.com/collections/national-parks-in-west-india",
        "placeName": "West India",
        "category": "Travel"
      },
      {
        "title": "National Parks in Malaysia",
        "url": "https://www.holidify.com/collections/national-parks-in-malaysia",
        "placeName": "Malaysia",
        "category": "Travel"
      },
      {
        "title": "National Parks in Assam You Must Visit",
        "url": "https://www.holidify.com/collections/national-parks-in-assam",
        "placeName": "Assam",
        "category": "Travel"
      },
      {
        "title": "National Parks In Thailand",
        "url": "https://www.holidify.com/collections/national-parks-in-thailand",
        "placeName": "Thailand",
        "category": "Travel"
      },
      {
        "title": "Places to Visit near Kochi for the Perfect Weekend Getaway",
        "url": "https://www.holidify.com/collections/places-to-visit-near-kochi",
        "placeName": "Kochi",
        "category": "Travel"
      },
      {
        "title": "Top Bird Sanctuaries In India to Go BIrdwatching",
        "url": "https://www.holidify.com/collections/bird-sanctuaries-in-india",
        "placeName": "India",
        "category": "Travel"
      },
      {
        "title": "Best Tiger Reserves in India: Places to Go Tiger Spotting",
        "url": "https://www.holidify.com/collections/tiger-reserves-in-india",
        "placeName": "India",
        "category": "Travel"
      },
      {
        "title": "Best National Parks of India",
        "url": "https://www.holidify.com/collections/national-parks-in-india",
        "placeName": "India",
        "category": "Travel"
      },
      {
        "title": "National Parks in Uzbekistan for an Escape in Nature",
        "url": "https://www.holidify.com/collections/national-parks-in-uzbekistan",
        "placeName": "Uzbekistan",
        "category": "Travel"
      },
      {
        "title": "Waterfalls in Georgia: Experience the Serenity",
        "url": "https://www.holidify.com/collections/waterfalls-in-georgia",
        "placeName": "Georgia",
        "category": "Travel"
      },
      {
        "title": "National Parks in Georgia: Explore the Wilderness",
        "url": "https://www.holidify.com/collections/national-parks-in-georgia",
        "placeName": "Georgia",
        "category": "Travel"
      },
      {
        "title": "Stunning Caves in Georgia You Can't Miss",
        "url": "https://www.holidify.com/collections/caves-in-georgia",
        "placeName": "Georgia",
        "category": "Travel"
      },
      {
        "title": "Lake Nakuru and Lake Naivasha: A Detailed Guide",
        "url": "https://www.holidify.com/pages/lake-nakuru-and-lake-naivasha-6937.html",
        "placeName": "Kenya",
        "category": "Travel"
      },
      {
        "title": "Parks in Nairobi",
        "url": "https://www.holidify.com/collections/parks-in-nairobi",
        "placeName": "Nairobi",
        "category": "Travel"
      },
      {
        "title": "National Parks in Kazakhstan for an Outdoor Adventure",
        "url": "https://www.holidify.com/collections/national-parks-in-kazakhstan",
        "placeName": "Kazakhstan",
        "category": "Travel"
      },
      {
        "title": "Best National Parks in Spain",
        "url": "https://www.holidify.com/collections/national-parks-in-spain",
        "placeName": "Spain",
        "category": "Travel"
      },
      {
        "title": "National Parks in Azerbaijan",
        "url": "https://www.holidify.com/collections/national-parks-in-azerbaijan",
        "placeName": "Azerbaijan",
        "category": "Travel"
      },
      {
        "title": "Best Lakes in Austria",
        "url": "https://www.holidify.com/collections/lakes-in-austria",
        "placeName": "Austria",
        "category": "Travel"
      },
      {
        "title": "Top Game Reserves in Tanzania",
        "url": "https://www.holidify.com/collections/game-reserves-in-tanzania",
        "placeName": "Tanzania",
        "category": "Travel"
      },
      {
        "title": "DELHI UNIVERSITY EXCLUSIVE : Places To Travel To For DU Students",
        "url": "https://www.holidify.com/collections/places-mid-sem-break",
        "placeName": "India",
        "category": "Travel"
      },
      {
        "title": "Top Bird Sanctuaries in Kerala",
        "url": "https://www.holidify.com/collections/bird-sanctuaries-in-kerala",
        "placeName": "Kerala",
        "category": "Travel"
      },
      {
        "title": "Beautiful Wadis in Oman",
        "url": "https://www.holidify.com/collections/wadis-in-oman",
        "placeName": "Oman",
        "category": "Travel"
      },
      {
        "title": "Fantastic Zoos in Auckland for an Exciting Wildlife Experience",
        "url": "https://www.holidify.com/collections/zoos-in-auckland",
        "placeName": "Auckland",
        "category": "Travel"
      },
      {
        "title": "Enthralling Zoos in Christchurch to Explore the Wildlife in Christchurch",
        "url": "https://www.holidify.com/collections/zoos-in-christchurch",
        "placeName": "Christchurch",
        "category": "Travel"
      },
      {
        "title": "Waterfalls in Bali",
        "url": "https://www.holidify.com/collections/waterfalls-in-bali",
        "placeName": "Bali",
        "category": "Travel"
      },
      {
        "title": "Zoos in Kerala for Wildlife Enthusiasts",
        "url": "https://www.holidify.com/collections/zoos-in-kerala",
        "placeName": "Kerala",
        "category": "Travel"
      },
      {
        "title": "Hiking in Azerbaijan: Top Places, Trails, and Tips",
        "url": "https://www.holidify.com/pages/hiking-in-azerbaijan-6706.html",
        "placeName": "Azerbaijan",
        "category": "Things To Do"
      },
      {
        "title": "Mountains in Kenya",
        "url": "https://www.holidify.com/collections/mountains-in-kenya",
        "placeName": "Kenya",
        "category": "Travel"
      },
      {
        "title": "Best National Parks in Kenya",
        "url": "https://www.holidify.com/collections/national-parks-in-kenya",
        "placeName": "Kenya",
        "category": "Travel"
      },
      {
        "title": "Beautiful Lakes in San Francisco for a Quaint Lakeside Getaway",
        "url": "https://www.holidify.com/collections/lakes-in-san-francisco",
        "placeName": "San Francisco",
        "category": "Travel"
      },
      {
        "title": "Zoos in Orlando",
        "url": "https://www.holidify.com/collections/zoos-in-orlando",
        "placeName": "Orlando",
        "category": "Travel"
      },
      {
        "title": "Beautiful Waterfalls in Koh Samui That You Can Visit",
        "url": "https://www.holidify.com/collections/waterfalls-in-koh-samui",
        "placeName": "Koh Samui",
        "category": "Travel"
      },
      {
        "title": "National Parks in Bali to Get in Tune with Your Wild Side",
        "url": "https://www.holidify.com/collections/national-parks-in-bali",
        "placeName": "Bali",
        "category": "Travel"
      },
      {
        "title": "Waterfalls in Siem Reap",
        "url": "https://www.holidify.com/collections/waterfalls-in-siem-reap",
        "placeName": "Siem Reap",
        "category": "Travel"
      },
      {
        "title": "Wildlife Sanctuaries in Sikkim",
        "url": "https://www.holidify.com/collections/wildlife-sanctuaries-in-sikkim",
        "placeName": "Sikkim",
        "category": "Travel"
      },
      {
        "title": "Waterfalls in Langkawi",
        "url": "https://www.holidify.com/collections/waterfalls-in-langkawi",
        "placeName": "Langkawi",
        "category": "Travel"
      },
      {
        "title": "Waterfalls in Nuwara Eliya For A Relaxing Weekend Getaway",
        "url": "https://www.holidify.com/collections/waterfalls-in-nuwara-eliya",
        "placeName": "Nuwara Eliya",
        "category": "Travel"
      },
      {
        "title": "Rivers of Cambodia to Know About",
        "url": "https://www.holidify.com/collections/rivers-of-cambodia",
        "placeName": "Cambodia",
        "category": "Travel"
      },
      {
        "title": "Amazing Waterfalls of Cambodia",
        "url": "https://www.holidify.com/collections/waterfalls-in-cambodia",
        "placeName": "Cambodia",
        "category": "Travel"
      },
      {
        "title": "Waterfalls in Vietnam",
        "url": "https://www.holidify.com/collections/waterfalls-in-vietnam",
        "placeName": "Vietnam",
        "category": "Travel"
      },
      {
        "title": "Mountains in Sri Lanka",
        "url": "https://www.holidify.com/collections/mountains-in-sri-lanka",
        "placeName": "Sri Lanka",
        "category": "Travel"
      },
      {
        "title": "National Parks in Sri Lanka",
        "url": "https://www.holidify.com/collections/national-parks-in-sri-lanka",
        "placeName": "Sri Lanka",
        "category": "Travel"
      },
      {
        "title": "National Parks in Mauritius - Experience Mauritius' Famed Biodiversity Up Close",
        "url": "https://www.holidify.com/collections/national-parks-in-mauritius",
        "placeName": "Mauritius",
        "category": "Travel"
      },
      {
        "title": "National Parks in Odisha For Stunning Wildlife Spotting",
        "url": "https://www.holidify.com/collections/national-parks-in-odisha",
        "placeName": "Odisha",
        "category": "Travel"
      },
      {
        "title": "Best Places for Birding in India",
        "url": "https://www.holidify.com/collections/best-places-for-bird-watching-in-india",
        "placeName": "India",
        "category": "Travel"
      },
      {
        "title": "Rainforests in India for a Wonderful Retreat into Nature",
        "url": "https://www.holidify.com/collections/rainforests-in-india",
        "placeName": "India",
        "category": "Travel"
      },
      {
        "title": "Best Wildlife Resorts in India - Jungle Resorts That You Must Visit",
        "url": "https://www.holidify.com/collections/wildlife-resorts-in-india",
        "placeName": "India",
        "category": "Travel"
      },
      {
        "title": "Wildlife Sanctuaries in India",
        "url": "https://www.holidify.com/collections/wildlife-sanctuaries-in-india",
        "placeName": "India",
        "category": "Travel"
      },
      {
        "title": "Best Places To Explore the Wildlife of India",
        "url": "https://www.holidify.com/collections/wildlife-of-india",
        "placeName": "India",
        "category": "Travel"
      },
      {
        "title": "National Parks in Madhya Pradesh",
        "url": "https://www.holidify.com/collections/national-parks-in-madhya-pradesh",
        "placeName": "Madhya Pradesh",
        "category": "Travel"
      },
      {
        "title": "Mountains in Bali",
        "url": "https://www.holidify.com/collections/mountains-in-bali",
        "placeName": "Bali",
        "category": "Travel"
      },
      {
        "title": "National Parks in Gujarat | Wildlife Sanctuaries & Reserves",
        "url": "https://www.holidify.com/collections/national-parks-in-gujarat",
        "placeName": "Gujarat",
        "category": "Travel"
      },
      {
        "title": "Wildlife Sanctuaries in Kerala",
        "url": "https://www.holidify.com/collections/wildlife-sanctuaries-in-kerala",
        "placeName": "Kerala",
        "category": "Travel"
      },
      {
        "title": "5 National Parks in Rajasthan & 15 Wildlife Sanctuaries For An Adventure",
        "url": "https://www.holidify.com/collections/national-parks-in-rajasthan",
        "placeName": "Rajasthan",
        "category": "Travel"
      },
      {
        "title": "6 Amazing National Parks in Kerala & 9 Wildlife Sanctuaries",
        "url": "https://www.holidify.com/collections/national-parks-in-kerala",
        "placeName": "Kerala",
        "category": "Travel"
      },
      {
        "title": "National Parks in Maharashtra",
        "url": "https://www.holidify.com/collections/national-parks-in-maharashtra",
        "placeName": "Maharashtra",
        "category": "Travel"
      },
      {
        "title": "National Parks in Uttarakhand",
        "url": "https://www.holidify.com/collections/national-parks-in-uttarakhand",
        "placeName": "Uttarakhand",
        "category": "Travel"
      },
      {
        "title": "National Parks in Singapore",
        "url": "https://www.holidify.com/collections/national-parks-in-singapore",
        "placeName": "Singapore",
        "category": "Travel"
      },
      {
        "title": "National Parks in Karnataka For A Wild Adventurous Holiday",
        "url": "https://www.holidify.com/collections/national-parks-in-karnataka",
        "placeName": "Karnataka",
        "category": "Travel"
      },
      {
        "title": "National Parks in Tamil Nadu For A Thrilling Wildlife Adventure",
        "url": "https://www.holidify.com/collections/national-parks-in-tamil-nadu",
        "placeName": "Tamil Nadu",
        "category": "Travel"
      },
      {
        "title": "National Parks in Andhra Pradesh For A Wild Adventure",
        "url": "https://www.holidify.com/collections/national-parks-in-andhra-pradesh",
        "placeName": "Andhra Pradesh",
        "category": "Travel"
      },
      {
        "title": "National Parks in Delhi For A Wild Holiday",
        "url": "https://www.holidify.com/collections/national-parks-in-delhi",
        "placeName": "Delhi",
        "category": "Travel"
      },
      {
        "title": "National Parks in West Bengal For The Wildlife Enthusiasts",
        "url": "https://www.holidify.com/collections/national-parks-in-west-bengal",
        "placeName": "West Bengal",
        "category": "Travel"
      },
      {
        "title": "Lakes in Kenya",
        "url": "https://www.holidify.com/collections/lakes-in-kenya",
        "placeName": "Kenya",
        "category": "Travel"
      },
      {
        "title": "Beautiful Places in Indonesia That Every Traveller Must Vsiit",
        "url": "https://www.holidify.com/collections/beautiful-places-in-indonesia",
        "placeName": "Indonesia",
        "category": "Travel"
      },
      {
        "title": "Waterfalls in Tanzania",
        "url": "https://www.holidify.com/collections/waterfalls-in-tanzania",
        "placeName": "Tanzania",
        "category": "Travel"
      },
      {
        "title": "Lakes in Tanzania",
        "url": "https://www.holidify.com/collections/lakes-in-tanzania",
        "placeName": "Tanzania",
        "category": "Travel"
      },
      {
        "title": "Best Game Reserves in Kenya",
        "url": "https://www.holidify.com/collections/game-reserves-in-kenya",
        "placeName": "Kenya",
        "category": "Travel"
      },
      {
        "title": "Must Visit National Parks in Tanzania",
        "url": "https://www.holidify.com/collections/national-parks-in-tanzania",
        "placeName": "Tanzania",
        "category": "Travel"
      },
      {
        "title": "5 Best Elephant Sanctuaries in South Africa",
        "url": "https://www.holidify.com/pages/elephant-sanctuaries-in-south-africa-6556.html",
        "placeName": "South Africa",
        "category": "Travel"
      },
      {
        "title": "Wildlife in South Africa: Best Wildlife and Spots to Witness",
        "url": "https://www.holidify.com/pages/wildlife-in-south-africa-6551.html",
        "placeName": "South Africa",
        "category": "Travel"
      },
      {
        "title": "15 Must-Visit Landscapes of South Africa",
        "url": "https://www.holidify.com/pages/landscapes-of-south-africa-6549.html",
        "placeName": "South Africa",
        "category": "Travel"
      },
      {
        "title": "10 Must-Visit Waterfalls in Kenya",
        "url": "https://www.holidify.com/pages/waterfalls-in-kenya-6522.html",
        "placeName": "Kenya",
        "category": "Travel"
      },
      {
        "title": "Wildlife in Kenya: A Traveller?s Guide",
        "url": "https://www.holidify.com/pages/wildlife-in-kenya-6519.html",
        "placeName": "Kenya",
        "category": "Travel"
      },
      {
        "title": "National Parks in Phuket",
        "url": "https://www.holidify.com/collections/national-parks-in-phuket",
        "placeName": "Phuket",
        "category": "Travel"
      },
      {
        "title": "Things to Do in Shimoga",
        "url": "https://www.holidify.com/collections/things-to-do-in-shimoga",
        "placeName": "Shimoga",
        "category": "Things To Do"
      },
      {
        "title": "Things to Do in Belgaum",
        "url": "https://www.holidify.com/collections/things-to-do-in-belgaum",
        "placeName": "Belgaum",
        "category": "Things To Do"
      },
      {
        "title": "Things to Do in Ranchi",
        "url": "https://www.holidify.com/collections/things-to-do-in-ranchi",
        "placeName": "Ranchi",
        "category": "Things To Do"
      },
      {
        "title": "Things to Do in Surat",
        "url": "https://www.holidify.com/collections/things-to-do-in-surat",
        "placeName": "Surat",
        "category": "Things To Do"
      },
      {
        "title": "Things to Do in Ranthambore",
        "url": "https://www.holidify.com/collections/things-to-do-in-ranthambore",
        "placeName": "Ranthambore",
        "category": "Things To Do"
      },
      {
        "title": "Things to Do in Kasauli",
        "url": "https://www.holidify.com/collections/things-to-do-in-kasauli",
        "placeName": "Kasauli",
        "category": "Things To Do"
      },
      {
        "title": "Things to Do in Wayanad",
        "url": "https://www.holidify.com/collections/things-to-do-in-wayanad",
        "placeName": "Wayanad",
        "category": "Things To Do"
      },
      {
        "title": "Lakes in Las Vegas",
        "url": "https://www.holidify.com/collections/lakes-in-las-vegas",
        "placeName": "Las Vegas",
        "category": "Travel"
      },
      {
        "title": "Zoos in Hamilton",
        "url": "https://www.holidify.com/collections/zoos-in-hamilton",
        "placeName": "Hamilton",
        "category": "Travel"
      },
      {
        "title": "Zoos in Honolulu",
        "url": "https://www.holidify.com/collections/zoos-in-honolulu",
        "placeName": "Honolulu",
        "category": "Travel"
      },
      {
        "title": "Rivers in Washington DC",
        "url": "https://www.holidify.com/collections/rivers-in-washington-dc",
        "placeName": "Washington DC",
        "category": "Travel"
      },
      {
        "title": "Best Parks in Seattle",
        "url": "https://www.holidify.com/collections/parks-in-seattle",
        "placeName": "Seattle",
        "category": "Travel"
      },
      {
        "title": "The Best Campgrounds in New York",
        "url": "https://www.holidify.com/collections/camping-in-new-york-city",
        "placeName": "New York",
        "category": "Things To Do"
      },
      {
        "title": "Quaint Parks in San Diego Perfect for a Stroll & More",
        "url": "https://www.holidify.com/collections/parks-in-san-diego",
        "placeName": "San Diego",
        "category": "Travel"
      },
      {
        "title": "Exciting Zoos in San Diego",
        "url": "https://www.holidify.com/collections/zoos-in-san-diego",
        "placeName": "San Diego",
        "category": "Travel"
      },
      {
        "title": "Peaceful Parks in San Francisco For A break From the City Hustle",
        "url": "https://www.holidify.com/collections/parks-in-san-francisco",
        "placeName": "San Francisco",
        "category": "Travel"
      },
      {
        "title": "Stunning Waterfalls in San Diego for a Cool Dip",
        "url": "https://www.holidify.com/collections/waterfalls-in-san-diego",
        "placeName": "San Diego",
        "category": "Travel"
      },
      {
        "title": "Aquariums in Seattle",
        "url": "https://www.holidify.com/collections/aquariums-in-seattle",
        "placeName": "Seattle",
        "category": "Travel"
      },
      {
        "title": "Zoos in Seattle",
        "url": "https://www.holidify.com/collections/zoos-in-seattle",
        "placeName": "Seattle",
        "category": "Travel"
      },
      {
        "title": "Zoos in Chicago",
        "url": "https://www.holidify.com/collections/zoos-in-chicago",
        "placeName": "Chicago",
        "category": "Travel"
      },
      {
        "title": "Parks in Chicago",
        "url": "https://www.holidify.com/collections/parks-in-chicago",
        "placeName": "Chicago",
        "category": "Travel"
      },
      {
        "title": "Best Aquariums in Houston",
        "url": "https://www.holidify.com/collections/aquariums-in-houston",
        "placeName": "Houston",
        "category": "Travel"
      },
      {
        "title": "Camping in Houston",
        "url": "https://www.holidify.com/collections/camping-in-houston",
        "placeName": "Houston",
        "category": "Things To Do"
      },
      {
        "title": "Aquariums in Chicago",
        "url": "https://www.holidify.com/collections/aquariums-in-chicago",
        "placeName": "Chicago",
        "category": "Travel"
      },
      {
        "title": "Zoos in Houston",
        "url": "https://www.holidify.com/collections/zoos-in-houston",
        "placeName": "Houston",
        "category": "Travel"
      },
      {
        "title": "Beautiful Gardens in Los Angeles for Some Peace & Tranquil",
        "url": "https://www.holidify.com/collections/gardens-in-los-angeles",
        "placeName": "Los Angeles",
        "category": "Travel"
      },
      {
        "title": "Gardens in Houston",
        "url": "https://www.holidify.com/collections/gardens-in-houston",
        "placeName": "Houston",
        "category": "Travel"
      },
      {
        "title": "Stunning Gardens in San Francisco | Botanical Gardens in San Francisco",
        "url": "https://www.holidify.com/collections/gardens-in-san-francisco",
        "placeName": "San Francisco",
        "category": "Travel"
      },
      {
        "title": "The Best Zoo's in New York City",
        "url": "https://www.holidify.com/collections/zoos-in-new-york-city",
        "placeName": "New York City",
        "category": "Travel"
      },
      {
        "title": "Aquariums in Dallas",
        "url": "https://www.holidify.com/collections/aquariums-in-dallas",
        "placeName": "Dallas",
        "category": "Travel"
      },
      {
        "title": "Parks in Houston and Garden Spaces",
        "url": "https://www.holidify.com/collections/parks-in-houston",
        "placeName": "Houston",
        "category": "Travel"
      },
      {
        "title": "Botanical Gardens in Dallas",
        "url": "https://www.holidify.com/collections/gardens-in-dallas",
        "placeName": "Dallas",
        "category": "Travel"
      },
      {
        "title": "Best Zoos in San Francisco for a Fun & Education Time!",
        "url": "https://www.holidify.com/collections/zoos-in-san-francisco",
        "placeName": "San Francisco",
        "category": "Travel"
      },
      {
        "title": "Beautiful Parks in Dallas",
        "url": "https://www.holidify.com/collections/parks-in-dallas",
        "placeName": "Dallas",
        "category": "Travel"
      },
      {
        "title": "Best Zoos in Dallas",
        "url": "https://www.holidify.com/collections/zoos-in-dallas",
        "placeName": "Dallas",
        "category": "Travel"
      },
      {
        "title": "Zoos and Aquariums in Boston That's Worth Visiting",
        "url": "https://www.holidify.com/collections/zoos-in-boston",
        "placeName": "Boston",
        "category": "Travel"
      },
      {
        "title": "Caves in Vietnam For the Best Caving Experience",
        "url": "https://www.holidify.com/collections/caves-in-vietnam",
        "placeName": "Vietnam",
        "category": "Travel"
      },
      {
        "title": "Best Parks in Boston For Picnics and Recreation",
        "url": "https://www.holidify.com/collections/parks-in-boston",
        "placeName": "Boston",
        "category": "Travel"
      },
      {
        "title": "Beautiful Gardens in Boston",
        "url": "https://www.holidify.com/collections/gardens-in-boston",
        "placeName": "Boston",
        "category": "Travel"
      },
      {
        "title": "Tranquil Rivers in Kerala",
        "url": "https://www.holidify.com/collections/rivers-in-kerala",
        "placeName": "Kerala",
        "category": "Travel"
      },
      {
        "title": "National Parks to Spot Red Panda in India",
        "url": "https://www.holidify.com/collections/red-panda-in-india-national-park",
        "placeName": "India",
        "category": "Travel"
      },
      {
        "title": "Hong Kong Waterfalls",
        "url": "https://www.holidify.com/collections/waterfalls-in-hong-kong",
        "placeName": "Hong Kong",
        "category": "Travel"
      },
      {
        "title": "Rivers of Hong Kong",
        "url": "https://www.holidify.com/collections/rivers-in-hong-kong",
        "placeName": "Hong Kong",
        "category": "Travel"
      },
      {
        "title": "Zoos in Hong Kong",
        "url": "https://www.holidify.com/collections/zoos-in-hong-kong",
        "placeName": "Hong Kong",
        "category": "Travel"
      },
      {
        "title": "Must-Visit Zoos in New Zealand for Animal Lovers",
        "url": "https://www.holidify.com/collections/zoos-in-new-zealand",
        "placeName": "New Zealand",
        "category": "Travel"
      },
      {
        "title": "National Parks in New Zealand that Every Nature & Animal Lover Must Visit",
        "url": "https://www.holidify.com/collections/national-parks-in-new-zealand",
        "placeName": "New Zealand",
        "category": "Travel"
      },
      {
        "title": "Fantastic Zoos in Malaysia",
        "url": "https://www.holidify.com/collections/zoos-in-malaysia",
        "placeName": "Malaysia",
        "category": "Travel"
      },
      {
        "title": "Zoos in Kuala Lumpur",
        "url": "https://www.holidify.com/collections/zoos-in-kuala-lumpur",
        "placeName": "Kuala Lumpur",
        "category": "Travel"
      },
      {
        "title": "Enchanting Mangrove Forests in India",
        "url": "https://www.holidify.com/collections/mangrove-forests-in-india",
        "placeName": "India",
        "category": "Travel"
      },
      {
        "title": "Amazing Forests in India",
        "url": "https://www.holidify.com/collections/forests-in-india",
        "placeName": "India",
        "category": "Travel"
      },
      {
        "title": "Beautiful Waterfalls in Salalah",
        "url": "https://www.holidify.com/collections/waterfalls-in-salalah",
        "placeName": "Salalah",
        "category": "Travel"
      },
      {
        "title": "National Parks in Hyderabad",
        "url": "https://www.holidify.com/collections/national-parks-in-hyderabad",
        "placeName": "Hyderabad",
        "category": "Travel"
      },
      {
        "title": "Bird Sanctuaries in Delhi",
        "url": "https://www.holidify.com/collections/bird-sanctuaries-in-delhi",
        "placeName": "Delhi",
        "category": "Travel"
      },
      {
        "title": "National Parks in Himachal Pradesh",
        "url": "https://www.holidify.com/collections/national-parks-in-himachal-pradesh",
        "placeName": "Himachal Pradesh",
        "category": "Travel"
      },
      {
        "title": "Rivers in Thailand",
        "url": "https://www.holidify.com/collections/rivers-in-thailand",
        "placeName": "Thailand",
        "category": "Travel"
      },
      {
        "title": "Wildlife Sanctuaries in Goa for a Wild Time Out!",
        "url": "https://www.holidify.com/collections/wildlife-sanctuaries-in-goa",
        "placeName": "Goa",
        "category": "Travel"
      },
      {
        "title": "National Parks in Bhutan and Wildlife Sanctuaries to Feel Close to Nature",
        "url": "https://www.holidify.com/collections/national-parks-in-bhutan",
        "placeName": "Bhutan",
        "category": "Travel"
      },
      {
        "title": "Deserts in UAE",
        "url": "https://www.holidify.com/collections/deserts-in-uae",
        "placeName": "UAE",
        "category": "Travel"
      },
      {
        "title": "Deserts in Oman",
        "url": "https://www.holidify.com/collections/deserts-in-oman",
        "placeName": "Oman",
        "category": "Travel"
      },
      {
        "title": "Elephant Sanctuaries in Bali",
        "url": "https://www.holidify.com/collections/elephant-sanctuaries-bali",
        "placeName": "Bali",
        "category": "Travel"
      },
      {
        "title": "Zoos in Pattaya",
        "url": "https://www.holidify.com/collections/zoos-in-pattaya",
        "placeName": "Pattaya",
        "category": "Travel"
      },
      {
        "title": "Botanical Gardens in Mauritius",
        "url": "https://www.holidify.com/collections/botanical-gardens-in-mauritius",
        "placeName": "Mauritius",
        "category": "Travel"
      },
      {
        "title": "Waterfalls in Lombok",
        "url": "https://www.holidify.com/collections/waterfalls-in-lombok",
        "placeName": "Lombok",
        "category": "Travel"
      },
      {
        "title": "Zoos in Phuket",
        "url": "https://www.holidify.com/collections/zoos-in-phuket",
        "placeName": "Phuket",
        "category": "Travel"
      },
      {
        "title": "Zoos in Abu Dhabi",
        "url": "https://www.holidify.com/collections/zoos-in-abu-dhabi",
        "placeName": "Abu Dhabi",
        "category": "Travel"
      },
      {
        "title": "Zoos in Thailand to Visit with Family and Kids",
        "url": "https://www.holidify.com/collections/zoos-in-thailand",
        "placeName": "Thailand",
        "category": "Travel"
      },
      {
        "title": "Zoos in Bangkok to Visit with Family and Kids",
        "url": "https://www.holidify.com/collections/zoos-in-bangkok",
        "placeName": "Bangkok",
        "category": "Travel"
      },
      {
        "title": "Best Zoos in Dubai for a Fun Excursion",
        "url": "https://www.holidify.com/collections/zoos-in-dubai",
        "placeName": "Dubai",
        "category": "Travel"
      },
      {
        "title": "Ethical Elephant Sanctuaries in Chiang Mai",
        "url": "https://www.holidify.com/collections/elephant-sanctuaries-in-chiang-mai",
        "placeName": "Chiang Mai",
        "category": "Travel"
      },
      {
        "title": "Waterfalls in Seychelles",
        "url": "https://www.holidify.com/collections/waterfalls-in-seychelles",
        "placeName": "Seychelles",
        "category": "Travel"
      },
      {
        "title": "Zoos in Bali For A Wild Getaway",
        "url": "https://www.holidify.com/collections/zoos-in-bali",
        "placeName": "Bali",
        "category": "Travel"
      },
      {
        "title": "Zoos in Singapore to Experience Wildlife Like Never Before",
        "url": "https://www.holidify.com/collections/zoos-in-singapore",
        "placeName": "Singapore",
        "category": "Travel"
      },
      {
        "title": "Forest Reserves Of India",
        "url": "https://www.holidify.com/collections/forest-reserves-of-india",
        "placeName": "India",
        "category": "Travel"
      },
      {
        "title": "Zoos In India ? Most Popular Zoological Parks In India",
        "url": "https://www.holidify.com/collections/zoos-in-india",
        "placeName": "India",
        "category": "Travel"
      },
      {
        "title": "6 Best Parks in Indore for a Refreshing Day Out",
        "url": "https://www.holidify.com/collections/parks-in-indore",
        "placeName": "Indore",
        "category": "Travel"
      },
      {
        "title": "Gorgeous Parks in Chennai for a Day Amidst Nature",
        "url": "https://www.holidify.com/collections/parks-in-chennai",
        "placeName": "Chennai",
        "category": "Travel"
      },
      {
        "title": "Adventure Activities in Chennai For An Sporty Getaway",
        "url": "https://www.holidify.com/collections/adventure-activities-in-chennai",
        "placeName": "Chennai",
        "category": "Things To Do"
      },
      {
        "title": "National Parks in Arunachal Pradesh & Wildlife Sanctuaries",
        "url": "https://www.holidify.com/collections/national-parks-in-arunachal-pradesh",
        "placeName": "Arunachal Pradesh",
        "category": "Travel"
      }

  ]