[
    {
        "title": "Spend A Weekend Recharging At These 10 Wellness Getaways Around Mumbai",
        "url": "https://lbb.in/mumbai/luxury-retreats-around-mumbai",
        "category": "Travel",
        "placeName": "Mumbai"
    },
    {
        "title": "10 Holi Weekend Getaways Near Mumbai That Promise A Memorable Celebration",
        "url": "https://lbb.in/mumbai/holi-weekend-getaways",
        "category": "Travel",
        "placeName": "Mumbai"
    },
    {
        "title": "13 Farm Stays Around Mumbai To Tick All Your Unique Getaway Goals",
        "url": "https://lbb.in/mumbai/farmstays-around-mumbai",
        "category": "Travel",
        "placeName": "Mumbai"
    },
    {
        "title": "13 Luxury Resorts Near Mumbai That Drip In Class",
        "url": "https://lbb.in/mumbai/escape-5-luxury-resorts-near-mumbai-getaway",
        "category": "Travel",
        "placeName": "Mumbai"
    },
    {
        "title": "10 Resorts In Lonavala That Promise A Relaxed Getaway",
        "url": "https://lbb.in/mumbai/weekend-getaways-in-lonavala",
        "category": "Travel",
        "placeName": "Mumbai"
    },
    {
        "title": "13 Best Family Resorts In & Around Pune For A Comfortable Getaway",
        "url": "https://lbb.in/pune/family-resorts-around-pune",
        "category": "Travel",
        "placeName": "Pune"
    },
    {
        "title": "Jaipur In A Day: Here's Your Guide To An Awesome Day In The Pink City",
        "url": "https://lbb.in/delhi/jaipur-things-to-do-in-a-day",
        "category": "Things To Do",
        "placeName": "Delhi"
    },
    {
        "title": "Uttan: The Perfect Weekend Getaway Guide To This Coastal Village",
        "url": "https://lbb.in/mumbai/map-locals-guide-daycation-uttan",
        "category": "Travel",
        "placeName": "Mumbai"
    },
    {
        "title": "Visit These 8 Resorts In Khopoli For Lush Greenery & Peak Serenity",
        "url": "https://lbb.in/mumbai/khopoli-resorts",
        "category": "Travel",
        "placeName": "Mumbai"
    },
    {
        "title": "Things To Do In Alibaug: Beach Hopping, Road Trips, Forest Trails & More",
        "url": "https://lbb.in/mumbai/things-to-do-in-alibaug",
        "category": "Things To Do",
        "placeName": "Mumbai"
    },
    {
        "title": "Lavasa Guide: What To Do, Where To Stay And More!",
        "url": "https://lbb.in/mumbai/road-trip-lavasa-things-to-do",
        "category": "Things To Do",
        "placeName": "Mumbai"
    },
    {
        "title": "8 Secret Beaches You Can Visit In Alibaug, We Bet You Didn't Know About",
        "url": "https://lbb.in/mumbai/best-alibaug-beaches",
        "category": "Things To Do",
        "placeName": "Mumbai"
    },
    {
        "title": "#LBBPicks: Four Amazing Scuba Diving Destinations In India",
        "url": "https://lbb.in/mumbai/scuba-diving-places-in-india",
        "category": "Things To Do",
        "placeName": "Mumbai"
    },
    {
        "title": "8 Things To Do In Hampi Beyond The UNESCO World Heritage Sites",
        "url": "https://lbb.in/bangalore/things-to-do-hampi",
        "category": "Things To Do",
        "placeName": "Bangalore"
    },
    {
        "title": "15 Top Monsoon Getaways From Mumbai To Make The Best Of This Season",
        "url": "https://lbb.in/mumbai/monsoon-getaways-from-mumbai",
        "category": "Travel",
        "placeName": "Mumbai"
    },
    {
        "title": "Escape The Summer Blues: Hill Stations Near Mumbai For A Mini Vacation",
        "url": "https://lbb.in/mumbai/weekend-getaways-winter",
        "category": "Travel",
        "placeName": "Mumbai"
    },
    {
        "title": "Your Complete Guide To The Fireflies Festival In Maharashtra 2024",
        "url": "https://lbb.in/mumbai/fireflies-festival-maharashtra",
        "category": "Things To Do",
        "placeName": "Mumbai"
    },
    {
        "title": "Long Weekend Chronicles: Beautiful Road Trips From Mumbai",
        "url": "https://lbb.in/mumbai/best-road-trips-mumbai",
        "category": "Travel",
        "placeName": "Mumbai"
    },
    {
        "title": "Weekend Getaways Near The City: 8 Best Retreats That Are Under 4 Hours Away",
        "url": "https://lbb.in/mumbai/check-weekend-getaways-near-mumbai",
        "category": "Travel",
        "placeName": "Mumbai"
    },
    {
        "title": "Long Weekend Roadtrip? Here Are 6 Places For Your To Escape To!",
        "url": "https://lbb.in/mumbai/roadtrip-mumbai-destinations-drive",
        "category": "Travel",
        "placeName": "Mumbai"
    },
    {
        "title": "Home Away From Home: Stunning AirBnBs Near Mumbai That You Can Book",
        "url": "https://lbb.in/mumbai/stunning-airbnbs-around-mumbai",
        "category": "Travel",
        "placeName": "Mumbai"
    },
    {
        "title": "7 Best Tree House Resorts Near Mumbai To Climb The Stairs Into Natures Haven",
        "url": "https://lbb.in/mumbai/tree-house-resorts-near-mumbai",
        "category": "Travel",
        "placeName": "Mumbai"
    },
    {
        "title": "Holiday The Right Way: Call Linger For \"Do-Nothing\" Vacation Places Across India",
        "url": "https://lbb.in/bangalore/book-responsible-travel-locations-linger",
        "category": "Travel",
        "placeName": "Bangalore"
    },
    {
        "title": "Eco Friendly Resorts Near Mumbai For The Perfect Sustainable Holiday",
        "url": "https://lbb.in/mumbai/eco-friendly-resorts-near-mumbai-d51da4",
        "category": "Travel",
        "placeName": "Mumbai"
    },
    {
        "title": "Stargazing To Dining By The River : Five Things You HAVE To Do If You're Heading To… ",
        "url": "https://lbb.in/bangalore/things-to-do-kabini",
        "category": "Things To Do",
        "placeName": "Bangalore"
    },
    {
        "title": "Summer Escape: 5 Best Places To Visit Near Pune For A Sunny Getaway",
        "url": "https://lbb.in/pune/summer-getaway-destinations-in-maharashtra",
        "category": "Travel",
        "placeName": "Pune"
    },
    {
        "title": "Getaway Goals: Rent These Beautiful Villas In Maharashtra For Less Than INR 10,000",
        "url": "https://lbb.in/mumbai/villas-under-10k-maharashtra",
        "category": "Travel",
        "placeName": "Mumbai"
    },
    {
        "title": "Lonavala Chalein? Make The Most Of Your Day Trip With Your Gang Here",
        "url": "https://lbb.in/pune/lonavala-12-hour-itinerary",
        "category": "Things To Do",
        "placeName": "Pune"
    },
    {
        "title": "A Barking Good Time: Pet-Friendly Villas To Bookmark",
        "url": "https://lbb.in/mumbai/pet-friendly-villas-Mumbai",
        "category": "Travel",
        "placeName": "Mumbai"
    },
    {
        "title": "Honeymoon In India At These Gorgeous Places Up North",
        "url": "https://lbb.in/delhi/honeymoon-destinations-near-delhi",
        "category": "Travel",
        "placeName": "Delhi"
    },
    {
        "title": "Need A Family Getaway? Check Into These 10 Kid-Friendly Resorts Near Pune",
        "url": "https://lbb.in/pune/kid-friendly-resorts-near-pune",
        "category": "Travel",
        "placeName": "Pune"
    },
    {
        "title": "Checking Into Kalimpong? Our Pick Of Top Places To Stay In This Hill Town",
        "url": "https://lbb.in/kolkata/places-to-stay-in-kalimpong",
        "category": "Travel",
        "placeName": "Kolkata"
    },
    {
        "title": "Ditch Lavasa & Lonavala! Go On Road Trips To These Destinations Instead",
        "url": "https://lbb.in/pune/road-trips-from-pune",
        "category": "Travel",
        "placeName": "Pune"
    },
    {
        "title": "#JustMarried But No Time? Go For A Mini-Honeymoon At These Resorts Near… ",
        "url": "https://lbb.in/mumbai/resorts-mini-honeymoon",
        "category": "Travel",
        "placeName": "Mumbai"
    },
    {
        "title": "Team Bride: Check Out These Villas Near Mumbai For A Perfect Bachelorette Getaway",
        "url": "https://lbb.in/mumbai/bungalows-bachelorette-getaway-maharashtra",
        "category": "Travel",
        "placeName": "Mumbai"
    },
    {
        "title": "Land Of The Dawn-Lit Mountains: Visit These Places In Arunachal Pradesh",
        "url": "https://lbb.in/kolkata/top-must-see-destinations-in-arunachal-pradesh",
        "category": "Things To Do",
        "placeName": "Kolkata"
    },
    {
        "title": "The Road Not Taken: Make 2024 Count With These Offbeat Travel Destinations",
        "url": "https://lbb.in/mumbai/exotic-destinations-near-mumbai",
        "category": "Travel",
        "placeName": "Mumbai"
    },
    {
        "title": "Need A Quick Getaway? Check Out These Resorts That Are Less Than 1 Hour Away",
        "url": "https://lbb.in/mumbai/best-resorts-near-manori-beach",
        "category": "Travel",
        "placeName": "Mumbai"
    },
    {
        "title": "Lonavala Chalein? Because These Pool Villas Are Everything Your Gang Needs!",
        "url": "https://lbb.in/mumbai/lonavala-villa-jacuzzi-private-pool-affordable",
        "category": "Travel",
        "placeName": "Mumbai"
    },
    {
        "title": "Escape Monotony With A Trip To These Magical Hill Stations In The West",
        "url": "https://lbb.in/pune/hillstations-near-pune",
        "category": "Travel",
        "placeName": "Pune"
    },
    {
        "title": "Longing For A Change? These Luxury Resorts In Mumbai Are Your Sweet Escape",
        "url": "https://lbb.in/mumbai/best-resorts-near-mumbai-luxury-getaway",
        "category": "Travel",
        "placeName": "Mumbai"
    },
    {
        "title": "Need A Family Getaway? Check Into These Kid-Friendly Resorts Around Mumbai",
        "url": "https://lbb.in/mumbai/kid-friendly-resorts-around-mumbai",
        "category": "Travel",
        "placeName": "Mumbai"
    },
    {
        "title": "7 Places To Explore In Telangana If You Love Architecture",
        "url": "https://lbb.in/hyderabad/best-architecture-places-telangana",
        "category": "Things To Do",
        "placeName": "Hyderabad"
    },
    {
        "title": "Planning A Trip To Igatpuri? Here's How You Can Spend A Weekend",
        "url": "https://lbb.in/mumbai/guide-to-Igatpuri",
        "category": "Things To Do",
        "placeName": "Mumbai"
    },
    {
        "title": "Bamboo Banks To Buddhism: Explore Kushalnagar, The Other Side Of Coorg",
        "url": "https://lbb.in/bangalore/kushalnagar-coorg",
        "category": "Things To Do",
        "placeName": "Bangalore"
    },
    {
        "title": "10 Holi Weekend Getaways Near Mumbai That Promise A Memorable Celebration",
        "url": "https://lbb.in/mumbai/holi-weekend-getaways",
        "category": "Travel",
        "placeName": "Mumbai"
    },
    {
        "title": "13 Farm Stays Around Mumbai To Tick All Your Unique Getaway Goals",
        "url": "https://lbb.in/mumbai/farmstays-around-mumbai",
        "category": "Travel",
        "placeName": "Mumbai"
    },
    {
        "title": "13 Luxury Resorts Near Mumbai That Drip In Class",
        "url": "https://lbb.in/mumbai/escape-5-luxury-resorts-near-mumbai-getaway",
        "category": "Travel",
        "placeName": "Mumbai"
    },
    {
        "title": "10 Resorts In Lonavala That Promise A Relaxed Getaway",
        "url": "https://lbb.in/mumbai/weekend-getaways-in-lonavala",
        "category": "Travel",
        "placeName": "Mumbai"
    },
    {
        "title": "13 Best Family Resorts In & Around Pune For A Comfortable Getaway",
        "url": "https://lbb.in/pune/family-resorts-around-pune",
        "category": "Travel",
        "placeName": "Pune"
    },
    {
        "title": "The Land Of Ascending Dragon: 14 Best Places To See In Vietnam",
        "url": "https://lbb.in/all/places-to-see-vietnam",
        "category": "Things To Do",
        "placeName": "All"
    },
    {
        "title": "10 Things To Do In Baku For A Europe Like Vacation",
        "url": "https://lbb.in/all/things-to-do-baku",
        "category": "Things To Do",
        "placeName": "All"
    },
    {
        "title": "10 Best Places To See In Pondicherry —The French Rivera Of India",
        "url": "https://lbb.in/all/places-to-visit-pondicherry",
        "category": "Things To Do",
        "placeName": "All"
    },
    {
        "title": "10 Best Places To See In Udupi To Have The Best Coastal Vacation",
        "url": "https://lbb.in/all/places-to-see-udupi",
        "category": "Things To Do",
        "placeName": "All"
    },
    {
        "title": "Places To Visit In Agra: The Ultimate Travel Guide To Explore, Eat, And Stay At",
        "url": "https://lbb.in/all/places-to-visit-agra",
        "category": "Things To Do",
        "placeName": "All"
    },
    {
        "title": "The Ultimate Guide To The Andamans For The Perfect 2025 Vacay",
        "url": "https://lbb.in/all/places-to-visit-in-andaman",
        "category": "Things To Do",
        "placeName": "All"
    },
    {
        "title": "Places To Visit In Ratnagiri, From Forts To Beaches And More",
        "url": "https://lbb.in/all/ratnagiri-places-to-see",
        "category": "Things To Do",
        "placeName": "All"
    },
    {
        "title": "20 Beach Resorts In Goa For An Offbeat, Luxurious Stay",
        "url": "https://lbb.in/goa/beach-resorts-in-goa",
        "category": "Travel",
        "placeName": "Goa"
    },
    {
        "title": "15 Best Places To Visit In August For A Heavenly Escape",
        "url": "https://lbb.in/delhi/best-places-to-visit-august",
        "category": "Things To Do",
        "placeName": "Delhi"
    },
    {
        "title": "The Ultimate Map For You To Cover Shimla By Visiting These 20 Places",
        "url": "https://lbb.in/all/places-to-see-shimla",
        "category": "Things To Do",
        "placeName": "All"
    },
    {
        "title": "10 Best Summer Camps In Mumbai For Kids To Learn And Have Fun",
        "url": "https://lbb.in/mumbai/summer-camps-in-mumbai",
        "category": "Things To Do",
        "placeName": "Mumbai"
    },
    {
        "title": "Pickleball In Mumbai: 12 Places To Play The New 'IT' Sport",
        "url": "https://lbb.in/mumbai/pickleball-mumbai",
        "category": "Things To Do",
        "placeName": "Mumbai"
    },
    {
        "title": "Paintball In Mumbai? These 5 Places Have You Covered!",
        "url": "https://lbb.in/mumbai/paintball-in-mumbai",
        "category": "Things To Do",
        "placeName": "Mumbai"
    },
    {
        "title": "13 Things To Do In Summer In Mumbai From Paragliding To Sailing At Sunset",
        "url": "https://lbb.in/mumbai/cool-things-to-do-in-summer-mumbai",
        "category": "Things To Do",
        "placeName": "Mumbai"
    },
    {
        "title": "Skip Resorts on Your Bali Getaway - These Beautiful Airbnbs Have It All!",
        "url": "https://lbb.in/all/Bali-getaway-airbnbs",
        "category": "Travel",
        "placeName": "All"
    },
    {
        "title": "Top 17 Destinations For A Perfect Monsoon Vacation In 2025",
        "url": "https://lbb.in/all/monsoon-destinations-india",
        "category": "Travel",
        "placeName": "All"
    },
    {
        "title": "Luxe Airbnb Stays In  Goa To Check Out In 2025",
        "url": "https://lbb.in/all/luxe-airbnb-stays-in-goa",
        "category": "Travel",
        "placeName": "All"
    },
    {
        "title": "Best Places To Visit In Kodaikanal, The Princess Of Hill Stations",
        "url": "https://lbb.in/bangalore/best-places-to-visit-in-kodaikanal",
        "category": "Things To Do",
        "placeName": "Bangalore"
    },
    {
        "title": "7 Luxury Airbnbs In Mumbai That Are Worth The Splurge",
        "url": "https://lbb.in/mumbai/luxury-airbnbs-in-mumbai",
        "category": "Travel",
        "placeName": "Mumbai"
    },
    {
        "title": "8 Best Spas In Goa To Relax And Reset",
        "url": "https://lbb.in/goa/relax-take-time-xxx-spas-need-visit-north-goa",
        "category": "Things To Do",
        "placeName": "Goa"
    },
    {
        "title": "Hidden Gems In Goa: Best Places To Stay At, Eat, Visit & Repeat",
        "url": "https://lbb.in/all/hidden-gems-goa",
        "category": "Things To Do",
        "placeName": "All"
    },
    {
        "title": "Top 16 Cafes To Visit In Kasol That Are Surrounded By Scenic Views",
        "url": "https://lbb.in/all/best-cafes-in-kasol",
        "category": "Food & Drink",
        "placeName": "All"
    },
    {
        "title": "The Ultimate Varanasi Travel Guide: Best Places To Visit, Eat In & Stay At",
        "url": "https://lbb.in/all/varanasi-travel-guide",
        "category": "Things To Do",
        "placeName": "All"
    },
    {
        "title": "10 Best Hotels In Ladakh To Consider For Your Trip To The Land Of High Passes",
        "url": "https://lbb.in/all/hotels-in-ladakh",
        "category": "Travel",
        "placeName": "All"
    },
    {
        "title": "10 International Destinations That You Can Explore Under 1 Lakh From India",
        "url": "https://lbb.in/all/international-destinations-under-1-lakh",
        "category": "Travel",
        "placeName": "All"
    },
    {
        "title": "Things To Do In Rishikesh: Places To Stay At, Eat, & Activities To Do",
        "url": "https://lbb.in/all/rishikesh-things-to-do",
        "category": "Things To Do",
        "placeName": "All"
    },
    {
        "title": "A Complete Itinerary To Thekkady Including Places To Visit, Eat & Stay",
        "url": "https://lbb.in/all/places-to-visit-in-thekkady",
        "category": "Things To Do",
        "placeName": "All"
    },
    {
        "title": "10 Stunning Places To See In Srinagar For A Heavenly Getaway",
        "url": "https://lbb.in/all/places-to-see-in-srinagar",
        "category": "Things To Do",
        "placeName": "All"
    },
    {
        "title": "8 Best Places To Visit In Jibhi To Experience The Best Of Himachal",
        "url": "https://lbb.in/all/best-places-to-visit-in-jibhi",
        "category": "Things To Do",
        "placeName": "All"
    },
    {
        "title": "Places To Visit In Udaipur: From Forts To Hotels, All You Need For A Regal Vacay",
        "url": "https://lbb.in/delhi/places-to-visit-udaipur",
        "category": "Things To Do",
        "placeName": "Delhi"
    },
    {
        "title": "8 Party Beaches In Goa To Dance The Night Away",
        "url": "https://lbb.in/goa/best-beaches-for-nightlife",
        "category": "Music & Nightlife",
        "placeName": "Goa"
    },
    {
        "title": "9 Hostels In Goa That Guarantee An Affordable And Fun Stay",
        "url": "https://lbb.in/goa/best-hostels-in-goa",
        "category": "Travel",
        "placeName": "Goa"
    },
    {
        "title": "12 Best Beaches In Pondicherry To Get Your Dose Of Vitamin Sea",
        "url": "https://lbb.in/delhi/beaches-in-pondicherry",
        "category": "Things To Do",
        "placeName": "Delhi"
    },
    {
        "title": "Here Are 7 Waterfalls In Goa To Enjoy In The Monsoons",
        "url": "https://lbb.in/goa/goa-waterfalls-visit-during-monsoon",
        "category": "Things To Do",
        "placeName": "Goa"
    },
    {
        "title": "10 Best Places To See In Jaisalmer To Experience The Best Of The Golden City",
        "url": "https://lbb.in/all/jaisalmer-places-to-see",
        "category": "Things To Do",
        "placeName": "All"
    },
    {
        "title": "Travel Photographer Danish Shares 20 Best Travel Destinations Of 2025",
        "url": "https://lbb.in/all/best-travel-destinations",
        "category": "Travel",
        "placeName": "All"
    },
    {
        "title": "10 Things To Do In Krabi: From Night Markets And Beaches To Adventure Sports",
        "url": "https://lbb.in/all/things-to-do-in-krabi",
        "category": "Things To Do",
        "placeName": "All"
    },
    {
        "title": "Best Places To Visit In Tawang Once You Add It To Your Bucket List For 2024",
        "url": "https://lbb.in/all/best-places-to-visit-tawang",
        "category": "Things To Do",
        "placeName": "All"
    },
    {
        "title": "14 Best Stays Near The Golden Temple In Amritsar For All Budgets",
        "url": "https://lbb.in/all/best-amritsar-hotels",
        "category": "Travel",
        "placeName": "All"
    },
    {
        "title": "South Goa Beaches: 15 Best Beaches In South Goa To Visit At Least Once",
        "url": "https://lbb.in/goa/best-beaches-in-south-goa",
        "category": "Things To Do",
        "placeName": "Goa"
    },
    {
        "title": "16 Beaches In North Goa For Some Much Needed Vitamin Sea",
        "url": "https://lbb.in/goa/best-beaches-north-goa",
        "category": "Things To Do",
        "placeName": "Goa"
    },
    {
        "title": "10 Places To See In Greece To Live Out Your Mama Mia Dreams",
        "url": "https://lbb.in/all/places-to-see-greece",
        "category": "Things To Do",
        "placeName": "All"
    },
    {
        "title": "Places To Visit In Haridwar For An Ultimate Soul-Stirring Experience",
        "url": "https://lbb.in/all/places-to-visit-haridwar",
        "category": "Things To Do",
        "placeName": "All"
    },
    {
        "title": "20 Resorts In South Goa Spanning Private Beaches, Gorgeous Sunsets & Tasty Food",
        "url": "https://lbb.in/goa/best-resorts-hotels-in-south-goa",
        "category": "Travel",
        "placeName": "Goa"
    },
    {
        "title": "15 Best Restaurants In Alibaug To Check Out!",
        "url": "https://lbb.in/mumbai/best-restaurants-cafes-in-alibaug",
        "category": "Food & Drink",
        "placeName": "Mumbai"
    },
    {
        "title": "7 Indian Coastal Destinations That Are Bearable Enough To Visit In Summer",
        "url": "https://lbb.in/all/coastal-places-for-summer",
        "category": "Travel",
        "placeName": "All"
    },
    {
        "title": "The Ultimate Manali Guide: Places To Visit, Eat At, And Things To Do",
        "url": "https://lbb.in/delhi/manali-best-things-to-do",
        "category": "Things To Do",
        "placeName": "Delhi"
    },
    {
        "title": "A Checklist Of Places To See In Sri Lanka: The Island Of Natural Beauty & Luxury",
        "url": "https://lbb.in/all/places-to-see-sri-lanka",
        "category": "Things To Do",
        "placeName": "All"
    },
    {
        "title": "10 Best Staycation Spots In Mumbai For Some Much Needed Relaxation",
        "url": "https://lbb.in/mumbai/staycations-in-mumbai",
        "category": "Travel",
        "placeName": "Mumbai"
    },
    {
        "title": "11 Places To See In Amritsar To Spend A Magical Time In The Golden City",
        "url": "https://lbb.in/all/places-to-see-in-amritsar",
        "category": "Things To Do",
        "placeName": "All"
    },
    {
        "title": "13 Adventure Sports In Andaman That Should Be On Every Water Baby's Radar",
        "url": "https://lbb.in/all/andaman-water-sports",
        "category": "Things To Do",
        "placeName": "All"
    },
    {
        "title": "Jaipur In A Day: Here's Your Guide To An Awesome Day In The Pink City",
        "url": "https://lbb.in/delhi/jaipur-things-to-do-in-a-day",
        "category": "Things To Do",
        "placeName": "Delhi"
    },
    {
        "title": "10 Best Places To Visit In Gwalior For A Vacation Full Of History",
        "url": "https://lbb.in/all/gwalior-tourist-attraction",
        "category": "Things To Do",
        "placeName": "All"
    },
    {
        "title": "7 Best Hotels In Gulmarg For A Memorable Stay In the Meadow Of Flowers",
        "url": "https://lbb.in/all/gulmarg-best-hotels",
        "category": "Travel",
        "placeName": "All"
    },
    {
        "title": "8 Picturesque Waterfalls Near Mumbai To Splash In For Some Monsoon Fun",
        "url": "https://lbb.in/mumbai/waterfall-near-mumbai",
        "category": "Things To Do",
        "placeName": "Mumbai"
    },
    {
        "title": "A Day In Igatpuri: A Guide To Plan A Peaceful & Quick Hillside Getaway",
        "url": "https://lbb.in/mumbai/igatpuri-places-to-see",
        "category": "Things To Do",
        "placeName": "Mumbai"
    },
    {
        "title": "10 Best Candlelight Dinner Spots In Jaipur To Dine At",
        "url": "https://lbb.in/all/candle-light-dinner-jaipur",
        "category": "Food & Drink",
        "placeName": "All"
    },
    {
        "title": "Uttan: The Perfect Weekend Getaway Guide To This Coastal Village",
        "url": "https://lbb.in/mumbai/map-locals-guide-daycation-uttan",
        "category": "Travel",
        "placeName": "Mumbai"
    },
    {
        "title": "Bhandardara: The Ultimate Weekend Getaway Guide To This Hill Station",
        "url": "https://lbb.in/all/bhandardara-places-to-see",
        "category": "Travel",
        "placeName": "All"
    },
    {
        "title": "13 Best Trekking Spots Near Mumbai To Explore Nature Up Close & Personal",
        "url": "https://lbb.in/mumbai/trekking-near-mumbai",
        "category": "Things To Do",
        "placeName": "Mumbai"
    },
    {
        "title": "Dolphin Point, Goa: Top 5 Beaches For Some Dolphin Sighting",
        "url": "https://lbb.in/mumbai/dolphin-spotting-in-goa",
        "category": "Things To Do",
        "placeName": "Mumbai"
    },
    {
        "title": "15 Palace Hotels In India To Check In For A Royal Treatment",
        "url": "https://lbb.in/bangalore/palaces-turned-hotels",
        "category": "Travel",
        "placeName": "Bangalore"
    },
    {
        "title": "12 Sightseeing Places In Chittorgarh To Dive Deeper Into History",
        "url": "https://lbb.in/all/chittorgarh-sightseeing-places",
        "category": "Things To Do",
        "placeName": "All"
    },
    {
        "title": "The Ultimate Bir Itinerary: Things To Do In India's Paragliding Capital",
        "url": "https://lbb.in/all/things-to-do-bir",
        "category": "Things To Do",
        "placeName": "All"
    },
    {
        "title": "20 Places To Visit In Kasol To Elevate Your Trip Beyond Just Chilling",
        "url": "https://lbb.in/all/places-to-visit-in-kasol",
        "category": "Things To Do",
        "placeName": "All"
    },
    {
        "title": "Visit These 8 Resorts In Khopoli For Lush Greenery & Peak Serenity",
        "url": "https://lbb.in/mumbai/khopoli-resorts",
        "category": "Travel",
        "placeName": "Mumbai"
    },
    {
        "title": "12 Essential Stops In Sissu Valley, Manali, For An Unforgettable Trip",
        "url": "https://lbb.in/delhi/sissu-valley-manali",
        "category": "Things To Do",
        "placeName": "Delhi"
    },
    {
        "title": "Places To See In Balgaum — An Insider's Guide To Exploring The Quaint Town",
        "url": "https://lbb.in/all/belgaum-places-to-see",
        "category": "Things To Do",
        "placeName": "All"
    },
    {
        "title": "6 Must-See Places In Nepal To Have A Good Time",
        "url": "https://lbb.in/all/places-to-see-in-nepal",
        "category": "Things To Do",
        "placeName": "All"
    },
    {
        "title": "10 Scenic Flight Routes Worth Fighting The Window Seat For",
        "url": "https://lbb.in/all/best-scenic-flight-routes",
        "category": "Travel",
        "placeName": "All"
    },
    {
        "title": "12 Things To Do In & Around Marine Drive Beyond Catching Sunsets",
        "url": "https://lbb.in/mumbai/things-to-do-in-marine-drive-mumbai",
        "category": "Things To Do",
        "placeName": "Mumbai"
    },
    {
        "title": "10 Top Amusement Parks In Mumbai To Visit With Friends Or Family",
        "url": "https://lbb.in/mumbai/amusement-parks-in-mumbai",
        "category": "Things To Do",
        "placeName": "Mumbai"
    },
    {
        "title": "Top Places To See In Darjeeling And Things To Do, From Cable Cars To Toy Trains",
        "url": "https://lbb.in/all/places-to-see-darjeeling",
        "category": "Things To Do",
        "placeName": "All"
    },
    {
        "title": "14 Sightseeing Places In Almora To Experience The Best Of Kumaoni Life",
        "url": "https://lbb.in/all/places-to-visit-in-almora",
        "category": "Things To Do",
        "placeName": "All"
    },
    {
        "title": "Things To Do In Alibaug: Beach Hopping, Road Trips, Forest Trails & More",
        "url": "https://lbb.in/mumbai/things-to-do-in-alibaug",
        "category": "Things To Do",
        "placeName": "Mumbai"
    },
    {
        "title": "Things To Do In Lonavala: The Only Itinerary You'll Need For This Getaway",
        "url": "https://lbb.in/mumbai/things-to-do-in-lonavala",
        "category": "Things To Do",
        "placeName": "Mumbai"
    },
    {
        "title": "Learn Surfing In Goa At These 5 Surf Schools",
        "url": "https://lbb.in/goa/goa-surfing",
        "category": "Things To Do",
        "placeName": "Goa"
    },
    {
        "title": "From Beautiful Beaches To Ancient Ruins: 9 Places To See In Cambodia",
        "url": "https://lbb.in/all/places-to-see-cambodia",
        "category": "Things To Do",
        "placeName": "All"
    },
    {
        "title": "9 Infinity Pools In Mumbai That Offer Views, Drinks And Relaxation",
        "url": "https://lbb.in/mumbai/infinity-pools-mumbai",
        "category": "Things To Do",
        "placeName": "Mumbai"
    },
    {
        "title": "Lavasa Guide: What To Do, Where To Stay And More!",
        "url": "https://lbb.in/mumbai/road-trip-lavasa-things-to-do",
        "category": "Things To Do",
        "placeName": "Mumbai"
    },
    {
        "title": "Hill Stations In South India: 8 Lesser Known Spots To Add To Your Itinerary",
        "url": "https://lbb.in/bangalore/hill-stations-in-south-india",
        "category": "Travel",
        "placeName": "Bangalore"
    },
    {
        "title": "15 Picnic Spots In Mumbai That Will Help You Relax Amidst Nature",
        "url": "https://lbb.in/mumbai/picnic-spots-in-mumbai",
        "category": "Things To Do",
        "placeName": "Mumbai"
    },
    {
        "title": "18 Best Places To Visit In Visakhapatnam",
        "url": "https://lbb.in/hyderabad/top-things-to-do-visakhapatnam",
        "category": "Things To Do",
        "placeName": "Hyderabad"
    },
    {
        "title": "10 Must-Visit Tourist Attractions In Guwahati For The Wanderlust In You",
        "url": "https://lbb.in/kolkata/places-to-visit-in-guwahati",
        "category": "Things To Do",
        "placeName": "Kolkata"
    },
    {
        "title": "Top 12 Museums In Goa For A Dive Into Its Local Heritage",
        "url": "https://lbb.in/goa/museums-in-goa",
        "category": "Things To Do",
        "placeName": "Goa"
    },
    {
        "title": "8 Secret Beaches You Can Visit In Alibaug, We Bet You Didn't Know About",
        "url": "https://lbb.in/mumbai/best-alibaug-beaches",
        "category": "Things To Do",
        "placeName": "Mumbai"
    },
    {
        "title": "Top Attractions In The City Of Ajmer To Know Rich History And Culture",
        "url": "https://lbb.in/all/places-to-see-in-ajmer",
        "category": "Things To Do",
        "placeName": "All"
    },
    {
        "title": "Top Places To Visit In Jawai Bandh For An Offbeat Vacation In Rajasthan",
        "url": "https://lbb.in/all/places-to-visit-in-jawai",
        "category": "Things To Do",
        "placeName": "All"
    },
    {
        "title": "10 Places To See In Puri, From Temples To Beaches For The Perfect Vacay",
        "url": "https://lbb.in/all/places-to-see-in-puri",
        "category": "Things To Do",
        "placeName": "All"
    },
    {
        "title": "8 Destination Wedding Places In India For A Dreamy Celebration",
        "url": "https://lbb.in/all/destination-wedding-in-india",
        "category": "Travel",
        "placeName": "All"
    },
    {
        "title": "11 Five-Star Hotels In Goa That Have Our Vote For The Best Relaxing Stays!",
        "url": "https://lbb.in/bangalore/best-five-star-hotels-in-goa",
        "category": "Travel",
        "placeName": "Bangalore"
    },
    {
        "title": "12 Exciting Treks In India That's Made It To Our Bucket List",
        "url": "https://lbb.in/chennai/top-treks-in-india",
        "category": "Things To Do",
        "placeName": "Chennai"
    },
    {
        "title": "Experience Best Holi Celebration In India At These 10 Iconic Places",
        "url": "https://lbb.in/mumbai/best-holi-celebration-destinations-india",
        "category": "Things To Do",
        "placeName": "Mumbai"
    },
    {
        "title": "17 Places To See In Alleppey For A Fulfilling Serene Getaway",
        "url": "https://lbb.in/all/places-to-see-in-alleppey",
        "category": "Things To Do",
        "placeName": "All"
    },
    {
        "title": "Live Like The Kings! 8 Best Hotels Near Fateh Sagar Lake For A Royal Experience",
        "url": "https://lbb.in/all/hotels-near-fatehsagar-lake",
        "category": "Travel",
        "placeName": "All"
    },
    {
        "title": "10 Best Places To See In Surat To Make The Most The Textile Capital",
        "url": "https://lbb.in/all/places-to-visit-in-surat",
        "category": "Things To Do",
        "placeName": "All"
    },
    {
        "title": "11 Top Beaches In Vizag For The Best Of Vitamin Sea",
        "url": "https://lbb.in/hyderabad/must-visit-beaches-vizag",
        "category": "Things To Do",
        "placeName": "Hyderabad"
    },
    {
        "title": "12 Places In Lansdowne You Must Include in Your Itinerary",
        "url": "https://lbb.in/delhi/places-to-visit-in-lansdowne",
        "category": "Things To Do",
        "placeName": "Delhi"
    },
    {
        "title": "10 Stargazing Spots In India To Make Your Next Wish On A Shooting Star",
        "url": "https://lbb.in/all/stargazing-in-india",
        "category": "Things To Do",
        "placeName": "All"
    },
    {
        "title": "9 Most Scenic Long Drives In Maharashtra That Are Worth Every Mile",
        "url": "https://lbb.in/mumbai/monsoon-checklist-drive-scenic-routes-maharashtra",
        "category": "Travel",
        "placeName": "Mumbai"
    },
    {
        "title": "8 Things To Do In Hampi Beyond The UNESCO World Heritage Sites",
        "url": "https://lbb.in/bangalore/things-to-do-hampi",
        "category": "Things To Do",
        "placeName": "Bangalore"
    },
    {
        "title": "10 Volcano Hikes That Belong On Your Bucket List This Year",
        "url": "https://lbb.in/all/volcanoes-to-visit",
        "category": "Things To Do",
        "placeName": "All"
    },
    {
        "title": "The Ultimate Dehradun Guide: 15 Places To Have On Your Doon Bucket List",
        "url": "https://lbb.in/all/places-to-visit-dehradun",
        "category": "Things To Do",
        "placeName": "All"
    },
    {
        "title": "Top 15 Nature Resorts In India To Step Into DND Mode In 2025",
        "url": "https://lbb.in/all/nature-retreats-in-india",
        "category": "Travel",
        "placeName": "All"
    },
    {
        "title": "Love Maasai Mara? 6 Best Alternatives For Wildlife Tourism In India",
        "url": "https://lbb.in/all/maasai-mara-alternatives",
        "category": "Travel",
        "placeName": "All"
    },
    {
        "title": "Luxe Airbnb Stays In  Goa To Check Out In 2025",
        "url": "https://lbb.in/all/luxe-airbnb-stays-in-goa",
        "category": "Travel",
        "placeName": "All"
    },
    {
        "title": "Solo Trip For Women: 8 Women-Only Travel Groups To Plan The Best Vacations",
        "url": "https://lbb.in/mumbai/groups-women-solo-travellers",
        "category": "Travel",
        "placeName": "Mumbai"
    },
    {
        "title": "Love Turkey? 10 Destinations That Are Similar To Turkey",
        "url": "https://lbb.in/all/places-like-turkey",
        "category": "Travel",
        "placeName": "All"
    },
    {
        "title": "Skip Thailand, Go To These 8 International Destinations Instead",
        "url": "https://lbb.in/all/places-like-thailand",
        "category": "Travel",
        "placeName": "All"
    },
    {
        "title": "Love Dubai? Check Out These 6 Destinations With A Similar Vibe",
        "url": "https://lbb.in/all/places-like-dubai",
        "category": "Travel",
        "placeName": "All"
    },
    {
        "title": "Love Goa? Check Out These 5 Alternate Destinations For A Similar Vibe",
        "url": "https://lbb.in/all/places-like-goa",
        "category": "Travel",
        "placeName": "All"
    },
    {
        "title": "Skip Lonavala, Head To These 12 Places Instead For A Perfect Getaway",
        "url": "https://lbb.in/all/places-like-lonavala",
        "category": "Travel",
        "placeName": "All"
    },
    {
        "title": "Love Agra? Check Out These 7 Places To Relive The Mughal Era",
        "url": "https://lbb.in/all/places-like-agra",
        "category": "Travel",
        "placeName": "All"
    },
    {
        "title": "Love Darjeeling? 8 Other Places In West Bengal & Beyond With A Similar Vibe",
        "url": "https://lbb.in/all/places-like-darjeeling",
        "category": "Travel",
        "placeName": "All"
    },
    {
        "title": "Love Manali? Go To These 10 Underrated Hill Stations That Give Similar Feels",
        "url": "https://lbb.in/all/places-like-manali",
        "category": "Travel",
        "placeName": "All"
    },
    {
        "title": "8 Lesser-Known Alternatives To Popular Himalayan Treks In India",
        "url": "https://lbb.in/all/offbeat-himalayas-treks",
        "category": "Things To Do",
        "placeName": "All"
    },
    {
        "title": "Where London Happens: Top Airbnbs in the City’s Most Iconic Neighbourhoods",
        "url": "https://lbb.in/all/iconic-london-airbnbs",
        "category": "Travel",
        "placeName": "All"
    },
    {
        "title": "13 One-Day Treks In Maharashtra To Make The Most Of Monsoon",
        "url": "https://lbb.in/mumbai/one-day-monsoon-treks-near-mumbai",
        "category": "Things To Do",
        "placeName": "Mumbai"
    },
    {
        "title": "15 Top Monsoon Getaways From Mumbai To Make The Best Of This Season",
        "url": "https://lbb.in/mumbai/monsoon-getaways-from-mumbai",
        "category": "Travel",
        "placeName": "Mumbai"
    },
    {
        "title": "11 Best Visa Free Countries To Visit For Indian Nationals In 2025",
        "url": "https://lbb.in/all/visa-free-countries",
        "category": "Travel",
        "placeName": "All"
    },
    {
        "title": "10 Places To Visit In July 2025 To Make The Best Of Indian Monsoons",
        "url": "https://lbb.in/all/places-to-visit-in-july",
        "category": "Things To Do",
        "placeName": "All"
    },
    {
        "title": "15 Waterfalls In India That Every Nature Lover Should Bookmark",
        "url": "https://lbb.in/all/best-waterfalls-in-india",
        "category": "Things To Do",
        "placeName": "All"
    },
    {
        "title": "Top 6 International Honeymoon Destinations To Check Out In 2025",
        "url": "https://lbb.in/all/international-honeymoon-destinations",
        "category": "Travel",
        "placeName": "All"
    },
    {
        "title": "Escape The Summer Blues: Hill Stations Near Mumbai For A Mini Vacation",
        "url": "https://lbb.in/mumbai/weekend-getaways-winter",
        "category": "Travel",
        "placeName": "Mumbai"
    },
    {
        "title": "8 Places To Visit In Mohali Other Than The Famous Cricket Stadium",
        "url": "https://lbb.in/all/places-to-visit-in-mohali",
        "category": "Things To Do",
        "placeName": "All"
    },
    {
        "title": "Places To See In Dubai: Your Ultimate Travel Guide to DXB",
        "url": "https://lbb.in/all/places-to-see-in-dubai",
        "category": "Things To Do",
        "placeName": "All"
    },
    {
        "title": "8 Best Hotels To Stay At In Spiti For A Comfortable Trip With Panoramic Views",
        "url": "https://lbb.in/all/hotels-spiti-valley",
        "category": "Travel",
        "placeName": "All"
    },
    {
        "title": "10 Tourist Attractions In Alappuzha To Explore The Venice Of The East",
        "url": "https://lbb.in/all/tourist-attractions-alappuzha",
        "category": "Things To Do",
        "placeName": "All"
    },
    {
        "title": "Gedhi Route: 10 Touristy Spots In Chandigarh that Shouldn't Be Missed",
        "url": "https://lbb.in/all/chandigarh-tourist-attractions",
        "category": "Things To Do",
        "placeName": "All"
    },
    {
        "title": "Hotels Near Burj Khalifa That Will Make Your DXB Visit Even More Memorable",
        "url": "https://lbb.in/all/hotels-near-burj-khalifa",
        "category": "Travel",
        "placeName": "All"
    },
    {
        "title": "You Cannot Miss These 18 Experiences While Visiting Myanmar",
        "url": "https://lbb.in/all/places-to-see-in-myanmar",
        "category": "Things To Do",
        "placeName": "All"
    },
    {
        "title": "9 Indian Heritage Sites That Make History And Art Come Alive",
        "url": "https://lbb.in/all/indian-heritage-places",
        "category": "Things To Do",
        "placeName": "All"
    },
    {
        "title": "Ancient Forts To Serene Beaches: Here Are 8 Places To Visit In Murud Janjira",
        "url": "https://lbb.in/mumbai/places-to-visit-in-murud-janjira",
        "category": "Things To Do",
        "placeName": "Mumbai"
    },
    {
        "title": "The Only 24-Hour Itinerary You Need To Explore Manori, Mumbai's Coastal Gem",
        "url": "https://lbb.in/mumbai/places-to-visit-in-manori",
        "category": "Things To Do",
        "placeName": "Mumbai"
    },
    {
        "title": "12 Tourist Attractions In Egypt For A Historical Vacation",
        "url": "https://lbb.in/all/tourist-places-egypt",
        "category": "Things To Do",
        "placeName": "All"
    },
    {
        "title": "Magnificent Palaces To Museums: 8 Places To Visit In Mysore You Shouldn't Miss",
        "url": "https://lbb.in/all/places-to-visit-in-mysore",
        "category": "Things To Do",
        "placeName": "All"
    },
    {
        "title": "Tropical Treasure Trove: 10 Places To Experience The Absolute Best Of Mauritius",
        "url": "https://lbb.in/all/places-to-visit-mauritius",
        "category": "Things To Do",
        "placeName": "All"
    },
    {
        "title": "8 Homestays In & Around Mumbai Under INR 7,000",
        "url": "https://lbb.in/mumbai/homestays-in-mumbai",
        "category": "Travel",
        "placeName": "Mumbai"
    },
    {
        "title": "10 Best Places To See In Seoul & Make Your K-Drama Dreams Come True",
        "url": "https://lbb.in/all/places-to-visit-in-seoul",
        "category": "Things To Do",
        "placeName": "All"
    },
    {
        "title": "The Hill District of Kerala: 14 Places In Wayanad For Thrill Seekers",
        "url": "https://lbb.in/all/places-to-see-wayanad",
        "category": "Things To Do",
        "placeName": "All"
    },
    {
        "title": "15 Places In Vienna To Revel In Baroque Architecture And Museums",
        "url": "https://lbb.in/all/things-to-visit-in-vienna",
        "category": "Things To Do",
        "placeName": "All"
    },
    {
        "title": "9 Underrated Alternatives To Popular Travel Destinations For 2024",
        "url": "https://lbb.in/all/alternatives-to-popular-destinations",
        "category": "Travel",
        "placeName": "All"
    },
    {
        "title": "Top 5 Indian Hot Air Balloon Ride Destinations & Enjoy Breathtaking Views",
        "url": "https://lbb.in/all/hot-air-balloon-rides",
        "category": "Things To Do",
        "placeName": "All"
    },
    {
        "title": "8 Destinations In India That Are Perfect For Your Ritualistic Solo Trip",
        "url": "https://lbb.in/all/best-solo-trip-places-india",
        "category": "Travel",
        "placeName": "All"
    },
    {
        "title": "Scotland Of India: 12 Best Places To Visit In Coorg For Your Next Vacation",
        "url": "https://lbb.in/all/places-to-visit-coorg",
        "category": "Things To Do",
        "placeName": "All"
    },
    {
        "title": "15 Places To See In Kuala Lumpur, The Melting Pot Of Malaysia",
        "url": "https://lbb.in/all/places-to-see-in-kuala-lumpur",
        "category": "Things To Do",
        "placeName": "All"
    },
    {
        "title": "Breathtaking Views And Historical Charm: A Perfect Weekend Getaway At Khandala",
        "url": "https://lbb.in/all/places-to-visit-khandala",
        "category": "Travel",
        "placeName": "All"
    },
    {
        "title": "Scenic Paradise Awaits: Discover Tarkarli’s Pristine Beaches And Rich Heritage",
        "url": "https://lbb.in/mumbai/places-to-see-in-tarkarli",
        "category": "Things To Do",
        "placeName": "Mumbai"
    },
    {
        "title": "10 Monuments You Must Visit On Your Delhi Darshan With Family & Friends",
        "url": "https://lbb.in/all/delhi-historical-monument",
        "category": "Things To Do",
        "placeName": "All"
    },
    {
        "title": "Camping At Pawna Lake: Your Itinerary For The Best 24 Hours In Pawna",
        "url": "https://lbb.in/mumbai/pawna-lake",
        "category": "Things To Do",
        "placeName": "Mumbai"
    },
    {
        "title": "Water Sports, Night Markets & Scenic Views: 15 Best Sights To Visit In Pattaya",
        "url": "https://lbb.in/all/sights-to-see-pattaya",
        "category": "Things To Do",
        "placeName": "All"
    },
    {
        "title": "Mesmerising Waterfalls And Surreal Lakes: The Best Places To See In Dalhousie",
        "url": "https://lbb.in/all/dalhousie-places-to-see",
        "category": "Things To Do",
        "placeName": "All"
    },
    {
        "title": "8 Best Camping Sites In Rishikesh For A Fun Offbeat Adventure",
        "url": "https://lbb.in/all/best-camping-places-in-rishikesh",
        "category": "Travel",
        "placeName": "All"
    },
    {
        "title": "A Ride Into The Wild: Pack In An Adventure At These Wildlife Safaris Near Mumbai",
        "url": "https://lbb.in/mumbai/wildlife-safari-near-mumbai",
        "category": "Things To Do",
        "placeName": "Mumbai"
    },
    {
        "title": "A Paradise For Adventure Lovers: Your Guide For The Perfect 24 Hours In Kamshet",
        "url": "https://lbb.in/mumbai/guide-to-kamshet",
        "category": "Things To Do",
        "placeName": "Mumbai"
    },
    {
        "title": "24 Hours In Araku Valley? Tick Off As Many As These Must-Visit Spots!",
        "url": "https://lbb.in/all/places-to-see-araku",
        "category": "Things To Do",
        "placeName": "All"
    },
    {
        "title": "Rooms With Views: Where To Check Into For A Romantic & Instagram-Worthy Holiday",
        "url": "https://lbb.in/bangalore/rooms-views-stay-picture-perfect",
        "category": "Travel",
        "placeName": "Bangalore"
    },
    {
        "title": "Stay At These 7 Couple Friendly Hotels Under INR 5,000!",
        "url": "https://lbb.in/all/couple-friendly-hotels-delhi",
        "category": "Travel",
        "placeName": "All"
    },
    {
        "title": "10 Things To See In Bangkok If You Are Visiting For The First Time",
        "url": "https://lbb.in/all/things-to-see-in-bangkok",
        "category": "Things To Do",
        "placeName": "All"
    },
    {
        "title": "Wildflower Meadows & Scenic Views: The Best Of Sight Seeing In Pahalgam",
        "url": "https://lbb.in/all/places-to-see-in-pahalgam",
        "category": "Things To Do",
        "placeName": "All"
    },
    {
        "title": "Discover Nashik: Your Ultimate Guide to Heritage and Urban Delights",
        "url": "https://lbb.in/mumbai/places-to-go-nashik",
        "category": "Things To Do",
        "placeName": "Mumbai"
    },
    {
        "title": "Picnic Chronicles: Mumbai's Best Picnic Spots To Lounge Around",
        "url": "https://lbb.in/mumbai/best-picnic-spots-mumbai",
        "category": "Things To Do",
        "placeName": "Mumbai"
    },
    {
        "title": "8 Best Kerala Houseboats For Your Next Trip To God's Own Country",
        "url": "https://lbb.in/all/best-kerala-houseboats",
        "category": "Travel",
        "placeName": "All"
    },
    {
        "title": "In Bombay Over The Weekend? Here Are All The Things To Check Off Your List",
        "url": "https://lbb.in/mumbai/mumbai-itinerary",
        "category": "Things To Do",
        "placeName": "Mumbai"
    },
    {
        "title": "8 Places To Visit In Mandu, The Destination For All Architecture Enthusiasts",
        "url": "https://lbb.in/all/places-to-visit-mandu",
        "category": "Things To Do",
        "placeName": "All"
    },
    {
        "title": "Best Things To See In Munnar: An Exhaustive Itinerary That Covers Everything!",
        "url": "https://lbb.in/all/things-to-see-munnar",
        "category": "Things To Do",
        "placeName": "All"
    },
    {
        "title": "Tourist In Turkey: Guide To Places That Cannot Be Missed In The Land Of Marvels",
        "url": "https://lbb.in/all/turkey-places-to-visit",
        "category": "Things To Do",
        "placeName": "All"
    },
    {
        "title": "12 Best Places In Malaysia That Offer An Experience That Shouldn't Be Missed",
        "url": "https://lbb.in/all/malaysia-tourist-places",
        "category": "Things To Do",
        "placeName": "All"
    },
    {
        "title": "River Rafting In Manali: 7 Travel Companies That Offer Safe & Fun Experiences",
        "url": "https://lbb.in/hyderabad/river-rafting-manali",
        "category": "Things To Do",
        "placeName": "Hyderabad"
    },
    {
        "title": "10 Best Places To Visit In Kochi, From Synagogue To Serene Beaches & More!",
        "url": "https://lbb.in/chennai/kochi-tour-places",
        "category": "Things To Do",
        "placeName": "Chennai"
    },
    {
        "title": "Rafting In Rishikesh: The Ultimate Guide Before Braving The Waves Of The Ganges",
        "url": "https://lbb.in/all/rafting-rishikesh",
        "category": "Things To Do",
        "placeName": "All"
    },
    {
        "title": "The Ultimate Guide To Scuba Diving In The Andamans: Corals, Caves, Whales & More",
        "url": "https://lbb.in/all/scuba-diving-andamans",
        "category": "Things To Do",
        "placeName": "All"
    },
    {
        "title": "Eat At Rooftop Cafe Or Visit A Fort: Here's How To Make The Most Of Mumbai Rains",
        "url": "https://lbb.in/mumbai/heres-make-best-mumbai-rains",
        "category": "Things To Do",
        "placeName": "Mumbai"
    },
    {
        "title": "Don’t Leave The City For A Holiday: 10 Best Staycations In Mumbai Worth Booking",
        "url": "https://lbb.in/mumbai/best-staycation-hotels",
        "category": "Travel",
        "placeName": "Mumbai"
    },
    {
        "title": "8 Breathtaking Destinations For Skiing In India For The Ultimate Adventure",
        "url": "https://lbb.in/delhi/skiing-in-india",
        "category": "Things To Do",
        "placeName": "Delhi"
    },
    {
        "title": "Different Cruises To And From Andaman With All The Information You Need",
        "url": "https://lbb.in/all/cruises-to-andaman",
        "category": "Travel",
        "placeName": "All"
    },
    {
        "title": "10 Things To Do In And Around Kankaria Lake in Ahmedabad",
        "url": "https://lbb.in/all/kankaria-lake-ahemdabad",
        "category": "Things To Do",
        "placeName": "All"
    },
    {
        "title": "Top 7 Luxury Trains In India That Deserve A Spot On Your Bucket List",
        "url": "https://lbb.in/all/luxury-trains-india",
        "category": "Travel",
        "placeName": "All"
    },
    {
        "title": "10 Best Hotels To Stay At Near The Taj Mahal",
        "url": "https://lbb.in/delhi/hotels-near-taj-mahal-agra",
        "category": "Travel",
        "placeName": "Delhi"
    },
    {
        "title": "5 Reasons To Head To Madh Island This Weekend That Doesn't Involve A Beach",
        "url": "https://lbb.in/mumbai/madh-island-travel-guide",
        "category": "Things To Do",
        "placeName": "Mumbai"
    },
    {
        "title": "LBB Recommends: 27 Stunning Boutique, Luxury Hotels & Stays Across India",
        "url": "https://lbb.in/bangalore/stunning-boutique-luxury-hotels-india",
        "category": "Travel",
        "placeName": "Bangalore"
    },
    {
        "title": "13 Forts In Rajasthan You Must Bookmark For Your Next Royal Vacation",
        "url": "https://lbb.in/hyderabad/forts-of-rajasthan",
        "category": "Things To Do",
        "placeName": "Hyderabad"
    },
    {
        "title": "The Ultimate Ladakh Guide: Places To See, Eat In And Stay At",
        "url": "https://lbb.in/delhi/ladakh-travel-guide",
        "category": "Things To Do",
        "placeName": "Delhi"
    },
    {
        "title": "The Ultimate Bhutan Travel Guide: Best Places To Eat, Visit, & Stay At",
        "url": "https://lbb.in/delhi/bhutan-travel-guide",
        "category": "Things To Do",
        "placeName": "Delhi"
    },
    {
        "title": "Discover The Beauty Of Nainital: Here Are 11 Places You Must Visit",
        "url": "https://lbb.in/delhi/places-to-visit-in-nainital",
        "category": "Things To Do",
        "placeName": "Delhi"
    },
    {
        "title": "Gulmarg In A Day: Here Are Some Hidden Gems That You Should Check Out!",
        "url": "https://lbb.in/delhi/gulmarg-things-to-do",
        "category": "Things To Do",
        "placeName": "Delhi"
    },
    {
        "title": "These 7 Offbeat Hill Stations In North Bengal Should Be On Everyone's Checklist",
        "url": "https://lbb.in/kolkata/offbeat-hill-stations-to-visit",
        "category": "Travel",
        "placeName": "Kolkata"
    },
    {
        "title": "Visiting Kasol? Here Are 8 Best Hostels For An Affordable And Comfy Stay",
        "url": "https://lbb.in/delhi/best-hostels-kasol",
        "category": "Travel",
        "placeName": "Delhi"
    },
    {
        "title": "15 Historical Spots To Visit In Mumbai Everyone Should Visit At Least Once",
        "url": "https://lbb.in/mumbai/mumbais-historical-places",
        "category": "Things To Do",
        "placeName": "Mumbai"
    },
    {
        "title": "Long Weekend Chronicles: Beautiful Road Trips From Mumbai",
        "url": "https://lbb.in/mumbai/best-road-trips-mumbai",
        "category": "Travel",
        "placeName": "Mumbai"
    },
    {
        "title": "Weekend Getaways Near The City: 8 Best Retreats That Are Under 4 Hours Away",
        "url": "https://lbb.in/mumbai/check-weekend-getaways-near-mumbai",
        "category": "Travel",
        "placeName": "Mumbai"
    },
    {
        "title": "These 6 Responsible Tourism Companies In India Let You Travel Like A Local!",
        "url": "https://lbb.in/mumbai/responsible-tourism-companies-in-india",
        "category": "Travel",
        "placeName": "Mumbai"
    },
    {
        "title": "Beachin' Around: Plan A Weekend At Some Of The Prettiest Beaches In Mumbai",
        "url": "https://lbb.in/mumbai/best-beaches-in-mumbai",
        "category": "Things To Do",
        "placeName": "Mumbai"
    },
    {
        "title": "One-Day Picnic Spots Near The City If Time Is The Only Thing You Don't Have",
        "url": "https://lbb.in/mumbai/one-day-picnic-spots-near-mumbai",
        "category": "Things To Do",
        "placeName": "Mumbai"
    },
    {
        "title": "2023 Long Weekend Plans : 11 Offbeat Destinations You Must Visit",
        "url": "https://lbb.in/mumbai/offbeat-destinations-to-visit-in-india",
        "category": "Travel",
        "placeName": "Mumbai"
    },
    {
        "title": "Ocean View In French Town: Relax In These 5 Pondicherry Beachfront Hotels",
        "url": "https://lbb.in/mumbai/top-beachfront-pondicherry-hotels",
        "category": "Travel",
        "placeName": "Mumbai"
    },
    {
        "title": "5 Trekking Destinations Near Mumbai You Need To Experience This Winter",
        "url": "https://lbb.in/mumbai/trekking-destinations-near-mumbai",
        "category": "Things To Do",
        "placeName": "Mumbai"
    },
    {
        "title": "LBB X #SafeSpaces: 10 Safe Bars In Goa Where You Can Dance Your Troubles Away",
        "url": "https://lbb.in/goa/safespaces-safe-bars-goa",
        "category": "Music & Nightlife",
        "placeName": "Goa"
    },
    {
        "title": "5 Destination Wedding Venues In India Where Celebrities Tied The Knot",
        "url": "https://lbb.in/mumbai/celeb-destination-wedding-venues-in-india",
        "category": "Travel",
        "placeName": "Mumbai"
    },
    {
        "title": "Ponmudi To Darjeeling: The 12 Hill Stations That You Need To Visit In India",
        "url": "https://lbb.in/bangalore/hill-stations-to-visit-in-india",
        "category": "Travel",
        "placeName": "Bangalore"
    },
    {
        "title": "From Waves To Massages: Tick Off Kerala's Best Beaches From Your List",
        "url": "https://lbb.in/bangalore/kerala-best-beaches",
        "category": "Things To Do",
        "placeName": "Bangalore"
    },
    {
        "title": "Chasing The Clouds: Top Destinations To Head To During The Monsoon",
        "url": "https://lbb.in/bangalore/popular-monsoon-destinations",
        "category": "Travel",
        "placeName": "Bangalore"
    },
    {
        "title": "We Got You A Guide On Things You Can Do When In Shillong",
        "url": "https://lbb.in/kolkata/things-to-do-in-shillong",
        "category": "Things To Do",
        "placeName": "Kolkata"
    },
    {
        "title": "Night Diving To Volcanic Islands: 5 Things You CANNOT Miss When In Andamans",
        "url": "https://lbb.in/bangalore/things-to-do-havelock-andamans",
        "category": "Things To Do",
        "placeName": "Bangalore"
    },
    {
        "title": "Cheese Farm, Toy Train & Fort: 8 Must-Do Things When In Coonoor",
        "url": "https://lbb.in/bangalore/things-to-do-coonoor",
        "category": "Things To Do",
        "placeName": "Bangalore"
    },
    {
        "title": "For The Gram & Soul: Our Pick Of The Best Places In Goa For Sunsets",
        "url": "https://lbb.in/goa/best-goan-sunsets",
        "category": "Things To Do",
        "placeName": "Goa"
    },
    {
        "title": "Calming Views, Clear Skies & Crisp Air: Work From Mountains This Summer",
        "url": "https://lbb.in/mumbai/work-from-mountain-hostels-india",
        "category": "Travel",
        "placeName": "Mumbai"
    },
    {
        "title": "Long Weekend Roadtrip? Here Are 6 Places For Your To Escape To!",
        "url": "https://lbb.in/mumbai/roadtrip-mumbai-destinations-drive",
        "category": "Travel",
        "placeName": "Mumbai"
    },
    {
        "title": "Musical Caves & Palace Islands: India's 5 Secret Travel Spots To Blow Your Mind",
        "url": "https://lbb.in/bangalore/5-secret-travel-spots-will-blow-mind",
        "category": "Travel",
        "placeName": "Bangalore"
    },
    {
        "title": "These Camps In Secret Spots Are Great For Stargazing & A Chill Time",
        "url": "https://lbb.in/delhi/hushnests-camps-chakrata-jangalia-gurgaon-weekend-getaway",
        "category": "Travel",
        "placeName": "Delhi"
    },
    {
        "title": "Let It Snow: Hit These 10 Places In India Soon If You Want To Witness Snowfall",
        "url": "https://lbb.in/mumbai/best-places-for-snowfall-india",
        "category": "Things To Do",
        "placeName": "Mumbai"
    },
    {
        "title": "10 Of The Trippiest Places We Checked Out In 2021 For Peaceful Vibes",
        "url": "https://lbb.in/mumbai/10-peaceful-places-in-india",
        "category": "Travel",
        "placeName": "Mumbai"
    },
    {
        "title": "Chasing Sunsets: Here Are The Best Sunset Spots In Mumbai",
        "url": "https://lbb.in/mumbai/best-sunset-spots-mumbai",
        "category": "Things To Do",
        "placeName": "Mumbai"
    },
    {
        "title": "Explore Velha Goa's Homestays, Churches & Tourist Attractions With This Guide",
        "url": "https://lbb.in/goa/travel-guide-to-velha-goa",
        "category": "Things To Do",
        "placeName": "Goa"
    },
    {
        "title": "These Hotels Near The Goa Airport Are Gorgeous & Convenient",
        "url": "https://lbb.in/goa/hotels-near-goa-airport",
        "category": "Travel",
        "placeName": "Goa"
    },
    {
        "title": "Meal For 2 Under INR1500: Check Out These Restaurants in Goa",
        "url": "https://lbb.in/goa/must-visit-best-budget-restaurants-goa",
        "category": "Food & Drink",
        "placeName": "Goa"
    },
    {
        "title": "We're Totally Obsessing Over These Infinity Pools In Goa",
        "url": "https://lbb.in/goa/best-infinity-pools-in-goa",
        "category": "Things To Do",
        "placeName": "Goa"
    },
    {
        "title": "New To Goa? This Guide Is All You Need For Goa's Iconic Hangout Spots",
        "url": "https://lbb.in/goa/best-hangout-places-in-goa",
        "category": "Things To Do",
        "placeName": "Goa"
    },
    {
        "title": "7 Quaint Spots To Stay At On Your Next Goan Holiday",
        "url": "https://lbb.in/goa/offbeat-stays-in-goa",
        "category": "Travel",
        "placeName": "Goa"
    },
    {
        "title": "10 Hill Stations Near Goa When You Want To Give The Beaches A Break",
        "url": "https://lbb.in/goa/hill-stations-near-goa",
        "category": "Travel",
        "placeName": "Goa"
    },
    {
        "title": "In Loutolim? Here Are 5 Things To Do In This Beautiful Village In South Goa",
        "url": "https://lbb.in/goa/five-things-visit-loutolim-village-south-goa",
        "category": "Things To Do",
        "placeName": "Goa"
    },
    {
        "title": "Home Away From Home: Stunning AirBnBs Near Mumbai That You Can Book",
        "url": "https://lbb.in/mumbai/stunning-airbnbs-around-mumbai",
        "category": "Travel",
        "placeName": "Mumbai"
    },
    {
        "title": "Visiting Goa This Season? Here Are 10 Of The Fanciest Restaurants You Must Visit",
        "url": "https://lbb.in/goa/best-fancy-fine-dine-restaurants-in-goa",
        "category": "Food & Drink",
        "placeName": "Goa"
    },
    {
        "title": "Plan A Family Vacay At These Kid-Friendly Resorts And Hotels In Goa",
        "url": "https://lbb.in/goa/kids-friendly-resorts-in-goa",
        "category": "Travel",
        "placeName": "Goa"
    },
    {
        "title": "Click, Click: Hit Up THE MOST Instagram-Worthy Spots In Goa",
        "url": "https://lbb.in/goa/Top-Instagramable-places-in-goa",
        "category": "Things To Do",
        "placeName": "Goa"
    },
    {
        "title": "7 Best Tree House Resorts Near Mumbai To Climb The Stairs Into Natures Haven",
        "url": "https://lbb.in/mumbai/tree-house-resorts-near-mumbai",
        "category": "Travel",
        "placeName": "Mumbai"
    },
    {
        "title": "Rafting To Kayaking: You Need To Add Dandeli To Your Next Adventure Trip",
        "url": "https://lbb.in/bangalore/adventure-activities-dandeli",
        "category": "Things To Do",
        "placeName": "Bangalore"
    },
    {
        "title": "Stay, Eat, Chill: This Travel Guide For Morjim Beach Will Have You Sorted",
        "url": "https://lbb.in/goa/travel-guide-for-morjim-beach-goa",
        "category": "Things To Do",
        "placeName": "Goa"
    },
    {
        "title": "Couples, Check Out These 5 Stays In North Goa That Are Romantic & Pocket-Friendly",
        "url": "https://lbb.in/goa/celebrating-v-day-goa-5-stays-romantic-yet-pocket-friendly-north-goa",
        "category": "Travel",
        "placeName": "Goa"
    },
    {
        "title": "Holiday The Right Way: Call Linger For \"Do-Nothing\" Vacation Places Across India",
        "url": "https://lbb.in/bangalore/book-responsible-travel-locations-linger",
        "category": "Travel",
        "placeName": "Bangalore"
    },
    {
        "title": "10 Popular Places You Must Travel To When In Bengal",
        "url": "https://lbb.in/kolkata/popular-tourist-places-west-bengal",
        "category": "Things To Do",
        "placeName": "Kolkata"
    },
    {
        "title": "Eco Friendly Resorts Near Mumbai For The Perfect Sustainable Holiday",
        "url": "https://lbb.in/mumbai/eco-friendly-resorts-near-mumbai-d51da4",
        "category": "Travel",
        "placeName": "Mumbai"
    },
    {
        "title": "Stargazing To Dining By The River : Five Things You HAVE To Do If You're Heading To… ",
        "url": "https://lbb.in/bangalore/things-to-do-kabini",
        "category": "Things To Do",
        "placeName": "Bangalore"
    },
    {
        "title": "Drive To Lonavala For A Picnic: Here Are 5 Popular Spots To Check Out",
        "url": "https://lbb.in/pune/picnic-spots-in-lonavala",
        "category": "Things To Do",
        "placeName": "Pune"
    },
    {
        "title": "Summer Escape: 5 Best Places To Visit Near Pune For A Sunny Getaway",
        "url": "https://lbb.in/pune/summer-getaway-destinations-in-maharashtra",
        "category": "Travel",
        "placeName": "Pune"
    },
    {
        "title": "Getaway Goals: Rent These Beautiful Villas In Maharashtra For Less Than INR 10,000",
        "url": "https://lbb.in/mumbai/villas-under-10k-maharashtra",
        "category": "Travel",
        "placeName": "Mumbai"
    },
    {
        "title": "Planning A Trip To The Hills? Five Things You Must Do When In Kurseong",
        "url": "https://lbb.in/kolkata/things-to-do-in-kurseong",
        "category": "Things To Do",
        "placeName": "Kolkata"
    },
    {
        "title": "Let's Flee! 10 Resorts To Plan A Vacation At In Andhra Pradesh",
        "url": "https://lbb.in/hyderabad/best-resorts-andhra-pradesh",
        "category": "Travel",
        "placeName": "Hyderabad"
    },
    {
        "title": "A Sky Full Of Stars: Go Camping With Your Tribe To These Places Near Mumbai",
        "url": "https://lbb.in/mumbai/camping-places-near-mumbai",
        "category": "Travel",
        "placeName": "Mumbai"
    },
    {
        "title": "Not Going To The Maldives? Check Out These Virgin Beaches In Maharashtra… ",
        "url": "https://lbb.in/mumbai/virgin-beaches-maharashtra",
        "category": "Things To Do",
        "placeName": "Mumbai"
    },
    {
        "title": "Lonavala Chalein? Make The Most Of Your Day Trip With Your Gang Here",
        "url": "https://lbb.in/pune/lonavala-12-hour-itinerary",
        "category": "Things To Do",
        "placeName": "Pune"
    },
    {
        "title": "A Barking Good Time: Pet-Friendly Villas To Bookmark",
        "url": "https://lbb.in/mumbai/pet-friendly-villas-Mumbai",
        "category": "Travel",
        "placeName": "Mumbai"
    },
    {
        "title": "What A View: Stay In One Of The City's Gorgeous Sea-Facing Airbnbs",
        "url": "https://lbb.in/mumbai/airbnbs-sea-view-mumbai",
        "category": "Travel",
        "placeName": "Mumbai"
    },
    {
        "title": "More Than Scenic Views. Check Out This List Of Offbeat Things To Do In Ooty",
        "url": "https://lbb.in/chennai/offbeat-things-to-do-in-ooty-chennai",
        "category": "Things To Do",
        "placeName": "Chennai"
    },
    {
        "title": "These Secret Travel Spots Will Blow Your Mind",
        "url": "https://lbb.in/chennai/secret-travel-destinations-india",
        "category": "Travel",
        "placeName": "Chennai"
    },
    {
        "title": "Dreamy, Luxe Or Budget: Check Into These Cosy Homestays In Munnar",
        "url": "https://lbb.in/chennai/best-homestays-in-munnar-chennai",
        "category": "Travel",
        "placeName": "Chennai"
    },
    {
        "title": "Traveling To Mumbai But Low On Budget? These Backpacking Hostels Are For You",
        "url": "https://lbb.in/mumbai/affordable-backpacker-hostels-mumbai",
        "category": "Travel",
        "placeName": "Mumbai"
    },
    {
        "title": "Room With A View: Stunning Seaside Hotels For The Perfect Staycation",
        "url": "https://lbb.in/mumbai/seaside-hotels-mumbai",
        "category": "Travel",
        "placeName": "Mumbai"
    },
    {
        "title": "Honeymoon In India At These Gorgeous Places Up North",
        "url": "https://lbb.in/delhi/honeymoon-destinations-near-delhi",
        "category": "Travel",
        "placeName": "Delhi"
    },
    {
        "title": "Make Your Weekends Romantic By Checking Into These Luxurious Resorts With Bae",
        "url": "https://lbb.in/pune/5-luxurious-romantic-resorts-in-pune",
        "category": "Travel",
        "placeName": "Pune"
    },
    {
        "title": "Need A Family Getaway? Check Into These 10 Kid-Friendly Resorts Near Pune",
        "url": "https://lbb.in/pune/kid-friendly-resorts-near-pune",
        "category": "Travel",
        "placeName": "Pune"
    },
    {
        "title": "From Parks To Museums: Have You Visited These Iconic Places In Pune?",
        "url": "https://lbb.in/pune/best-places-to-visit-in-pune",
        "category": "Things To Do",
        "placeName": "Pune"
    },
    {
        "title": "Highway On Your Plate: These Dhabas On The Mumbai-Pune Expressway Do Food… ",
        "url": "https://lbb.in/mumbai/dhabas-mumbai-pune-highway",
        "category": "Food & Drink",
        "placeName": "Mumbai"
    },
    {
        "title": "Planning A Visit To Kalimpong? Here's What You Can Do While You're There!",
        "url": "https://lbb.in/kolkata/things-to-do-in-kalimpong",
        "category": "Things To Do",
        "placeName": "Kolkata"
    },
    {
        "title": "Checking Into Kalimpong? Our Pick Of Top Places To Stay In This Hill Town",
        "url": "https://lbb.in/kolkata/places-to-stay-in-kalimpong",
        "category": "Travel",
        "placeName": "Kolkata"
    },
    {
        "title": "Six Offbeat Treks In North Bengal You Need to Check Out!",
        "url": "https://lbb.in/kolkata/6-offbeat-treks-north-bengal-need-checkout-summer",
        "category": "Things To Do",
        "placeName": "Kolkata"
    },
    {
        "title": "Heading To Lachen? Here's Everything You Need To Know",
        "url": "https://lbb.in/kolkata/lachen-guide",
        "category": "Things To Do",
        "placeName": "Kolkata"
    },
    {
        "title": "Put These Spots In North Sikkim On Your Bucket List Now!",
        "url": "https://lbb.in/kolkata/yumthang-valley-&-zero-point-sikkim",
        "category": "Things To Do",
        "placeName": "Kolkata"
    },
    {
        "title": "Ditch Lavasa & Lonavala! Go On Road Trips To These Destinations Instead",
        "url": "https://lbb.in/pune/road-trips-from-pune",
        "category": "Travel",
        "placeName": "Pune"
    },
    {
        "title": "These Log Cabins Are Perfect For A Quiet Vacay Amidst Nature In The Northeast",
        "url": "https://lbb.in/kolkata/wooden-log-cabins-perfect-summer-holidays",
        "category": "Travel",
        "placeName": "Kolkata"
    },
    {
        "title": "Spend A Day At Matheran, A Hill Station That Has Plenty Of Nature To Offer",
        "url": "https://lbb.in/mumbai/spend-a-day-at-matheran-c98b69",
        "category": "Things To Do",
        "placeName": "Mumbai"
    },
    {
        "title": "#JustMarried But No Time? Go For A Mini-Honeymoon At These Resorts Near… ",
        "url": "https://lbb.in/mumbai/resorts-mini-honeymoon",
        "category": "Travel",
        "placeName": "Mumbai"
    },
    {
        "title": "Forts, Lakes, Adventure Sports & More: Make The Most Of A One-Day Trip To Kolad",
        "url": "https://lbb.in/mumbai/day-guide-kolad-forts-lakes-adventure-sports",
        "category": "Things To Do",
        "placeName": "Mumbai"
    },
    {
        "title": "It Feels Like Winter In Summer If You Are Planning A Getaway To Lambasingi",
        "url": "https://lbb.in/hyderabad/things-to-do-lambasingi",
        "category": "Travel",
        "placeName": "Hyderabad"
    },
    {
        "title": "Life’s A Beach At These 3 Gorgeous Seaside Resorts Near The City",
        "url": "https://lbb.in/mumbai/madh-island-resorts",
        "category": "Travel",
        "placeName": "Mumbai"
    },
    {
        "title": "Team Bride: Check Out These Villas Near Mumbai For A Perfect Bachelorette Getaway",
        "url": "https://lbb.in/mumbai/bungalows-bachelorette-getaway-maharashtra",
        "category": "Travel",
        "placeName": "Mumbai"
    },
    {
        "title": "Making Travel Plans? Check Our Guide To Must-Visit Places In Itanagar",
        "url": "https://lbb.in/kolkata/places-to-visit-in-itanagar",
        "category": "Things To Do",
        "placeName": "Kolkata"
    },
    {
        "title": "Land Of The Dawn-Lit Mountains: Visit These Places In Arunachal Pradesh",
        "url": "https://lbb.in/kolkata/top-must-see-destinations-in-arunachal-pradesh",
        "category": "Things To Do",
        "placeName": "Kolkata"
    },
    {
        "title": "Ain't No Trip Like A Road Trip: Make This Your 2021 Checklist",
        "url": "https://lbb.in/hyderabad/best-road-trips-in-india",
        "category": "Travel",
        "placeName": "Hyderabad"
    },
    {
        "title": "Book Your Tickets And Go Trekking Along These Trails In Arunachal Pradesh",
        "url": "https://lbb.in/kolkata/trekking-in-arunachal-pradesh",
        "category": "Things To Do",
        "placeName": "Kolkata"
    },
    {
        "title": "Traveling To Hyderabad? Check Into These Pocket-Friendly Studio Apartments",
        "url": "https://lbb.in/hyderabad/restel-studio-flats",
        "category": "Travel",
        "placeName": "Hyderabad"
    },
    {
        "title": "Planning A Trip To Arunachal? Make Sure You Get A Glimpse Of These Stunning Mountains",
        "url": "https://lbb.in/kolkata/must-visit-mountains-in-arunachal-pradesh",
        "category": "Things To Do",
        "placeName": "Kolkata"
    },
    {
        "title": "Majestic Peaks, Lush Greenery, Hot Water Springs: This Village In Arunachal Pradesh Is… ",
        "url": "https://lbb.in/kolkata/dirang-arunachal-pradesh-travel-guide",
        "category": "Things To Do",
        "placeName": "Kolkata"
    },
    {
        "title": "Local Tribes, Orange Orchards, Gushing Rivers: This Town In Arunachal Is Heaven On… ",
        "url": "https://lbb.in/kolkata/aalo-along-arunachal-pradesh-travel-guide",
        "category": "Things To Do",
        "placeName": "Kolkata"
    },
    {
        "title": "Take A Break And Head To These Stunning Waterfalls In The Northeast",
        "url": "https://lbb.in/kolkata/waterfalls-in-the-northeast-india",
        "category": "Things To Do",
        "placeName": "Kolkata"
    },
    {
        "title": "Escape To This Quaint Town In Meghalaya, With Crystal Clear Rivers & Adventure… ",
        "url": "https://lbb.in/kolkata/dawki-meghalaya-travel-guide",
        "category": "Things To Do",
        "placeName": "Kolkata"
    },
    {
        "title": "The Road Not Taken: Make 2024 Count With These Offbeat Travel Destinations",
        "url": "https://lbb.in/mumbai/exotic-destinations-near-mumbai",
        "category": "Travel",
        "placeName": "Mumbai"
    },
    {
        "title": "Spend A Night At These Luxurious Igloos Located In The Lap Of The Himalayas",
        "url": "https://lbb.in/mumbai/stay-in-luxury-igloos-in-himalayas",
        "category": "Travel",
        "placeName": "Mumbai"
    },
    {
        "title": "From Spotted Deer To Blackbucks: Catch A Glimpse Of It All At These Wildlife… ",
        "url": "https://lbb.in/kolkata/wildlife-sanctuaries-in-west-bengal",
        "category": "Things To Do",
        "placeName": "Kolkata"
    },
    {
        "title": "Visit These National Parks In Bengal For A Taste Of The Wild",
        "url": "https://lbb.in/kolkata/national-parks-in-west-bengal",
        "category": "Things To Do",
        "placeName": "Kolkata"
    },
    {
        "title": "Waterfalls, Caves And Root Bridges: Let Cherrapunji Wow You With Its Natural… ",
        "url": "https://lbb.in/kolkata/Cherrapunji-waterfalls-caves",
        "category": "Things To Do",
        "placeName": "Kolkata"
    },
    {
        "title": "Mountain Lovers! Here Are All Things Fun You Can Do In Darjeeling",
        "url": "https://lbb.in/kolkata/top-things-to-do-in-darjeeling",
        "category": "Things To Do",
        "placeName": "Kolkata"
    },
    {
        "title": "Need A Quick Getaway? Check Out These Resorts That Are Less Than 1 Hour Away",
        "url": "https://lbb.in/mumbai/best-resorts-near-manori-beach",
        "category": "Travel",
        "placeName": "Mumbai"
    },
    {
        "title": "Lonavala Chalein? Because These Pool Villas Are Everything Your Gang Needs!",
        "url": "https://lbb.in/mumbai/lonavala-villa-jacuzzi-private-pool-affordable",
        "category": "Travel",
        "placeName": "Mumbai"
    },
    {
        "title": "These Beautiful Lake-Facing Island Cottages In Mulshi Need Your Attention Now!",
        "url": "https://lbb.in/mumbai/jalsrushti-island-resort",
        "category": "Travel",
        "placeName": "Mumbai"
    },
    {
        "title": "Supernaturally Yours: We Went Exploring And Found Most Haunted Places In India",
        "url": "https://lbb.in/mumbai/most-haunted-places-in-india",
        "category": "Things To Do",
        "placeName": "Mumbai"
    },
    {
        "title": "How Badly Do You Want To Detox And Relax At These Balinese Villas?",
        "url": "https://lbb.in/mumbai/exotica-suvarna-samudra",
        "category": "Travel",
        "placeName": "Mumbai"
    },
    {
        "title": "Tribal Villages, Festivals & Rich History: This Nagaland Village Has Our Heart",
        "url": "https://lbb.in/kolkata/mokokchung-nagaland-travel-guide",
        "category": "Things To Do",
        "placeName": "Kolkata"
    },
    {
        "title": "Zipline Over Rain Forests Or Rappel Down A Cliff In Coorg With These Adventure Folks",
        "url": "https://lbb.in/bangalore/the-quarry-adventures-coorg",
        "category": "Things To Do",
        "placeName": "Bangalore"
    },
    {
        "title": "Escape Monotony With A Trip To These Magical Hill Stations In The West",
        "url": "https://lbb.in/pune/hillstations-near-pune",
        "category": "Travel",
        "placeName": "Pune"
    },
    {
        "title": "Burned Out? Escape To These Wellness Centres In India",
        "url": "https://lbb.in/delhi/wellness-centres-india",
        "category": "Travel",
        "placeName": "Delhi"
    },
    {
        "title": "These Iconic Stepwells Of Telangana Are Totally Worth Visiting",
        "url": "https://lbb.in/hyderabad/stepwells-telangana",
        "category": "Things To Do",
        "placeName": "Hyderabad"
    },
    {
        "title": "Planning A Vacation To Sikkim? Check Our Guide On The Places You Must Visit While… ",
        "url": "https://lbb.in/kolkata/places-to-visit-in-sikkim",
        "category": "Things To Do",
        "placeName": "Kolkata"
    },
    {
        "title": "10 Stunning Spots You Must Visit When In East Sikkim",
        "url": "https://lbb.in/kolkata/east-sikkim-tourist-spots",
        "category": "Things To Do",
        "placeName": "Kolkata"
    },
    {
        "title": "Longing For A Change? These Luxury Resorts In Mumbai Are Your Sweet Escape",
        "url": "https://lbb.in/mumbai/best-resorts-near-mumbai-luxury-getaway",
        "category": "Travel",
        "placeName": "Mumbai"
    },
    {
        "title": "Experience Nature Without Compromising Comfort At These Luxury Tents In Igatpuri",
        "url": "https://lbb.in/mumbai/luxury-tents-igatpuri-glamping",
        "category": "Travel",
        "placeName": "Mumbai"
    },
    {
        "title": "Need A Family Getaway? Check Into These Kid-Friendly Resorts Around Mumbai",
        "url": "https://lbb.in/mumbai/kid-friendly-resorts-around-mumbai",
        "category": "Travel",
        "placeName": "Mumbai"
    },
    {
        "title": "Get That Backpack Ready! These Hostels In Kolkata Are Welcoming Guests Now",
        "url": "https://lbb.in/kolkata/hostels-in-kolkata",
        "category": "Travel",
        "placeName": "Kolkata"
    },
    {
        "title": "Just Married: Honeymoon In India At These 5 Gorgeous Places",
        "url": "https://lbb.in/mumbai/honeymoon-around-mumbai",
        "category": "Travel",
        "placeName": "Mumbai"
    },
    {
        "title": "Camping To Adventurous Sports: Visit This Hill Station Untouched By Tourists",
        "url": "https://lbb.in/mumbai/chikhaldara-hill-station-camping",
        "category": "Things To Do",
        "placeName": "Mumbai"
    },
    {
        "title": "6 Hill Stations Outside Maharashtra That Are Perfect For The Summers",
        "url": "https://lbb.in/mumbai/hill-stations-near-maharashtra",
        "category": "Travel",
        "placeName": "Mumbai"
    },
    {
        "title": "Folks! Check Into These Hyderabad Home Stays Under INR 1,800",
        "url": "https://lbb.in/hyderabad/budget-airbnbs-hyderabad",
        "category": "Travel",
        "placeName": "Hyderabad"
    },
    {
        "title": "7 Places To Explore In Telangana If You Love Architecture",
        "url": "https://lbb.in/hyderabad/best-architecture-places-telangana",
        "category": "Things To Do",
        "placeName": "Hyderabad"
    }
]